{
"type": "FeatureCollection",
"name": "Зоны в базовом сценарии",
"crs": { "type": "name", "properties": { "name": "urn:ogc:def:crs:OGC:1.3:CRS84" } },
"features": [
{ "type": "Feature", "properties": { "id": 1, "POI_CODE": 1 }, "geometry": { "type": "MultiPolygon", "coordinates": [ [ [ [ 56.25708666003969, 57.896853524071226 ], [ 56.258001016862593, 57.898878177269424 ], [ 56.263639550603834, 57.898959161025282 ], [ 56.263603374983518, 57.895169307261561 ], [ 56.25708666003969, 57.896853524071226 ] ] ] ] } },
{ "type": "Feature", "properties": { "id": 1, "POI_CODE": 1 }, "geometry": { "type": "MultiPolygon", "coordinates": [ [ [ [ 56.26715750782725, 57.906499689828593 ], [ 56.267852261575641, 57.906226263315716 ], [ 56.268521283703691, 57.906089549279073 ], [ 56.26934469555362, 57.905734090349441 ], [ 56.269499085275491, 57.90548800133832 ], [ 56.27011664416294, 57.90529659760896 ], [ 56.271506151659686, 57.905460658010831 ], [ 56.273410291562648, 57.905187223591582 ], [ 56.276189306556162, 57.904448940266697 ], [ 56.280151976083957, 57.903573918165954 ], [ 56.281953189505685, 57.90275356559588 ], [ 56.282519285152496, 57.902097270056672 ], [ 56.281850263024424, 57.901304230289412 ], [ 56.282159042468152, 57.900839336772748 ], [ 56.28318830728054, 57.89944462014136 ], [ 56.28282806459621, 57.898678870349144 ], [ 56.284835130980412, 57.89799515139169 ], [ 56.286224638477158, 57.897831056906675 ], [ 56.287099513567718, 57.89714732182216 ], [ 56.287202440048944, 57.896299472254825 ], [ 56.287768535695783, 57.895697760429869 ], [ 56.28797438865827, 57.894795173807417 ], [ 56.288746337267568, 57.893400222633552 ], [ 56.289260969673784, 57.892743756292795 ], [ 56.289724138839361, 57.892278752048831 ], [ 56.289724138839361, 57.89164961908682 ], [ 56.289827065320608, 57.890993120780209 ], [ 56.291216572817369, 57.889433889258328 ], [ 56.291216572817369, 57.888558501574693 ], [ 56.293223639201564, 57.887272737276064 ], [ 56.296465823360677, 57.886151075554352 ], [ 56.296465823360677, 57.884290681418349 ], [ 56.297598014654319, 57.881718801635216 ], [ 56.299913860482242, 57.880077080077967 ], [ 56.300994588535282, 57.879009920881835 ], [ 56.301097515016522, 57.877833272762317 ], [ 56.300016786963496, 57.877231251864174 ], [ 56.297855330857431, 57.877203887038505 ], [ 56.297031919007502, 57.876465028876908 ], [ 56.29533363206702, 57.876328201626094 ], [ 56.2930692494797, 57.877121792436597 ], [ 56.290238771245569, 57.877313346216276 ], [ 56.287922925417639, 57.877395440381015 ], [ 56.285555616349107, 57.877669086243813 ], [ 56.284011719130483, 57.877149157324723 ], [ 56.282519285152489, 57.877121792436597 ], [ 56.279328564234014, 57.877285981453049 ], [ 56.277475887571661, 57.877860637109194 ], [ 56.274542482856297, 57.878161643551159 ], [ 56.272226637028368, 57.878681557836522 ], [ 56.271866394344023, 57.878982557409223 ], [ 56.270888592772238, 57.879420370473298 ], [ 56.270116644162925, 57.880159167935531 ], [ 56.269499085275477, 57.880788501953027 ], [ 56.268366893981813, 57.882129220316152 ], [ 56.267903724816243, 57.883634048744945 ], [ 56.267800798334989, 57.884345400266639 ], [ 56.267903724816243, 57.885275607949531 ], [ 56.267903724816243, 57.886315223357528 ], [ 56.267800798334989, 57.887354808711315 ], [ 56.267594945372522, 57.888503789136841 ], [ 56.2670803129663, 57.890418674928469 ], [ 56.267492018891268, 57.892059924441156 ], [ 56.2670803129663, 57.893810508009416 ], [ 56.266874460003834, 57.89484987667209 ], [ 56.266874460003834, 57.895615708036992 ], [ 56.26697738648506, 57.896490923905134 ], [ 56.266359827597618, 57.898186594010745 ], [ 56.266153974635131, 57.898788264175437 ], [ 56.266153974635131, 57.899499315930832 ], [ 56.266359827597618, 57.900593214241162 ], [ 56.266462754078859, 57.901194844120624 ], [ 56.26619257206562, 57.903587590550131 ], [ 56.266488485699185, 57.904134481651859 ], [ 56.266501351509341, 57.904380579932344 ], [ 56.266604277990574, 57.904537808506944 ], [ 56.266514217319504, 57.904900115212065 ], [ 56.266514217319504, 57.905064177424109 ], [ 56.266488485699185, 57.905159880035207 ], [ 56.266732936092133, 57.905426478822207 ], [ 56.266655741231205, 57.905809283877794 ], [ 56.266630009610878, 57.905904984504502 ], [ 56.266514217319504, 57.90604169924336 ], [ 56.266668607041346, 57.906219427626247 ], [ 56.266848728383529, 57.90630829148806 ], [ 56.266887325813997, 57.906410826440123 ], [ 56.266913057434294, 57.906438169044606 ], [ 56.26715750782725, 57.906499689828593 ] ] ] ] } },
{ "type": "Feature", "properties": { "id": 1, "POI_CODE": 1 }, "geometry": { "type": "MultiPolygon", "coordinates": [ [ [ [ 56.121008337369865, 57.956989786784447 ], [ 56.119753920879738, 57.957399346195196 ], [ 56.117824049356464, 57.957791836241434 ], [ 56.116376645714013, 57.958286708872677 ], [ 56.114929242071547, 57.958645060652849 ], [ 56.11367482558142, 57.958969280606375 ], [ 56.112742054345176, 57.959361753470169 ], [ 56.110554866618813, 57.960539146288497 ], [ 56.1097507534841, 57.961136359751329 ], [ 56.102835380525711, 57.965623674157342 ], [ 56.100390876596229, 57.966579075424669 ], [ 56.098010701717534, 57.968285085787514 ], [ 56.095373210635728, 57.969752189764698 ], [ 56.095115894432617, 57.970093368130279 ], [ 56.098461005072949, 57.969445126459085 ], [ 56.099232953682254, 57.969240416127306 ], [ 56.100519534697781, 57.969240416127306 ], [ 56.101806115713295, 57.969308653034467 ], [ 56.10322135483036, 57.969445126459085 ], [ 56.104765252048978, 57.969445126459085 ], [ 56.107981704587765, 57.969581599364098 ], [ 56.111584131431201, 57.97005925043986 ], [ 56.112227421938954, 57.97040042588273 ], [ 56.113642661056012, 57.969922779353418 ], [ 56.115572532579286, 57.967807411069849 ], [ 56.116987771696351, 57.966852042538711 ], [ 56.11711642979791, 57.964190524515068 ], [ 56.118145694610327, 57.96227956920611 ], [ 56.118595997965748, 57.961972441888626 ], [ 56.118274352711879, 57.96128992731974 ], [ 56.118853314168859, 57.960505019504467 ], [ 56.119753920879717, 57.959447073089564 ], [ 56.119818249930496, 57.958730381977453 ], [ 56.119560933727392, 57.958559739125221 ], [ 56.119753920879717, 57.958116063909202 ], [ 56.121008337369865, 57.956989786784447 ] ] ] ] } },
{ "type": "Feature", "properties": { "id": 1, "POI_CODE": 1 }, "geometry": { "type": "MultiPolygon", "coordinates": [ [ [ [ 55.825609336207663, 58.038791606500624 ], [ 55.826574271969292, 58.03867242339178 ], [ 55.827024575324728, 58.038417029677667 ], [ 55.827281891527825, 58.038110554812306 ], [ 55.827732194883261, 58.03771894421638 ], [ 55.828214662764069, 58.037548677401865 ], [ 55.828600637068718, 58.037752997481981 ], [ 55.828246827289469, 58.038161634138987 ], [ 55.827667865832474, 58.038621344794919 ], [ 55.826316955766195, 58.039200231285811 ], [ 55.825609336207663, 58.039489671015936 ], [ 55.824805223072957, 58.039813159705737 ], [ 55.824033274463659, 58.040000441293444 ], [ 55.822971845125856, 58.040953859618469 ], [ 55.82194258031344, 58.041754030370932 ], [ 55.821234960754914, 58.042843595784923 ], [ 55.821009809077196, 58.043592652741019 ], [ 55.821524441483405, 58.044035269927264 ], [ 55.822811022498918, 58.044375740956049 ], [ 55.824001109938273, 58.044580022016518 ], [ 55.825609336207663, 58.044307647009767 ], [ 55.82609180408847, 58.04360967658031 ], [ 55.82747487868015, 58.042656329093056 ], [ 55.829018775898774, 58.042077498569661 ], [ 55.831945747709064, 58.040936834514234 ], [ 55.833007177046859, 58.040221772813922 ], [ 55.832846354419921, 58.038536213637975 ], [ 55.832170899386789, 58.037940289862917 ], [ 55.831366786252083, 58.037667864257173 ], [ 55.831205963625145, 58.03691868313711 ], [ 55.831977912234457, 58.03608434932157 ], [ 55.833425315876916, 58.035675688920257 ], [ 55.834551074265484, 58.035147828988485 ], [ 55.833939948283117, 58.03494349401938 ], [ 55.833135835148418, 58.034483736069134 ], [ 55.831849254132905, 58.03388774474201 ], [ 55.830852153845875, 58.03349608788924 ], [ 55.829983711660404, 58.033240657195677 ], [ 55.828890117797215, 58.033070369052908 ], [ 55.827635701307088, 58.03301928245191 ], [ 55.827314056053204, 58.033547173808991 ], [ 55.826574271969292, 58.034092085744767 ], [ 55.825384184529938, 58.034330482105297 ], [ 55.825352020004559, 58.034534820577797 ], [ 55.824933881174516, 58.03589704721746 ], [ 55.824354919717543, 58.036714358288691 ], [ 55.824933881174516, 58.037242195092183 ], [ 55.824387084242922, 58.037225168220168 ], [ 55.823840287311327, 58.037276248811914 ], [ 55.823743793735161, 58.037548677401865 ], [ 55.823615135633602, 58.037838130504028 ], [ 55.823615135633602, 58.038144607704858 ], [ 55.8239046163621, 58.038348924379079 ], [ 55.823968945412872, 58.038706475749137 ], [ 55.82454790686986, 58.038791606500624 ], [ 55.825609336207663, 58.038791606500624 ] ] ] ] } },
{ "type": "Feature", "properties": { "id": 1, "POI_CODE": 1 }, "geometry": { "type": "MultiPolygon", "coordinates": [ [ [ [ 56.336189012214611, 58.017042625739492 ], [ 56.33450037463173, 58.016855223888271 ], [ 56.33131608661833, 58.016395233364634 ], [ 56.33001342334012, 58.015960792439941 ], [ 56.327697577512204, 58.014938557691373 ], [ 56.325815952777006, 58.014734107237118 ], [ 56.324899263803459, 58.015730792167766 ], [ 56.32441679592263, 58.017110771623877 ], [ 56.325912446353179, 58.017545198585466 ], [ 56.328276538969178, 58.018030728359122 ], [ 56.330688878373273, 58.018056282375206 ], [ 56.333197711353527, 58.018644019707793 ], [ 56.334741608572152, 58.01928285368345 ], [ 56.335465310393381, 58.020330516709095 ], [ 56.335658297545677, 58.019640595727104 ], [ 56.336864467247729, 58.019717254271036 ], [ 56.338649598406754, 58.020151649583944 ], [ 56.340917197446608, 58.020637143985837 ], [ 56.341303171751257, 58.019410619109699 ], [ 56.341737392844003, 58.019257300543451 ], [ 56.342750575393708, 58.018720680387204 ], [ 56.343377783638786, 58.017902958004868 ], [ 56.344873434069314, 58.016011903410735 ], [ 56.346176097347531, 58.014274089443781 ], [ 56.346996292744912, 58.01394185069281 ], [ 56.347623500989982, 58.014222975990577 ], [ 56.348540189963529, 58.014734107237103 ], [ 56.350421814698734, 58.014836332610265 ], [ 56.351483244036537, 58.015117450880581 ], [ 56.35307538804323, 58.015500790417143 ], [ 56.354233310957206, 58.015424122838375 ], [ 56.354812272414193, 58.014989670122411 ], [ 56.35539123387116, 58.014376316131177 ], [ 56.356356169632811, 58.013788508690389 ], [ 56.35770707969909, 58.013149576607113 ], [ 56.362338771354956, 58.012280610665506 ], [ 56.363544941057, 58.01153941715814 ], [ 56.364461630030554, 58.010798208299107 ], [ 56.363303707116593, 58.010005864611259 ], [ 56.362001043838383, 58.009341304765833 ], [ 56.361325588805229, 58.008983459737742 ], [ 56.359829938374688, 58.009009020215558 ], [ 56.359974678738936, 58.008497807191027 ], [ 56.360408899831683, 58.008216636915066 ], [ 56.362049290626466, 58.00790990318572 ], [ 56.362965979600006, 58.007500920790761 ], [ 56.364413383242471, 58.007168619153759 ], [ 56.365281825427935, 58.006938562367012 ], [ 56.36475111075903, 58.006146133227524 ], [ 56.364172149302057, 58.005890507182059 ], [ 56.356404416420879, 58.006938562367012 ], [ 56.355246493506904, 58.006938562367012 ], [ 56.352255192645835, 58.006682941980785 ], [ 56.350325321122568, 58.006708504101546 ], [ 56.349022657844351, 58.006836314431581 ], [ 56.347671747778072, 58.006810752402089 ], [ 56.345597135890543, 58.006606255508913 ], [ 56.342798822181805, 58.00642731976901 ], [ 56.340241742413475, 58.005992757819307 ], [ 56.336333752578831, 58.005813819012438 ], [ 56.331219593042157, 58.005507064690889 ], [ 56.330544138009024, 58.005686005031265 ], [ 56.330206410492451, 58.006095008164465 ], [ 56.330109916916278, 58.006273945565674 ], [ 56.330254657280527, 58.006810752402089 ], [ 56.330978359101763, 58.007117495551157 ], [ 56.331702060922979, 58.007245304420735 ], [ 56.332859983836954, 58.007679851163594 ], [ 56.333921413174757, 58.007986586864504 ], [ 56.335079336088704, 58.00826775894771 ], [ 56.336381999366914, 58.008165514809377 ], [ 56.338697845194851, 58.007986586864504 ], [ 56.34062771671811, 58.00790990318572 ], [ 56.342075120360576, 58.008114392630702 ], [ 56.343265207799938, 58.008523368015659 ], [ 56.343393865901497, 58.009034580675092 ], [ 56.342364601089081, 58.01005698408823 ], [ 56.341463994378223, 58.010670412116625 ], [ 56.340306071464248, 58.011658690712949 ], [ 56.33953412285495, 58.012238013753262 ], [ 56.338376199940974, 58.013567013526767 ], [ 56.337668580382442, 58.014316683932343 ], [ 56.337990225636325, 58.014521136771684 ], [ 56.338504858042526, 58.014827813840313 ], [ 56.336189012214611, 58.017042625739492 ] ] ] ] } },
{ "type": "Feature", "properties": { "id": 1, "POI_CODE": 1 }, "geometry": { "type": "MultiPolygon", "coordinates": [ [ [ [ 56.009558256900711, 57.936702211805752 ], [ 55.996917598423281, 57.937496177768104 ], [ 55.995759675509333, 57.937854737284134 ], [ 55.994891233323862, 57.938725509766343 ], [ 55.994119284714536, 57.939237719004112 ], [ 55.991610451734282, 57.939084057000386 ], [ 55.990549022396486, 57.93949382088153 ], [ 55.990163048091837, 57.940006019153437 ], [ 55.990163048091837, 57.941235265179323 ], [ 55.988619150873213, 57.941696221583136 ], [ 55.986689279349939, 57.941696221583136 ], [ 55.984952394979004, 57.941901089195262 ], [ 55.982829536303406, 57.942618116626782 ], [ 55.981189145508608, 57.943027840154706 ], [ 55.978873299680686, 57.944103342156247 ], [ 55.977425896038234, 57.945178811920755 ], [ 55.977811870342883, 57.946151828215925 ], [ 55.979355767561508, 57.946612721461243 ], [ 55.979645248290005, 57.947073608785722 ], [ 55.979934729018481, 57.947688116008251 ], [ 55.980899664780132, 57.948814685245274 ], [ 55.981092651932464, 57.949890013787723 ], [ 55.981189145508608, 57.951016513878436 ], [ 55.980803171203966, 57.952091776418811 ], [ 55.98041719689931, 57.952808600205302 ], [ 55.981189145508608, 57.953730209738318 ], [ 55.981575119813265, 57.954907787458481 ], [ 55.982443561998736, 57.954344602937809 ], [ 55.984180446369685, 57.953576609793984 ], [ 55.984855901402838, 57.953423009191837 ], [ 55.989777073787188, 57.952091776418811 ], [ 55.992671881072084, 57.95163095356267 ], [ 55.996242143390141, 57.951477344628351 ], [ 55.997882534184932, 57.950914106241108 ], [ 55.999619418555866, 57.949633986106114 ], [ 56.005312539549514, 57.94612622286202 ], [ 56.007097670708539, 57.945204417950798 ], [ 56.007387151437015, 57.944845931867007 ], [ 56.008496827562915, 57.944026521653804 ], [ 56.009317022960289, 57.942259604702016 ], [ 56.010571439450416, 57.939365770171278 ], [ 56.010571439450416, 57.938879173305295 ], [ 56.009702997264952, 57.938597456314618 ], [ 56.009124035807979, 57.938034015698804 ], [ 56.009558256900711, 57.936702211805752 ] ] ] ] } },
{ "type": "Feature", "properties": { "id": 1, "POI_CODE": 1 }, "geometry": { "type": "MultiPolygon", "coordinates": [ [ [ [ 56.476852522867183, 58.152001662915779 ], [ 56.477431484324157, 58.152816318117218 ], [ 56.478830641178526, 58.153554583286883 ], [ 56.481387720946863, 58.15363095467174 ], [ 56.483751813562883, 58.153885524771027 ], [ 56.485392204357659, 58.154140093049335 ], [ 56.490313376742009, 58.154165549777019 ], [ 56.492725716146104, 58.153885524771027 ], [ 56.495234549126351, 58.15345275451881 ], [ 56.496826693133059, 58.152663571687327 ], [ 56.498853058232484, 58.152383534863226 ], [ 56.500686436179599, 58.151543411170422 ], [ 56.501024163696179, 58.150983317691349 ], [ 56.501699618729312, 58.149964943330232 ], [ 56.502905788431356, 58.149048381492904 ], [ 56.504932153530802, 58.148386405487848 ], [ 56.50666903790173, 58.149786724821375 ], [ 56.508791896577335, 58.149532125403653 ], [ 56.511445469921838, 58.149073841862631 ], [ 56.510963002041031, 58.148259100998608 ], [ 56.509467351610482, 58.147266110356973 ], [ 56.507489233299133, 58.146400403607309 ], [ 56.504980400318878, 58.14461799988986 ], [ 56.502326826974382, 58.143319335272807 ], [ 56.500348708663033, 58.143217477221029 ], [ 56.499914487570287, 58.143650371928636 ], [ 56.500010981146453, 58.144312436006423 ], [ 56.500396955451102, 58.145330972085603 ], [ 56.500155721510701, 58.146145779968421 ], [ 56.498949551808657, 58.147062416545204 ], [ 56.497888122470854, 58.147724417172014 ], [ 56.495572276642932, 58.148411866331081 ], [ 56.492966950086505, 58.14884469787949 ], [ 56.48886597309955, 58.149557585427395 ], [ 56.486694867635862, 58.150295918193557 ], [ 56.485392204357659, 58.150015862740283 ], [ 56.483896553927131, 58.148819237345847 ], [ 56.482304409920424, 58.148080873948771 ], [ 56.481580708099202, 58.149099302214154 ], [ 56.481966682403858, 58.149964943330232 ], [ 56.482352656708507, 58.151390659277503 ], [ 56.481966682403858, 58.151568869755515 ], [ 56.480953499854138, 58.15169616240776 ], [ 56.479120121907023, 58.151874371356122 ], [ 56.476852522867183, 58.152001662915779 ] ] ] ] } },
{ "type": "Feature", "properties": { "id": 1, "POI_CODE": 1 }, "geometry": { "type": "MultiPolygon", "coordinates": [ [ [ [ 56.375582514683487, 58.036424896087844 ], [ 56.375654884865583, 58.037242195092212 ], [ 56.376426833474888, 58.038008395940011 ], [ 56.378453198574334, 58.039796134058243 ], [ 56.380769044402257, 58.040613355993059 ], [ 56.382698915925531, 58.041992375643304 ], [ 56.383084890230187, 58.043473485639005 ], [ 56.383470864534843, 58.044699185429295 ], [ 56.382023460892384, 58.045516295270794 ], [ 56.380383070097601, 58.046026979435148 ], [ 56.379032160031308, 58.046690857939289 ], [ 56.375268910560933, 58.04709939242754 ], [ 56.373628519766157, 58.046741925005733 ], [ 56.369479295991106, 58.04766111972333 ], [ 56.366873969434685, 58.048120708216118 ], [ 56.364172149302107, 58.048784547826479 ], [ 56.363593187845133, 58.049397311905963 ], [ 56.364075655725934, 58.050265376365054 ], [ 56.364944097911426, 58.051184480454516 ], [ 56.367935398772488, 58.051644023633763 ], [ 56.369768776719603, 58.051695083622178 ], [ 56.373725013342316, 58.051541903438022 ], [ 56.376426833474888, 58.051286601671769 ], [ 56.378163717845837, 58.051005767621994 ], [ 56.378887419667066, 58.050112190051678 ], [ 56.380527810461857, 58.04962709572677 ], [ 56.381589239799666, 58.049550501284017 ], [ 56.383615604899106, 58.049090931179677 ], [ 56.384966514965406, 58.048759015761803 ], [ 56.38612443787936, 58.047967512708588 ], [ 56.386606905760189, 58.04704832587192 ], [ 56.386799892912506, 58.045848240807693 ], [ 56.38747534794566, 58.045184346650771 ], [ 56.388199049766882, 58.044469369920407 ], [ 56.38868151764769, 58.043652236143082 ], [ 56.389598206621258, 58.043039373550123 ], [ 56.39104561026371, 58.042554183211273 ], [ 56.392927234998886, 58.04222220707932 ], [ 56.39461587258176, 58.042400963841196 ], [ 56.396352756952716, 58.042349890571892 ], [ 56.396835224833531, 58.041966838725862 ], [ 56.397365939502414, 58.041175185235701 ], [ 56.396690484469282, 58.04066443174365 ], [ 56.390539018988854, 58.03920874425252 ], [ 56.386655152548258, 58.038493647983515 ], [ 56.378718555908797, 58.036935710155134 ], [ 56.375582514683487, 58.036424896087844 ] ] ] ] } },
{ "type": "Feature", "properties": { "id": 1, "POI_CODE": 1 }, "geometry": { "type": "MultiPolygon", "coordinates": [ [ [ [ 56.339662780956537, 58.003052935478777 ], [ 56.346224344135678, 58.003640919262061 ], [ 56.345838369831007, 58.005302560349413 ], [ 56.347816488142364, 58.005686005031272 ], [ 56.351676231188911, 58.005941632537208 ], [ 56.352930647679052, 58.006146133227539 ], [ 56.35601844211628, 58.005813819012445 ], [ 56.35833428794421, 58.00576269347475 ], [ 56.362917732811987, 58.005149181326523 ], [ 56.365233578639888, 58.003973253650166 ], [ 56.364461630030583, 58.003104064886799 ], [ 56.363496694268953, 58.002030331982624 ], [ 56.361952797050328, 58.000854301849671 ], [ 56.359733444798557, 58.000854301849671 ], [ 56.357803573275284, 58.001467887608491 ], [ 56.356259676056681, 58.002132593646728 ], [ 56.354715778838056, 58.002490507170741 ], [ 56.352592920162458, 58.002541637382066 ], [ 56.35230343943396, 58.002234855018727 ], [ 56.351049022943833, 58.002439376886393 ], [ 56.350856035791509, 58.003104064886799 ], [ 56.349987593606031, 58.002132593646728 ], [ 56.349312138572884, 58.001570150879218 ], [ 56.348250709235089, 58.001365624045647 ], [ 56.347671747778108, 58.000240705574583 ], [ 56.349022657844408, 57.999473695442141 ], [ 56.34689979916881, 57.99926915663162 ], [ 56.346320837711829, 57.997888489096908 ], [ 56.345355901950185, 57.998093035794888 ], [ 56.344004991883885, 57.99829758132433 ], [ 56.342557588241434, 57.999371426182954 ], [ 56.341496158903631, 57.999985037356211 ], [ 56.340917197446657, 58.000138438506333 ], [ 56.339662780956537, 58.003052935478777 ] ] ] ] } },
{ "type": "Feature", "properties": { "id": 1, "POI_CODE": 1 }, "geometry": { "type": "MultiPolygon", "coordinates": [ [ [ [ 56.114048738189027, 58.000125655102273 ], [ 56.114651823040049, 57.999039049073104 ], [ 56.11523078449703, 57.998118604049985 ], [ 56.115447895043403, 57.997415470382293 ], [ 56.11523078449703, 57.997146997521163 ], [ 56.114096984977103, 57.996840168929275 ], [ 56.113349159761832, 57.996661184369806 ], [ 56.1130355556393, 57.996699538279309 ], [ 56.109489416715299, 57.995689538292908 ], [ 56.108476234165579, 57.996904091769409 ], [ 56.110237241930555, 57.997389901625105 ], [ 56.109875391019955, 57.997850136460961 ], [ 56.109971884596114, 57.99810581992471 ], [ 56.110357858900755, 57.99831036538113 ], [ 56.110044254778231, 57.998450989704565 ], [ 56.109585910291457, 57.998553261592917 ], [ 56.109199935986801, 57.9987194527884 ], [ 56.108862208470228, 57.99880894003568 ], [ 56.107294187857576, 57.998527693648221 ], [ 56.106835843370781, 57.998450989704565 ], [ 56.106401622278057, 57.998757804493188 ], [ 56.106063894761476, 57.999205238013737 ], [ 56.106136264943601, 57.999435344504178 ], [ 56.106136264943601, 57.999499262711304 ], [ 56.114048738189027, 58.000125655102273 ] ] ] ] } },
{ "type": "Feature", "properties": { "id": 1, "POI_CODE": 1 }, "geometry": { "type": "MultiPolygon", "coordinates": [ [ [ [ 56.244073832069532, 57.933718279457786 ], [ 56.246293184321303, 57.933871964436108 ], [ 56.250731888824831, 57.933590208139869 ], [ 56.259995272136528, 57.933077918298643 ], [ 56.261346182202828, 57.933180376851801 ], [ 56.262262871176382, 57.933026688912392 ], [ 56.263565534454578, 57.932078932078909 ], [ 56.2653989124017, 57.931207998331701 ], [ 56.265929627070605, 57.930567592389821 ], [ 56.266026120646757, 57.929671004878038 ], [ 56.265833133494425, 57.92815956381196 ], [ 56.265495405977873, 57.927365391310815 ], [ 56.264144495911573, 57.92713482181037 ], [ 56.260960207898172, 57.92713482181037 ], [ 56.258354881341752, 57.926904250829246 ], [ 56.255074099752179, 57.927160440716882 ], [ 56.253192475017002, 57.926571201242425 ], [ 56.250731888824831, 57.926519962570232 ], [ 56.249429225546621, 57.926750536019206 ], [ 56.248319549420728, 57.927109202885575 ], [ 56.24556948250008, 57.927160440716882 ], [ 56.244701040314602, 57.92749348483791 ], [ 56.245376495347749, 57.928185181987274 ], [ 56.244411559586105, 57.929517301913371 ], [ 56.24421857243378, 57.930362660075581 ], [ 56.244266819221856, 57.931079918057272 ], [ 56.243543117400627, 57.931643467846598 ], [ 56.243157143095978, 57.933692665230758 ], [ 56.244073832069532, 57.933718279457786 ] ] ] ] } },
{ "type": "Feature", "properties": { "id": 1, "POI_CODE": 1 }, "geometry": { "type": "MultiPolygon", "coordinates": [ [ [ [ 56.233170057963029, 57.933897578535188 ], [ 56.231143692863604, 57.933026688912385 ], [ 56.229937523161553, 57.931925239423634 ], [ 56.228345379154852, 57.931284846277009 ], [ 56.228104145214445, 57.930080876233291 ], [ 56.229310314916496, 57.928800012710525 ], [ 56.228248885578694, 57.927570340734803 ], [ 56.225884792962681, 57.926391865569876 ], [ 56.224099661803656, 57.925187731427691 ], [ 56.223327713194351, 57.925572033945535 ], [ 56.221783815975726, 57.926724916820227 ], [ 56.220770633426007, 57.926699297602944 ], [ 56.219757450876294, 57.926955488953013 ], [ 56.219178489419299, 57.927339772550546 ], [ 56.218068813293428, 57.927903381053582 ], [ 56.21720037110795, 57.927852144282546 ], [ 56.216428422498652, 57.927647196467177 ], [ 56.216380175710555, 57.927903381053582 ], [ 56.216380175710555, 57.928492598665031 ], [ 56.217007383955632, 57.928800012710525 ], [ 56.218020566505352, 57.929337980956198 ], [ 56.21951621693588, 57.929773473155549 ], [ 56.220191671969033, 57.930516359420935 ], [ 56.220625893061758, 57.930849372411714 ], [ 56.221494335247229, 57.933436521955173 ], [ 56.221928556339975, 57.934333015422986 ], [ 56.224823363624878, 57.934358629193063 ], [ 56.229792782797304, 57.934153718520676 ], [ 56.233170057963029, 57.933897578535188 ] ] ] ] } },
{ "type": "Feature", "properties": { "id": 1, "POI_CODE": 1 }, "geometry": { "type": "MultiPolygon", "coordinates": [ [ [ [ 56.298689196178152, 57.912016479638147 ], [ 56.298496209025828, 57.9132979418997 ], [ 56.29796549435693, 57.914810008574634 ], [ 56.298640949390077, 57.915911983172919 ], [ 56.29796549435693, 57.917372688090197 ], [ 56.298399715449676, 57.918064580212459 ], [ 56.302114718131975, 57.917603320278545 ], [ 56.305299006145376, 57.917013923964689 ], [ 56.307373618032884, 57.916680782639446 ], [ 56.309110502403826, 57.916962671654225 ], [ 56.310847386774782, 57.917500817266564 ], [ 56.311474595019831, 57.918653959285344 ], [ 56.311329854655604, 57.919858312533037 ], [ 56.312343037205302, 57.920217048246968 ], [ 56.309978944589304, 57.920908885576011 ], [ 56.306746409787827, 57.920627027532262 ], [ 56.305347252933451, 57.920832015419826 ], [ 56.302452445648548, 57.920832015419826 ], [ 56.301053288794179, 57.921472595027069 ], [ 56.299364651211306, 57.921856937306814 ], [ 56.29796549435693, 57.922087540700218 ], [ 56.298061987933103, 57.924598459578277 ], [ 56.298544455813925, 57.92554641390565 ], [ 56.304768291476478, 57.926033191537577 ], [ 56.304527057536042, 57.926827393506485 ], [ 56.303899849290978, 57.92926112884323 ], [ 56.305974461178501, 57.929568536308039 ], [ 56.310027191377372, 57.929286746232499 ], [ 56.317215962801555, 57.929389215606797 ], [ 56.322378369126326, 57.929850324171767 ], [ 56.328795191941204, 57.930132109823681 ], [ 56.330242595583648, 57.928774394973949 ], [ 56.332075973530749, 57.926801774362339 ], [ 56.330387335947897, 57.925136490781199 ], [ 56.328457464424623, 57.922804964009764 ], [ 56.326672333265599, 57.920934508924844 ], [ 56.324115253497254, 57.9196789433323 ], [ 56.321123952636199, 57.918090205590637 ], [ 56.320834471907702, 57.916629529853616 ], [ 56.321606420517, 57.915835102321246 ], [ 56.324067006709178, 57.915501950062385 ], [ 56.324356487437676, 57.914886891620384 ], [ 56.321847654457422, 57.913810514005128 ], [ 56.32059323796728, 57.913246684286896 ], [ 56.31779492425855, 57.913400456905897 ], [ 56.317553690318128, 57.912964766109177 ], [ 56.314900116973625, 57.913733628655578 ], [ 56.31316323260269, 57.913502971619536 ], [ 56.311715828960224, 57.912887878949441 ], [ 56.310847386774753, 57.912708474936792 ], [ 56.309448229920399, 57.913400456905897 ], [ 56.305877967602328, 57.913528600252235 ], [ 56.302983160317424, 57.913118539934921 ], [ 56.301246275946475, 57.913067282066159 ], [ 56.298689196178152, 57.912016479638147 ] ] ] ] } },
{ "type": "Feature", "properties": { "id": 1, "POI_CODE": 1 }, "geometry": { "type": "MultiPolygon", "coordinates": [ [ [ [ 55.994830924838858, 57.928108327406548 ], [ 55.994637937686527, 57.929081806606519 ], [ 55.993817742289146, 57.929824707184643 ], [ 55.992659819375177, 57.929927175023465 ], [ 55.990536960699579, 57.929875941140615 ], [ 55.99015098639493, 57.930593208846851 ], [ 55.988896569904803, 57.931669083535915 ], [ 55.990006246030681, 57.934358629193078 ], [ 55.990102739606833, 57.935357551969219 ], [ 55.993335274408331, 57.934947740860089 ], [ 55.995072158779273, 57.935741745634509 ], [ 55.9965678092098, 57.935767358399303 ], [ 55.997580991759527, 57.935972259859689 ], [ 55.996953783514456, 57.93604909760576 ], [ 55.997484498183354, 57.936407671579055 ], [ 55.998159953216508, 57.936151547677945 ], [ 55.99787047248801, 57.935767358399303 ], [ 55.998931901825806, 57.935716132851425 ], [ 55.999269629342386, 57.935203873351625 ], [ 56.000186318315933, 57.934640379457548 ], [ 56.002309176991545, 57.9344610840906 ], [ 56.002743398084284, 57.934742833550843 ], [ 56.003901320998253, 57.935203873351625 ], [ 56.003708333845921, 57.935562455769151 ], [ 56.003081125600858, 57.935588068661893 ], [ 56.004480282455226, 57.935536842858141 ], [ 56.004383788879053, 57.934742833550843 ], [ 56.004239048514805, 57.934589152301214 ], [ 56.004769763183724, 57.933769507857001 ], [ 56.005300477852607, 57.933359678616092 ], [ 56.005927686097678, 57.932540006096517 ], [ 56.00737508974013, 57.932053316682065 ], [ 56.007085609011654, 57.931489773326902 ], [ 56.006168920038078, 57.931310462222235 ], [ 56.005879439309602, 57.930951837325878 ], [ 56.006844375071232, 57.930900604905361 ], [ 56.006217166826161, 57.930106493037648 ], [ 56.005927686097678, 57.929799090179252 ], [ 56.006217166826161, 57.929337980956213 ], [ 56.005975932885754, 57.929030571517217 ], [ 56.00303287881276, 57.928338890655198 ], [ 56.002936385236602, 57.92733977255056 ], [ 56.000813526561004, 57.926648059113575 ], [ 55.99984859079936, 57.926084430904417 ], [ 55.9979187192761, 57.925905092800598 ], [ 55.9947344312627, 57.925341452928421 ], [ 55.991260662520801, 57.924572838843737 ], [ 55.988993063480955, 57.924931527464054 ], [ 55.989186050633279, 57.925597653967174 ], [ 55.98851059560014, 57.926340626641782 ], [ 55.98744916626233, 57.926673678367401 ], [ 55.98720793232193, 57.927365391310815 ], [ 55.988269361659732, 57.9275447221208 ], [ 55.991212415732726, 57.927186059605098 ], [ 55.993383521196392, 57.927621577907999 ], [ 55.994300210169953, 57.927724052035039 ], [ 55.994830924838858, 57.928108327406548 ] ] ] ] } },
{ "type": "Feature", "properties": { "id": 1, "POI_CODE": 1 }, "geometry": { "type": "MultiPolygon", "coordinates": [ [ [ [ 56.33019434879558, 57.930004025710652 ], [ 56.334054091842106, 57.93074690720514 ], [ 56.337141886279348, 57.930951837325878 ], [ 56.346019295286403, 57.932027701266932 ], [ 56.351712416280051, 57.932949844695926 ], [ 56.35547566575044, 57.934025648756396 ], [ 56.357888005154528, 57.934640379457534 ], [ 56.363098658267369, 57.936433283868631 ], [ 56.367344375618572, 57.937713875044366 ], [ 56.370046195751151, 57.937099196982466 ], [ 56.371493599393602, 57.936791854003665 ], [ 56.373519964493028, 57.935613681536346 ], [ 56.37458139383083, 57.935152646999526 ], [ 56.373519964493028, 57.934333015423 ], [ 56.373809445221525, 57.933718279457786 ], [ 56.372555028731398, 57.933257220574724 ], [ 56.370239182903475, 57.932847385484763 ], [ 56.369563727870329, 57.932232624076129 ], [ 56.36811632422787, 57.931361694057813 ], [ 56.365896971976099, 57.931105534148728 ], [ 56.365703984823774, 57.930234576785097 ], [ 56.364546061909827, 57.929875941140608 ], [ 56.363484632572025, 57.929466067445581 ], [ 56.363098658267369, 57.928697541654515 ], [ 56.361024046379853, 57.92677615519991 ], [ 56.360782812439446, 57.927211678475032 ], [ 56.360010863830148, 57.927262916160068 ], [ 56.359142421644677, 57.92759595933056 ], [ 56.35846696661153, 57.9275447221208 ], [ 56.357695018002204, 57.92757034073481 ], [ 56.357116056545223, 57.927800907438396 ], [ 56.356681835452498, 57.927698433530715 ], [ 56.356151120783601, 57.92759595933056 ], [ 56.355909886843193, 57.927877762677213 ], [ 56.3545589767769, 57.927877762677213 ], [ 56.353931768531822, 57.927826525869619 ], [ 56.353256313498676, 57.928159563811988 ], [ 56.352870339194027, 57.928031472661289 ], [ 56.351085208035002, 57.928057090927972 ], [ 56.349734297968723, 57.927493484837925 ], [ 56.350313259425697, 57.926622439841474 ], [ 56.349203583299804, 57.926853012632357 ], [ 56.348093907173926, 57.92733977255056 ], [ 56.345778061346003, 57.928748777219091 ], [ 56.347080724624206, 57.929901558091181 ], [ 56.344571891643952, 57.929927175023465 ], [ 56.341194616478226, 57.929722239053341 ], [ 56.338685783497979, 57.929440450184266 ], [ 56.337045392703203, 57.929209894009865 ], [ 56.336514678034298, 57.929491684688621 ], [ 56.334488312934866, 57.929491684688621 ], [ 56.331255778133375, 57.928825630428847 ], [ 56.33019434879558, 57.930004025710652 ] ] ] ] } },
{ "type": "Feature", "properties": { "id": 1, "POI_CODE": 1 }, "geometry": { "type": "MultiPolygon", "coordinates": [ [ [ [ 56.264645056337962, 58.038500032834939 ], [ 56.266056274889351, 58.038825658744514 ], [ 56.266309570526786, 58.039074664791691 ], [ 56.266381940708911, 58.039649287511686 ], [ 56.267612233804989, 58.039898287821849 ], [ 56.269132007629558, 58.040798505241746 ], [ 56.270072819997161, 58.041104957063297 ], [ 56.271049817455825, 58.040377129697276 ], [ 56.273220922919499, 58.04072189187584 ], [ 56.274595956379827, 58.041066650729277 ], [ 56.274776881835137, 58.04164124142919 ], [ 56.274668326561944, 58.041985991415672 ], [ 56.274921622199386, 58.043077677770079 ], [ 56.276296655659714, 58.042139212564585 ], [ 56.277128912754122, 58.041717852824654 ], [ 56.278648686578698, 58.041737005647853 ], [ 56.280457941131772, 58.041353947233794 ], [ 56.281217828044056, 58.041124110214916 ], [ 56.280349385858585, 58.040645278345757 ], [ 56.278938167307196, 58.040243054618706 ], [ 56.277888799666414, 58.039400285467096 ], [ 56.276296655659714, 58.03909381903118 ], [ 56.275862434566982, 58.039591825655343 ], [ 56.274776881835137, 58.039783364817289 ], [ 56.273510403647997, 58.039610979617727 ], [ 56.273365663283748, 58.039553517699794 ], [ 56.272135370187655, 58.039381131391828 ], [ 56.271447853457488, 58.039361977306285 ], [ 56.270145190179285, 58.039055510541957 ], [ 56.270289930543534, 58.038595805469171 ], [ 56.271303113093239, 58.037140033738488 ], [ 56.269349118175938, 58.036641992958245 ], [ 56.268082639988791, 58.037503982228735 ], [ 56.267250382894382, 58.037733842524105 ], [ 56.26518783270388, 58.037523137309776 ], [ 56.264645056337962, 58.038500032834939 ] ] ] ] } },
{ "type": "Feature", "properties": { "id": 1, "POI_CODE": 1 }, "geometry": { "type": "MultiPolygon", "coordinates": [ [ [ [ 55.772871576268791, 58.08383881074505 ], [ 55.772672558267956, 58.084125763395349 ], [ 55.771261339716567, 58.084326628877662 ], [ 55.771587005536105, 58.084479668486232 ], [ 55.771912671355665, 58.084479668486232 ], [ 55.773378167543655, 58.084900524025691 ], [ 55.774101869364877, 58.085206597664126 ], [ 55.773776203545317, 58.085560492035945 ], [ 55.773667648272131, 58.08578047866024 ], [ 55.774608460639726, 58.085962205718289 ], [ 55.775422625188611, 58.086086544751076 ], [ 55.775494995370735, 58.086411737096057 ], [ 55.775893031372419, 58.086086544751076 ], [ 55.77609204937324, 58.085512668677282 ], [ 55.776381530101737, 58.085235291933124 ], [ 55.778588820656474, 58.085283115663529 ], [ 55.779963854116815, 58.085216162423031 ], [ 55.78032570502743, 58.085063125972987 ], [ 55.780180964663181, 58.084269238855228 ], [ 55.780343797572954, 58.083341420685137 ], [ 55.780144779572112, 58.083025765705223 ], [ 55.777991766653969, 58.083255333240245 ], [ 55.778226969745873, 58.083896201459702 ], [ 55.776580548102579, 58.084125763395349 ], [ 55.776200604646426, 58.083446638391329 ], [ 55.772871576268791, 58.08383881074505 ] ] ] ] } },
{ "type": "Feature", "properties": { "id": 1, "POI_CODE": 1 }, "geometry": { "type": "MultiPolygon", "coordinates": [ [ [ [ 55.823838277028692, 58.059314968802994 ], [ 55.824996199942653, 58.059621261864471 ], [ 55.825864642128131, 58.059602118625065 ], [ 55.826733084313602, 58.059372398952085 ], [ 55.826805454495727, 58.059046960219696 ], [ 55.826190307947691, 58.058740662233625 ], [ 55.825358050853275, 58.058108914342441 ], [ 55.825032385033715, 58.057898329229189 ], [ 55.824453423576742, 58.057189988373914 ], [ 55.823946832301871, 58.056826240314308 ], [ 55.823476426118084, 58.056673082128526 ], [ 55.822788909387924, 58.056481633472877 ], [ 55.821920467202446, 58.056213603631264 ], [ 55.821630986473956, 58.055754119224218 ], [ 55.82130532065441, 58.055371211037226 ], [ 55.820690174106367, 58.055218046613277 ], [ 55.820255953013621, 58.055218046613277 ], [ 55.819930287194076, 58.055256337780818 ], [ 55.819568436283454, 58.055409502040611 ], [ 55.81880854937117, 58.055409502040611 ], [ 55.81808484754994, 58.055237192202185 ], [ 55.817722996639318, 58.055045735851429 ], [ 55.817578256275091, 58.054681965958295 ], [ 55.817578256275091, 58.054222461851595 ], [ 55.817722996639318, 58.054050146287906 ], [ 55.817940107185692, 58.053667219837507 ], [ 55.8184105133695, 58.053456608540365 ], [ 55.817976292276754, 58.053341729127737 ], [ 55.818012477367816, 58.053016235452681 ], [ 55.817795366821443, 58.052977941884187 ], [ 55.817542071184029, 58.052824767199809 ], [ 55.817686811548278, 58.052556709921987 ], [ 55.817361145728718, 58.051944000020804 ], [ 55.817144035182345, 58.052039736635471 ], [ 55.81670981408962, 58.052786473426096 ], [ 55.816601258816434, 58.053475755073222 ], [ 55.815877556995204, 58.05372465906671 ], [ 55.816456518452185, 58.054126731085475 ], [ 55.816311778087936, 58.054930861548492 ], [ 55.816239407905812, 58.055256337780818 ], [ 55.815732816630955, 58.055658392562236 ], [ 55.814647263899104, 58.056194458565635 ], [ 55.815153855173975, 58.056299756299666 ], [ 55.816094667541563, 58.056759233688837 ], [ 55.817144035182345, 58.057103837852438 ], [ 55.817668719002725, 58.057697315008475 ], [ 55.817994384822292, 58.058329070178921 ], [ 55.818519068642672, 58.058874667925707 ], [ 55.818718086643514, 58.059496830625001 ], [ 55.820056935012779, 58.059917980763196 ], [ 55.820255953013614, 58.059716977907577 ], [ 55.820816821925064, 58.059496830625001 ], [ 55.822083300112219, 58.059334112196282 ], [ 55.822752724296855, 58.059554260481683 ], [ 55.823838277028692, 58.059314968802994 ] ] ] ] } },
{ "type": "Feature", "properties": { "id": 1, "POI_CODE": 1 }, "geometry": { "type": "MultiPolygon", "coordinates": [ [ [ [ 56.255110284843298, 57.894090439615098 ], [ 56.256991909578488, 57.895552031832253 ], [ 56.264916444520928, 57.894359684751791 ], [ 56.26495262961199, 57.892782648838491 ], [ 56.261478860870092, 57.893301924400355 ], [ 56.261008454686305, 57.893013438903054 ], [ 56.255110284843298, 57.894090439615098 ] ] ] ] } },
{ "type": "Feature", "properties": { "id": 1, "POI_CODE": 1 }, "geometry": { "type": "MultiPolygon", "coordinates": [ [ [ [ 56.247077194627671, 57.881837652526677 ], [ 56.256991909578488, 57.880221588785197 ], [ 56.259452495770645, 57.879336570728903 ], [ 56.263577596151642, 57.878759373308398 ], [ 56.265242110340466, 57.877758875839 ], [ 56.263577596151642, 57.875180542571684 ], [ 56.265965812161696, 57.875565380164758 ], [ 56.269005359810848, 57.874179945563689 ], [ 56.271755426731517, 57.872832944106769 ], [ 56.26705136489354, 57.871331940220443 ], [ 56.265097369976225, 57.870331236174977 ], [ 56.257787981581842, 57.874141460507616 ], [ 56.252287847740511, 57.876835315014546 ], [ 56.248524598270116, 57.877604950681523 ], [ 56.24562979098522, 57.878451530897024 ], [ 56.245050829528239, 57.878759373308398 ], [ 56.247077194627671, 57.881837652526677 ] ] ] ] } }
]
}
