{
"type": "FeatureCollection",
"name": "кварталы_МПТ",
"crs": { "type": "name", "properties": { "name": "urn:ogc:def:crs:OGC:1.3:CRS84" } },
"features": [
{ "type": "Feature", "properties": { "id": null }, "geometry": { "type": "MultiPolygon", "coordinates": [ [ [ [ 56.102432240232623, 57.920667305571932 ], [ 56.102416799999986, 57.921019 ], [ 56.1027562, 57.9213201 ], [ 56.126206099999983, 57.931973 ], [ 56.1362145, 57.9258197 ], [ 56.158822722254399, 57.936227307602032 ], [ 56.199747, 57.9051951 ], [ 56.2023264, 57.903671799999955 ], [ 56.2045914, 57.9031619 ], [ 56.204668, 57.9026685 ], [ 56.202931799999988, 57.90132729999997 ], [ 56.1997736, 57.899744400000017 ], [ 56.1941885, 57.896987299999985 ], [ 56.1884782, 57.894824099999973 ], [ 56.188361699999987, 57.894547700000011 ], [ 56.188187, 57.894323799999988 ], [ 56.187369499999988, 57.893798299999986 ], [ 56.1670359, 57.884440599999984 ], [ 56.1663638, 57.8848808 ], [ 56.1659263, 57.8855253 ], [ 56.1661592, 57.886248400000014 ], [ 56.165964, 57.8864566 ], [ 56.165086, 57.8865577 ], [ 56.1644125, 57.886600500000014 ], [ 56.163331199999988, 57.8871756 ], [ 56.163063908412433, 57.888172590253326 ], [ 56.102432240232623, 57.920667305571932 ] ] ] ] } },
{ "type": "Feature", "properties": { "id": null }, "geometry": { "type": "MultiPolygon", "coordinates": [ [ [ [ 56.036647225109647, 57.944542133409861 ], [ 56.0404525, 57.9466898 ], [ 56.04317652550121, 57.94811360324983 ], [ 56.0452294, 57.9487618 ], [ 56.047525568147847, 57.950479205286705 ], [ 56.050633299999987, 57.953003199999969 ], [ 56.053288049654618, 57.95492149972921 ], [ 56.062111, 57.959336699999987 ], [ 56.065694599999986, 57.9577293 ], [ 56.070426, 57.955757 ], [ 56.0781936, 57.9578773 ], [ 56.0835278, 57.952688400000014 ], [ 56.0852304, 57.9511078 ], [ 56.086049599999988, 57.950257499999971 ], [ 56.0865227, 57.9489051 ], [ 56.086967899999983, 57.948356099999984 ], [ 56.0896236, 57.9480517 ], [ 56.085668997330863, 57.947287075607157 ], [ 56.0805098, 57.9461274 ], [ 56.0757312, 57.9445866 ], [ 56.0717332, 57.943564199999976 ], [ 56.063286, 57.9419387 ], [ 56.0561273, 57.940461 ], [ 56.055401522545957, 57.940287573596777 ], [ 56.053984488403835, 57.942004725240984 ], [ 56.052330410766224, 57.942434356316127 ], [ 56.047403370994587, 57.940566357681689 ], [ 56.041350150703714, 57.939520235970484 ], [ 56.036647225109647, 57.944542133409861 ] ] ] ] } },
{ "type": "Feature", "properties": { "id": null }, "geometry": { "type": "MultiPolygon", "coordinates": [ [ [ [ 56.209528399999989, 58.012600100000014 ], [ 56.2234146, 58.015049 ], [ 56.2242275, 58.0137952 ], [ 56.2344626, 58.015583299999989 ], [ 56.246766099999988, 58.0191191 ], [ 56.2473053, 58.0188999 ], [ 56.248965, 58.0189579 ], [ 56.260802, 58.0062294 ], [ 56.2620169, 58.006284199999961 ], [ 56.2634102, 58.0062664 ], [ 56.265391, 58.0061467 ], [ 56.2719722, 57.999761900000017 ], [ 56.272955, 57.9994228 ], [ 56.2736743, 57.999172899999969 ], [ 56.2611517, 57.9963027 ], [ 56.2573001, 57.9924517 ], [ 56.2579044, 57.9849007 ], [ 56.2587807, 57.9832076 ], [ 56.259048, 57.9823243 ], [ 56.2590664, 57.980532399999987 ], [ 56.2595338, 57.9766428 ], [ 56.267226199999989, 57.977202200000022 ], [ 56.2676945, 57.9773033 ], [ 56.2689612, 57.9782328 ], [ 56.2708246, 57.980352599999975 ], [ 56.2712284, 57.981048899999983 ], [ 56.271062699999987, 57.981794800000024 ], [ 56.2722724, 57.982573 ], [ 56.2751366, 57.9836308 ], [ 56.2773032, 57.9835401 ], [ 56.2787183, 57.9832028 ], [ 56.280043499999984, 57.9829971 ], [ 56.2805786, 57.982653699999986 ], [ 56.279848199999989, 57.980712 ], [ 56.2797106, 57.9803543 ], [ 56.2801668, 57.9801352 ], [ 56.2815186, 57.979801 ], [ 56.282517199999987, 57.9791659 ], [ 56.2833728, 57.9781425 ], [ 56.2831084, 57.9774875 ], [ 56.2779072, 57.974782 ], [ 56.2787255, 57.9746367 ], [ 56.2773688, 57.9711183 ], [ 56.276774799999984, 57.9710155 ], [ 56.276061099999986, 57.969303 ], [ 56.2750554, 57.968552099999989 ], [ 56.273493199999983, 57.968474 ], [ 56.2735596, 57.9671192 ], [ 56.2731708, 57.9668224 ], [ 56.269531199999989, 57.9656373 ], [ 56.262523899999984, 57.967821199999989 ], [ 56.261752399999985, 57.96760350000001 ], [ 56.261810499999989, 57.9661493 ], [ 56.261764799999987, 57.96551 ], [ 56.2650779, 57.96085549999998 ], [ 56.2652719, 57.960201099999985 ], [ 56.2652381, 57.952276099999985 ], [ 56.265002799999984, 57.9522834 ], [ 56.2649212, 57.9487646 ], [ 56.267919899999988, 57.9450323 ], [ 56.2686225, 57.9439883 ], [ 56.2688932, 57.9423853 ], [ 56.2644278, 57.942727499999968 ], [ 56.2596379, 57.943907099999983 ], [ 56.257076299999987, 57.94552620000001 ], [ 56.2561433, 57.946685599999988 ], [ 56.253763, 57.950289699999978 ], [ 56.2535182, 57.9505124 ], [ 56.251030399999983, 57.9519531 ], [ 56.2493259, 57.9525305 ], [ 56.2458419, 57.9530598 ], [ 56.2420966, 57.953353 ], [ 56.227656899999985, 57.953403299999984 ], [ 56.222185199999984, 57.9541233 ], [ 56.2203698, 57.954554199999968 ], [ 56.215355, 57.95604070000001 ], [ 56.210368099999982, 57.9575546 ], [ 56.2076711, 57.95871360000001 ], [ 56.2056047, 57.96051030000001 ], [ 56.2050409, 57.961607 ], [ 56.2045475, 57.962372 ], [ 56.205058799999989, 57.9635749 ], [ 56.206987, 57.9669865 ], [ 56.2079431, 57.9684816 ], [ 56.2106931, 57.971074399999971 ], [ 56.2132383, 57.9725637 ], [ 56.2193178, 57.9751574 ], [ 56.222365699999983, 57.976821299999962 ], [ 56.2277111, 57.9829022 ], [ 56.229132699999987, 57.984839099999988 ], [ 56.2296874, 57.986553799999975 ], [ 56.229383, 57.988034799999987 ], [ 56.2286961, 57.989053499999976 ], [ 56.2258404, 57.991022299999983 ], [ 56.2226722, 57.992018699999967 ], [ 56.2201839, 57.992339799999989 ], [ 56.2184866, 57.9924021 ], [ 56.218213513721317, 57.99582023343951 ], [ 56.2217845, 57.99673479999997 ], [ 56.2234518, 57.9973733 ], [ 56.22509678524159, 57.998582200149819 ], [ 56.226150699999984, 57.9996442 ], [ 56.2277609, 58.0004959 ], [ 56.231650299999984, 58.0027993 ], [ 56.232018599999989, 58.0032534 ], [ 56.2318573, 58.004021799999983 ], [ 56.237405, 58.0049428 ], [ 56.238774699999986, 58.0051695 ], [ 56.2435276, 58.0066069 ], [ 56.2386195, 58.0114651 ], [ 56.234534299999986, 58.0104491 ], [ 56.227106599999985, 58.0092879 ], [ 56.2273151, 58.008910899999989 ], [ 56.212861099999984, 58.0067165 ], [ 56.209528399999989, 58.012600100000014 ] ] ] ] } }
]
}
