{
"type": "FeatureCollection",
"name": "ООПТ",
"crs": { "type": "name", "properties": { "name": "urn:ogc:def:crs:OGC:1.3:CRS84" } },
"features": [
{ "type": "Feature", "properties": { "full_id": "r9818295", "osm_id": "9818295", "osm_type": "relation", "boundary": "protected_area", "protection_title": "Охраняемый ландшафт", "protect_class": "1b", "official_name": "Особо охраняемая природная территория местного значения - охраняемый ландшафт «Бродовские лесные культуры»", "name": "Охраняемый ландшафт «Бродовские лесные культуры»", "leisure": "nature_reserve", "ROW": 1 }, "geometry": { "type": "MultiPolygon", "coordinates": [ [ [ [ 56.3929215, 57.9533503 ], [ 56.4485613, 57.9492488 ], [ 56.4497159, 57.953801 ], [ 56.4498896, 57.954486 ], [ 56.4499131, 57.9546254 ], [ 56.4532927, 57.9681087 ], [ 56.4443556, 57.967073 ], [ 56.401333, 57.9667373 ], [ 56.4006463, 57.9656902 ], [ 56.4015904, 57.9639146 ], [ 56.4016655, 57.9627706 ], [ 56.4011077, 57.961638 ], [ 56.4007321, 57.9613193 ], [ 56.4000455, 57.9604542 ], [ 56.3989297, 57.9599989 ], [ 56.3973418, 57.9598338 ], [ 56.3953328, 57.9563747 ], [ 56.3951075, 57.9563633 ], [ 56.394209, 57.9549898 ], [ 56.394209, 57.9545344 ], [ 56.3943994, 57.954146 ], [ 56.3955796, 57.9532352 ], [ 56.3948232, 57.9536138 ], [ 56.3935224, 57.9542156 ], [ 56.3929215, 57.9533503 ] ], [ [ 56.4152643, 57.9620023 ], [ 56.415149, 57.9618133 ], [ 56.4150218, 57.9614535 ], [ 56.4145642, 57.9596163 ], [ 56.4142746, 57.9596305 ], [ 56.4142156, 57.9594512 ], [ 56.4128002, 57.9595755 ], [ 56.4125633, 57.9587255 ], [ 56.4129638, 57.9586604 ], [ 56.4126633, 57.9577982 ], [ 56.4142942, 57.9576473 ], [ 56.4147179, 57.9576615 ], [ 56.4172357, 57.957533 ], [ 56.4184159, 57.9577863 ], [ 56.4201861, 57.9580937 ], [ 56.4200413, 57.9592093 ], [ 56.4220722, 57.960875 ], [ 56.4196792, 57.961303 ], [ 56.4198395, 57.9617979 ], [ 56.4155693, 57.9621319 ], [ 56.4152643, 57.9620023 ] ] ] ] } },
{ "type": "Feature", "properties": { "full_id": "r10034821", "osm_id": "10034821", "osm_type": "relation", "boundary": "protected_area", "protection_title": "Охраняемый ландшафт", "protect_class": "5", "official_name": "Особо охраняемая природная территория местного значения - охраняемый ландшафт «Долина реки Рассохи»", "name": "Охраняемый ландшафт «Долина реки Рассохи»", "leisure": "nature_reserve", "ROW": 1 }, "geometry": { "type": "MultiPolygon", "coordinates": [ [ [ [ 56.506283, 58.130018 ], [ 56.523259, 58.129015 ], [ 56.524845, 58.128938 ], [ 56.540118, 58.12814 ], [ 56.540118, 58.127801 ], [ 56.542157, 58.127264 ], [ 56.541015, 58.120884 ], [ 56.532737, 58.118637 ], [ 56.536852, 58.118357 ], [ 56.540407, 58.118752 ], [ 56.538439, 58.109175 ], [ 56.514706, 58.11053 ], [ 56.515843, 58.112738 ], [ 56.518928, 58.11359 ], [ 56.519141, 58.115616 ], [ 56.514606, 58.117503 ], [ 56.514093, 58.11894 ], [ 56.512414, 58.120945 ], [ 56.506961, 58.122984 ], [ 56.502045, 58.12523 ], [ 56.502556, 58.127146 ], [ 56.506283, 58.130018 ] ] ], [ [ [ 56.472115, 58.131946 ], [ 56.473269, 58.131904 ], [ 56.473297, 58.131912 ], [ 56.47407, 58.131873 ], [ 56.475623, 58.13173 ], [ 56.478946, 58.131576 ], [ 56.480711, 58.131494 ], [ 56.480886, 58.131486 ], [ 56.480875, 58.131465 ], [ 56.480865, 58.131446 ], [ 56.480826, 58.131299 ], [ 56.480824, 58.131222 ], [ 56.480853, 58.130976 ], [ 56.480901, 58.130744 ], [ 56.480924, 58.130631 ], [ 56.481141, 58.129846 ], [ 56.48124, 58.129857 ], [ 56.481416, 58.129952 ], [ 56.481382, 58.130186 ], [ 56.48147, 58.130666 ], [ 56.481489, 58.130725 ], [ 56.481618, 58.131136 ], [ 56.482319, 58.131137 ], [ 56.483081, 58.131142 ], [ 56.483087, 58.131419 ], [ 56.483842, 58.131412 ], [ 56.484599, 58.131382 ], [ 56.485909, 58.131231 ], [ 56.488516, 58.131131 ], [ 56.499414, 58.130416 ], [ 56.499276, 58.128543 ], [ 56.498399, 58.126957 ], [ 56.49792, 58.125448 ], [ 56.499359, 58.123904 ], [ 56.501458, 58.122987 ], [ 56.49535, 58.121302 ], [ 56.477407, 58.123354 ], [ 56.478042, 58.12453 ], [ 56.474786, 58.125103 ], [ 56.472389, 58.126007 ], [ 56.47053, 58.126204 ], [ 56.472115, 58.131946 ] ] ], [ [ [ 56.503532, 58.122018 ], [ 56.508963, 58.118759 ], [ 56.510244, 58.116396 ], [ 56.513078, 58.114685 ], [ 56.512897, 58.113311 ], [ 56.510702, 58.112242 ], [ 56.510443, 58.110776 ], [ 56.497419, 58.111526 ], [ 56.50127, 58.120624 ], [ 56.49826, 58.120969 ], [ 56.503532, 58.122018 ] ] ], [ [ [ 56.470338, 58.125106 ], [ 56.4719336, 58.1249 ], [ 56.4735595, 58.1242347 ], [ 56.4736391, 58.1238259 ], [ 56.4701487, 58.124393 ], [ 56.470338, 58.125106 ] ] ] ] } },
{ "type": "Feature", "properties": { "full_id": "r11103110", "osm_id": "11103110", "osm_type": "relation", "boundary": "protected_area", "protection_title": "Охраняемый ландшафт", "protect_class": "1b", "official_name": "Особо охраняемая природная территория местного значения - охраняемый ландшафт «Долина реки Гайвы»", "name": "Охраняемый ландшафт «Долина реки Гайвы»", "leisure": "nature_reserve", "ROW": 1 }, "geometry": { "type": "MultiPolygon", "coordinates": [ [ [ [ 56.1627316, 58.0864274 ], [ 56.1637294, 58.0943243 ], [ 56.1569381, 58.0946305 ], [ 56.1571741, 58.095362 ], [ 56.1213203, 58.0990137 ], [ 56.1220211, 58.0983813 ], [ 56.1248267, 58.0972784 ], [ 56.129043, 58.0930995 ], [ 56.1318648, 58.0919823 ], [ 56.1359954, 58.0889143 ], [ 56.1383772, 58.0883132 ], [ 56.1423683, 58.0864982 ], [ 56.1434841, 58.0878028 ], [ 56.1627316, 58.0864274 ] ] ], [ [ [ 56.2673163, 58.0684095 ], [ 56.2587333, 58.0733943 ], [ 56.2630355, 58.0868953 ], [ 56.2756496, 58.0857996 ], [ 56.2830877, 58.0849782 ], [ 56.2866175, 58.0851427 ], [ 56.2877226, 58.0853809 ], [ 56.28901, 58.0859764 ], [ 56.2892782, 58.0869577 ], [ 56.2902331, 58.0875872 ], [ 56.2839031, 58.0868045 ], [ 56.2794614, 58.0872809 ], [ 56.2759637, 58.0882451 ], [ 56.2572312, 58.0894247 ], [ 56.2579393, 58.0911374 ], [ 56.2552142, 58.0922602 ], [ 56.2542272, 58.0946418 ], [ 56.2512016, 58.0961388 ], [ 56.2490988, 58.0967398 ], [ 56.2525964, 58.1073214 ], [ 56.2501502, 58.1072846 ], [ 56.2483048, 58.1073753 ], [ 56.2479561, 58.1096142 ], [ 56.2474894, 58.1098409 ], [ 56.2464005, 58.1100506 ], [ 56.2456548, 58.1105154 ], [ 56.2455636, 58.1108612 ], [ 56.2446409, 58.1109263 ], [ 56.2440133, 58.1113344 ], [ 56.2437773, 58.112125 ], [ 56.2475109, 58.1124594 ], [ 56.2488305, 58.1129355 ], [ 56.249721, 58.1127314 ], [ 56.2514162, 58.1135985 ], [ 56.2503433, 58.113831 ], [ 56.2496138, 58.1138082 ], [ 56.2483585, 58.1135249 ], [ 56.2458801, 58.113695 ], [ 56.2458318, 58.1139782 ], [ 56.2465024, 58.1140605 ], [ 56.2481249, 58.1140753 ], [ 56.2493992, 58.1142871 ], [ 56.2512982, 58.1143467 ], [ 56.252178, 58.1139159 ], [ 56.2529719, 58.1142673 ], [ 56.2538516, 58.1143863 ], [ 56.2545383, 58.1135816 ], [ 56.2554931, 58.1157634 ], [ 56.2198021, 58.1190144 ], [ 56.2189657, 58.1163858 ], [ 56.2185793, 58.1153064 ], [ 56.2155669, 58.1068904 ], [ 56.2120211, 58.0969814 ], [ 56.2113821, 58.0952615 ], [ 56.2104954, 58.0951666 ], [ 56.2098527, 58.0951975 ], [ 56.2093347, 58.0953089 ], [ 56.2088948, 58.095294 ], [ 56.208795, 58.0950723 ], [ 56.2096797, 58.0945755 ], [ 56.2097074, 58.0944276 ], [ 56.2093484, 58.0943895 ], [ 56.2089638, 58.0945617 ], [ 56.2082018, 58.0945906 ], [ 56.2076962, 58.0945341 ], [ 56.2069717, 58.0942012 ], [ 56.2069999, 58.0939485 ], [ 56.2074212, 58.0938997 ], [ 56.2078196, 58.09414 ], [ 56.2081521, 58.0942849 ], [ 56.2083964, 58.0941942 ], [ 56.2084955, 58.0939614 ], [ 56.2084151, 58.0937114 ], [ 56.2079704, 58.0935471 ], [ 56.207464, 58.0932646 ], [ 56.2063951, 58.0929003 ], [ 56.2077453, 58.0922461 ], [ 56.2076328, 58.0919562 ], [ 56.2058325, 58.0922684 ], [ 56.2053261, 58.0921272 ], [ 56.2054386, 58.0918075 ], [ 56.2052839, 58.0917034 ], [ 56.2045947, 58.0918967 ], [ 56.204004, 58.0918446 ], [ 56.2039055, 58.0916885 ], [ 56.2044541, 58.0915696 ], [ 56.2047916, 58.0913019 ], [ 56.2046791, 58.0911384 ], [ 56.2038633, 58.0911086 ], [ 56.2032445, 58.09096 ], [ 56.2038071, 58.0904395 ], [ 56.2030475, 58.0902091 ], [ 56.2023302, 58.090105 ], [ 56.2022036, 58.0902537 ], [ 56.2025271, 58.0905065 ], [ 56.2024849, 58.0907964 ], [ 56.2013035, 58.0907592 ], [ 56.200558, 58.0914506 ], [ 56.2002767, 58.0915844 ], [ 56.1999954, 58.0915473 ], [ 56.2002908, 58.0910715 ], [ 56.2003048, 58.0904693 ], [ 56.1991937, 58.0904098 ], [ 56.198617, 58.0902314 ], [ 56.1983357, 58.0895176 ], [ 56.1977309, 58.0893987 ], [ 56.1972808, 58.0897779 ], [ 56.1976184, 58.0900306 ], [ 56.1982372, 58.0902091 ], [ 56.1970839, 58.0905734 ], [ 56.1966197, 58.0909971 ], [ 56.1961415, 58.0910194 ], [ 56.195818, 58.0906923 ], [ 56.1962822, 58.0904024 ], [ 56.1964228, 58.0901422 ], [ 56.1961275, 58.0898745 ], [ 56.1956211, 58.0898745 ], [ 56.1958321, 58.0903057 ], [ 56.1951148, 58.0903652 ], [ 56.1947631, 58.0900827 ], [ 56.1936379, 58.090618 ], [ 56.1941021, 58.0912425 ], [ 56.1946928, 58.0914729 ], [ 56.1946225, 58.0916068 ], [ 56.1937786, 58.091577 ], [ 56.1930472, 58.091696 ], [ 56.1922591, 58.0915865 ], [ 56.1921947, 58.0914773 ], [ 56.1925549, 58.0907815 ], [ 56.1924002, 58.0907072 ], [ 56.1918094, 58.0908559 ], [ 56.1914297, 58.0908261 ], [ 56.1918516, 58.0903503 ], [ 56.1924002, 58.0900158 ], [ 56.1921189, 58.0898894 ], [ 56.1915703, 58.0899935 ], [ 56.1912468, 58.0898894 ], [ 56.1911765, 58.0895176 ], [ 56.1908108, 58.0894879 ], [ 56.1901216, 58.0902388 ], [ 56.1902341, 58.0905659 ], [ 56.189981, 58.0907072 ], [ 56.1895027, 58.0904247 ], [ 56.1899669, 58.0898671 ], [ 56.1893762, 58.0896812 ], [ 56.1891511, 58.0896589 ], [ 56.1890386, 58.0902834 ], [ 56.1884057, 58.0905139 ], [ 56.1879696, 58.0903132 ], [ 56.1875617, 58.0897779 ], [ 56.1870835, 58.0897407 ], [ 56.1866616, 58.0903875 ], [ 56.1862959, 58.0903875 ], [ 56.1862537, 58.0897927 ], [ 56.1853323, 58.0896465 ], [ 56.1852973, 58.0895325 ], [ 56.1856348, 58.0893689 ], [ 56.1853957, 58.0891756 ], [ 56.1861312, 58.0877234 ], [ 56.1808419, 58.0883756 ], [ 56.1757993, 58.0864245 ], [ 56.1709821, 58.0865267 ], [ 56.1681175, 58.0842068 ], [ 56.1603069, 58.0855681 ], [ 56.1457372, 58.0845755 ], [ 56.1322618, 58.0867195 ], [ 56.1279273, 58.0884946 ], [ 56.1277235, 58.0915513 ], [ 56.1257708, 58.0916988 ], [ 56.1240113, 58.0922319 ], [ 56.1222947, 58.0934681 ], [ 56.121887, 58.0940408 ], [ 56.1169802, 58.0944626 ], [ 56.1129069, 58.0828342 ], [ 56.0952901, 58.0845245 ], [ 56.0924148, 58.0754368 ], [ 56.1101603, 58.0739957 ], [ 56.1074137, 58.0649167 ], [ 56.1204171, 58.0637817 ], [ 56.1204707, 58.0654899 ], [ 56.1230349, 58.0654899 ], [ 56.1234748, 58.0658247 ], [ 56.124022, 58.0659041 ], [ 56.1245799, 58.0661141 ], [ 56.1250949, 58.0666589 ], [ 56.126318, 58.0666986 ], [ 56.1300409, 58.0782791 ], [ 56.1493635, 58.0751928 ], [ 56.1649739, 58.0753347 ], [ 56.1656741, 58.0775836 ], [ 56.2025785, 58.0741829 ], [ 56.2055343, 58.0836141 ], [ 56.2475645, 58.0796406 ], [ 56.2447535, 58.070858 ], [ 56.2594607, 58.0697277 ], [ 56.2606966, 58.0690309 ], [ 56.2673163, 58.0684095 ] ], [ [ 56.2294258, 58.093481 ], [ 56.2286335, 58.0936353 ], [ 56.2311645, 58.0998201 ], [ 56.2361169, 58.0994047 ], [ 56.2337091, 58.0938927 ], [ 56.2371149, 58.0942541 ], [ 56.2373561, 58.094432 ], [ 56.238039, 58.0954448 ], [ 56.2400586, 58.0937802 ], [ 56.2398004, 58.093438 ], [ 56.2384911, 58.09306 ], [ 56.238245, 58.0925143 ], [ 56.2359061, 58.092588 ], [ 56.2358364, 58.0923923 ], [ 56.2350424, 58.0921655 ], [ 56.2336584, 58.0919103 ], [ 56.2314697, 58.0916097 ], [ 56.2305578, 58.0915304 ], [ 56.2279852, 58.0915908 ], [ 56.228176, 58.0921995 ], [ 56.2294258, 58.093481 ] ] ] ] } },
{ "type": "Feature", "properties": { "full_id": "r11103435", "osm_id": "11103435", "osm_type": "relation", "boundary": "protected_area", "protection_title": "Охраняемый ландшафт", "protect_class": "1b", "official_name": "Особо охраняемая природная территория местного значения - охраняемый ландшафт «Русская тайга»", "name": "Охраняемый ландшафт «Русская тайга»", "leisure": "nature_reserve", "ROW": 1 }, "geometry": { "type": "MultiPolygon", "coordinates": [ [ [ [ 56.441383, 58.065696 ], [ 56.4780773, 58.0634096 ], [ 56.483286, 58.063085 ], [ 56.483286, 58.06322 ], [ 56.492926, 58.062668 ], [ 56.493248, 58.062371 ], [ 56.494215, 58.061591 ], [ 56.495758, 58.060945 ], [ 56.49752, 58.060605 ], [ 56.499198, 58.060354 ], [ 56.500418, 58.060004 ], [ 56.501927, 58.059026 ], [ 56.502723, 58.058506 ], [ 56.503164, 58.058254 ], [ 56.504774, 58.057725 ], [ 56.505621, 58.057573 ], [ 56.507603, 58.057484 ], [ 56.509483, 58.057718 ], [ 56.511921, 58.058203 ], [ 56.512667, 58.05832 ], [ 56.513259, 58.058401 ], [ 56.514157, 58.058482 ], [ 56.515766, 58.058501 ], [ 56.517291, 58.05834 ], [ 56.518748, 58.058089 ], [ 56.521933, 58.057443 ], [ 56.523627, 58.057138 ], [ 56.525473, 58.056995 ], [ 56.527336, 58.057031 ], [ 56.529149, 58.057283 ], [ 56.532316, 58.057912 ], [ 56.533806, 58.058091 ], [ 56.535314, 58.058163 ], [ 56.536686, 58.058038 ], [ 56.538227, 58.057778 ], [ 56.539599, 58.057365 ], [ 56.544969, 58.055543 ], [ 56.545664, 58.055309 ], [ 56.544428, 58.049985 ], [ 56.5423416, 58.0501229 ], [ 56.526409, 58.051285 ], [ 56.524095, 58.041884 ], [ 56.52197, 58.032052 ], [ 56.503705, 58.033438 ], [ 56.491923, 58.033802 ], [ 56.491618, 58.03399 ], [ 56.491143, 58.034349 ], [ 56.490499, 58.034771 ], [ 56.489669, 58.03521 ], [ 56.489381, 58.035318 ], [ 56.488839, 58.035641 ], [ 56.487314, 58.036232 ], [ 56.478238, 58.037763 ], [ 56.476595, 58.038166 ], [ 56.476375, 58.038049 ], [ 56.468922, 58.039957 ], [ 56.468888, 58.040083 ], [ 56.467685, 58.040378 ], [ 56.461944, 58.041021 ], [ 56.459523, 58.041253 ], [ 56.459285, 58.041279 ], [ 56.455357, 58.041645 ], [ 56.453883, 58.041814 ], [ 56.453307, 58.041877 ], [ 56.452986, 58.041912 ], [ 56.452698, 58.041948 ], [ 56.450292, 58.042314 ], [ 56.449598, 58.04243 ], [ 56.444584, 58.043279 ], [ 56.454252, 58.043215 ], [ 56.454304, 58.048889 ], [ 56.443602, 58.048917 ], [ 56.443577, 58.045927 ], [ 56.437887, 58.046191 ], [ 56.439686, 58.055701 ], [ 56.441383, 58.065696 ] ], [ [ 56.457273, 58.047051 ], [ 56.462995, 58.047468 ], [ 56.463406, 58.045601 ], [ 56.457717, 58.045274 ], [ 56.457273, 58.047051 ] ] ] ] } },
{ "type": "Feature", "properties": { "full_id": "r11115984", "osm_id": "11115984", "osm_type": "relation", "boundary": "protected_area", "protection_title": "Охраняемый ландшафт", "protect_class": "5", "official_name": "Особо охраняемая природная территория местного значения - охраняемый ландшафт «Андроновский лес»", "name": "Охраняемый ландшафт «Андроновский лес»", "leisure": "nature_reserve", "ROW": 1 }, "geometry": { "type": "MultiPolygon", "coordinates": [ [ [ [ 56.161718, 57.954857 ], [ 56.161536, 57.954524 ], [ 56.161355, 57.954057 ], [ 56.161441, 57.953886 ], [ 56.161951, 57.95361 ], [ 56.162294, 57.953117 ], [ 56.162368, 57.952525 ], [ 56.162726, 57.95222 ], [ 56.162815, 57.951844 ], [ 56.163674, 57.952062 ], [ 56.16389, 57.952341 ], [ 56.164189, 57.952835 ], [ 56.165217, 57.953045 ], [ 56.166012, 57.952958 ], [ 56.166387, 57.952627 ], [ 56.16671, 57.952439 ], [ 56.167065, 57.952377 ], [ 56.167571, 57.952424 ], [ 56.167856, 57.952613 ], [ 56.168109, 57.952686 ], [ 56.169129, 57.9524718 ], [ 56.169502, 57.951909 ], [ 56.169758, 57.951649 ], [ 56.1712164, 57.9520997 ], [ 56.1725418, 57.9524048 ], [ 56.17306, 57.95244 ], [ 56.173938, 57.952407 ], [ 56.174299, 57.951869 ], [ 56.174936, 57.949061 ], [ 56.175125, 57.948765 ], [ 56.175126, 57.948666 ], [ 56.1758032, 57.9483817 ], [ 56.1710473, 57.9438877 ], [ 56.170412, 57.944127 ], [ 56.170176, 57.944099 ], [ 56.169722, 57.943891 ], [ 56.169503, 57.943864 ], [ 56.169316, 57.943899 ], [ 56.168012, 57.944326 ], [ 56.167672, 57.944496 ], [ 56.167402, 57.944468 ], [ 56.166354, 57.944573 ], [ 56.166085, 57.944491 ], [ 56.165689, 57.945217 ], [ 56.164521, 57.945456 ], [ 56.162799, 57.945442 ], [ 56.162243, 57.945332 ], [ 56.161151, 57.944871 ], [ 56.160023, 57.944535 ], [ 56.159974, 57.945909 ], [ 56.161673, 57.94657 ], [ 56.161689, 57.948204 ], [ 56.159628, 57.948242 ], [ 56.157977, 57.949458 ], [ 56.158064, 57.950725 ], [ 56.156886, 57.951915 ], [ 56.157063, 57.95267 ], [ 56.156927, 57.9526873 ], [ 56.153343, 57.953143 ], [ 56.152737, 57.952953 ], [ 56.15255, 57.953006 ], [ 56.152061, 57.952978 ], [ 56.151607, 57.95277 ], [ 56.151678, 57.952456 ], [ 56.151173, 57.952319 ], [ 56.150919, 57.952399 ], [ 56.151055, 57.952292 ], [ 56.150752, 57.952219 ], [ 56.150179, 57.95211 ], [ 56.149521, 57.952018 ], [ 56.149369, 57.952062 ], [ 56.149165, 57.952205 ], [ 56.149029, 57.952277 ], [ 56.148807, 57.952482 ], [ 56.147284, 57.952693 ], [ 56.147214, 57.952944 ], [ 56.14711, 57.953231 ], [ 56.147105, 57.95359 ], [ 56.147187, 57.953824 ], [ 56.147203, 57.953887 ], [ 56.147656, 57.954176 ], [ 56.147707, 57.954158 ], [ 56.147741, 57.95414 ], [ 56.148044, 57.954231 ], [ 56.148213, 57.954222 ], [ 56.147636, 57.952991 ], [ 56.148991, 57.952609 ], [ 56.150595, 57.952623 ], [ 56.151585, 57.953245 ], [ 56.15189, 57.953166 ], [ 56.152734, 57.953186 ], [ 56.153053, 57.953358 ], [ 56.153371, 57.953646 ], [ 56.153602, 57.954123 ], [ 56.154038, 57.954384 ], [ 56.154438, 57.954853 ], [ 56.154708, 57.954898 ], [ 56.154876, 57.954971 ], [ 56.155805, 57.955027 ], [ 56.155823, 57.954884 ], [ 56.155791, 57.954695 ], [ 56.155707, 57.954695 ], [ 56.155708, 57.954623 ], [ 56.155092, 57.953813 ], [ 56.155111, 57.953607 ], [ 56.155281, 57.95349 ], [ 56.155823, 57.953357 ], [ 56.15621, 57.953475 ], [ 56.156615, 57.953548 ], [ 56.156714, 57.953701 ], [ 56.157304, 57.953811 ], [ 56.15745, 57.954359 ], [ 56.157517, 57.95444 ], [ 56.157618, 57.954512 ], [ 56.157904, 57.954612 ], [ 56.158307, 57.954811 ], [ 56.158492, 57.954892 ], [ 56.159605, 57.954985 ], [ 56.160146, 57.955005 ], [ 56.16077, 57.955061 ], [ 56.161718, 57.954857 ] ], [ [ 56.159292, 57.954302 ], [ 56.1595, 57.953791 ], [ 56.159669, 57.953755 ], [ 56.159553, 57.95362 ], [ 56.160096, 57.953362 ], [ 56.160097, 57.953272 ], [ 56.159711, 57.953073 ], [ 56.158659, 57.953456 ], [ 56.158452, 57.953868 ], [ 56.158685, 57.954228 ], [ 56.159292, 57.954302 ] ] ] ] } },
{ "type": "Feature", "properties": { "full_id": "r12008092", "osm_id": "12008092", "osm_type": "relation", "boundary": "protected_area", "protection_title": "Охраняемый ландшафт", "protect_class": "1b", "official_name": "Особо охраняемая природная территория местного значения - охраняемый ландшафт «Верхнекурьинский»", "name": "Охраняемый ландшафт «Верхнекурьинский»", "leisure": "nature_reserve", "ROW": 1 }, "geometry": { "type": "MultiPolygon", "coordinates": [ [ [ [ 56.1928475, 58.042246 ], [ 56.1876011, 58.041238 ], [ 56.1794878, 58.0405181 ], [ 56.1738588, 58.0402249 ], [ 56.1695519, 58.039947 ], [ 56.1695064, 58.0400911 ], [ 56.1694254, 58.0403473 ], [ 56.1685242, 58.0431866 ], [ 56.1679834, 58.043382 ], [ 56.163958, 58.0431367 ], [ 56.1641211, 58.0424189 ], [ 56.1632971, 58.0421236 ], [ 56.1607822, 58.0423371 ], [ 56.1623615, 58.047275 ], [ 56.1642246, 58.0498851 ], [ 56.1646628, 58.050499 ], [ 56.1579251, 58.0500675 ], [ 56.139332, 58.0490815 ], [ 56.1387268, 58.0473055 ], [ 56.1437416, 58.0476261 ], [ 56.1439231, 58.0473671 ], [ 56.1440635, 58.0471492 ], [ 56.1416938, 58.0426922 ], [ 56.1411182, 58.0423921 ], [ 56.1447319, 58.0404836 ], [ 56.1442512, 58.0402973 ], [ 56.1365892, 58.0406942 ], [ 56.1365227, 58.0401683 ], [ 56.1448641, 58.0398408 ], [ 56.1490698, 58.0383551 ], [ 56.1486948, 58.0381495 ], [ 56.1498364, 58.0376242 ], [ 56.1510274, 58.0355646 ], [ 56.1462036, 58.0361264 ], [ 56.1471523, 58.0369533 ], [ 56.1459164, 58.0374349 ], [ 56.1453413, 58.0374168 ], [ 56.1451096, 58.0372577 ], [ 56.1431698, 58.0373259 ], [ 56.14229, 58.0374026 ], [ 56.1413158, 58.0372078 ], [ 56.1386929, 58.0379353 ], [ 56.1393308, 58.0384803 ], [ 56.137581, 58.0390544 ], [ 56.1368562, 58.0384352 ], [ 56.136269, 58.0386117 ], [ 56.1363548, 58.0387798 ], [ 56.1360773, 58.0388923 ], [ 56.1350298, 58.039256 ], [ 56.1368322, 58.0423794 ], [ 56.1353302, 58.042493 ], [ 56.1335277, 58.0413459 ], [ 56.1325354, 58.04037 ], [ 56.132501, 58.0406835 ], [ 56.1330847, 58.0423871 ], [ 56.1322435, 58.0423826 ], [ 56.1318573, 58.0422008 ], [ 56.1300119, 58.0422599 ], [ 56.1298231, 58.0420873 ], [ 56.1286472, 58.0418737 ], [ 56.1282438, 58.042219 ], [ 56.1270937, 58.0420146 ], [ 56.1264843, 58.0405154 ], [ 56.1263609, 58.0401703 ], [ 56.1254635, 58.0402387 ], [ 56.1253942, 58.0399611 ], [ 56.125111, 58.0389434 ], [ 56.1226992, 58.0391569 ], [ 56.1225618, 58.0392932 ], [ 56.1212315, 58.0393886 ], [ 56.1209053, 58.039216 ], [ 56.1200899, 58.0392614 ], [ 56.1193346, 58.0389661 ], [ 56.1189226, 58.0390115 ], [ 56.1193518, 58.0403881 ], [ 56.1194548, 58.0406471 ], [ 56.1213827, 58.0458489 ], [ 56.1227507, 58.050082 ], [ 56.1225189, 58.0507906 ], [ 56.1216005, 58.0508814 ], [ 56.1226305, 58.0542513 ], [ 56.1234802, 58.0543648 ], [ 56.1249578, 58.0542256 ], [ 56.1378108, 58.0530151 ], [ 56.1381101, 58.0538776 ], [ 56.1399488, 58.0587888 ], [ 56.1420786, 58.0586111 ], [ 56.1432159, 58.0625245 ], [ 56.1611196, 58.0606956 ], [ 56.1637683, 58.0604768 ], [ 56.1701061, 58.0599532 ], [ 56.1795491, 58.059173 ], [ 56.1819242, 58.0589759 ], [ 56.1890407, 58.0583285 ], [ 56.1907476, 58.0581766 ], [ 56.1912787, 58.0581294 ], [ 56.1914405, 58.058115 ], [ 56.1972606, 58.0575971 ], [ 56.1975901, 58.0575678 ], [ 56.2026578, 58.0571023 ], [ 56.2039719, 58.0569826 ], [ 56.2056652, 58.0568283 ], [ 56.2042093, 58.0537179 ], [ 56.2023425, 58.0531048 ], [ 56.2032115, 58.0523214 ], [ 56.2047458, 58.0528607 ], [ 56.2079451, 58.0474994 ], [ 56.2060725, 58.0476761 ], [ 56.1945739, 58.0487612 ], [ 56.1928475, 58.042246 ] ] ] ] } },
{ "type": "Feature", "properties": { "full_id": "r12008093", "osm_id": "12008093", "osm_type": "relation", "boundary": "protected_area", "protection_title": "Охраняемый ландшафт", "protect_class": "1b", "official_name": "Особо охраняемая природная территория местного значения - охраняемый ландшафт «Закамский бор»", "name": "Охраняемый ландшафт «Закамский бор»", "leisure": "nature_reserve", "ROW": 1 }, "geometry": { "type": "MultiPolygon", "coordinates": [ [ [ [ 56.2808937, 58.0688493 ], [ 56.3067126, 58.0781429 ], [ 56.3074529, 58.078662 ], [ 56.3078096, 58.0794292 ], [ 56.3075709, 58.0800788 ], [ 56.3075468, 58.0808715 ], [ 56.3064283, 58.0824059 ], [ 56.3056304, 58.0839941 ], [ 56.30557, 58.0848761 ], [ 56.3065785, 58.0878992 ], [ 56.3068203, 58.0892261 ], [ 56.305665, 58.089249 ], [ 56.3051409, 58.0892291 ], [ 56.3043537, 58.0891575 ], [ 56.3034806, 58.089032 ], [ 56.3013321, 58.0885925 ], [ 56.2996396, 58.0881076 ], [ 56.2995619, 58.0869378 ], [ 56.2981778, 58.0872157 ], [ 56.2968917, 58.0865126 ], [ 56.2953937, 58.085639 ], [ 56.2905818, 58.0839147 ], [ 56.2889993, 58.0829022 ], [ 56.2850239, 58.079511 ], [ 56.2844127, 58.0786847 ], [ 56.2828141, 58.0742794 ], [ 56.2836456, 58.0742028 ], [ 56.2833506, 58.0733205 ], [ 56.2828057, 58.073365 ], [ 56.2815857, 58.0709545 ], [ 56.2808937, 58.0688493 ] ] ], [ [ [ 56.3044864, 58.0892886 ], [ 56.3044703, 58.0893567 ], [ 56.3045078, 58.0894531 ], [ 56.3046634, 58.0895155 ], [ 56.3047278, 58.0896346 ], [ 56.3046473, 58.0897933 ], [ 56.3045722, 58.0898586 ], [ 56.304304, 58.0898075 ], [ 56.3036764, 58.0893397 ], [ 56.3035208, 58.0893595 ], [ 56.3035476, 58.0894871 ], [ 56.3037354, 58.0896119 ], [ 56.3038856, 58.0898926 ], [ 56.3038748, 58.0902952 ], [ 56.3035905, 58.090352 ], [ 56.3031399, 58.0902641 ], [ 56.3027805, 58.0902641 ], [ 56.3024694, 58.0901109 ], [ 56.302228, 58.0898302 ], [ 56.3018471, 58.0898983 ], [ 56.3012516, 58.0897877 ], [ 56.3006025, 58.0895438 ], [ 56.3003129, 58.0889228 ], [ 56.2997496, 58.0888831 ], [ 56.2996316, 58.0882777 ], [ 56.3000473, 58.0884181 ], [ 56.3021354, 58.0889093 ], [ 56.3035195, 58.0891539 ], [ 56.3044864, 58.0892886 ] ] ], [ [ [ 56.2780473, 58.0462238 ], [ 56.2817366, 58.0467926 ], [ 56.2817842, 58.0466921 ], [ 56.2817671, 58.0465936 ], [ 56.2804915, 58.0462652 ], [ 56.2782215, 58.0450418 ], [ 56.2777448, 58.0452726 ], [ 56.2768769, 58.0448247 ], [ 56.2770288, 58.0447371 ], [ 56.2759745, 58.0442817 ], [ 56.2756151, 58.0441994 ], [ 56.275399, 58.0442184 ], [ 56.2750931, 58.0443421 ], [ 56.2748156, 58.0445108 ], [ 56.2745941, 58.0447928 ], [ 56.2743047, 58.045027 ], [ 56.2740487, 58.0451973 ], [ 56.2738306, 58.0453937 ], [ 56.2732494, 58.0468738 ], [ 56.2726221, 58.0469145 ], [ 56.2725279, 58.046772 ], [ 56.2724216, 58.046645 ], [ 56.2723223, 58.0464827 ], [ 56.2722715, 58.0463643 ], [ 56.2721894, 58.0461612 ], [ 56.2721067, 58.0460718 ], [ 56.2720307, 58.0459359 ], [ 56.2720815, 58.045843 ], [ 56.2721156, 58.0457645 ], [ 56.272062, 58.0457076 ], [ 56.2719549, 58.0456439 ], [ 56.2718961, 58.045588 ], [ 56.2718664, 58.0454477 ], [ 56.271807, 58.0453458 ], [ 56.2717557, 58.0452351 ], [ 56.2718154, 58.0450852 ], [ 56.2719077, 58.0449785 ], [ 56.2723148, 58.0454571 ], [ 56.2724179, 58.0454901 ], [ 56.2720168, 58.0443312 ], [ 56.2718967, 58.0440596 ], [ 56.2717384, 58.0437795 ], [ 56.2715946, 58.0435744 ], [ 56.2714508, 58.0433989 ], [ 56.2712051, 58.043147 ], [ 56.2709374, 58.042925 ], [ 56.2706209, 58.0426738 ], [ 56.2701335, 58.0423431 ], [ 56.269784, 58.0421267 ], [ 56.2693901, 58.0419099 ], [ 56.2689705, 58.0417273 ], [ 56.2685442, 58.041567 ], [ 56.2681969, 58.0414362 ], [ 56.2678894, 58.0413338 ], [ 56.2675144, 58.0412296 ], [ 56.266993, 58.0411022 ], [ 56.2639278, 58.0405622 ], [ 56.2610085, 58.0400699 ], [ 56.2596845, 58.039804 ], [ 56.2558881, 58.0388131 ], [ 56.2485297, 58.0370165 ], [ 56.2479079, 58.03688 ], [ 56.2474141, 58.0367945 ], [ 56.2468659, 58.0367326 ], [ 56.2463381, 58.0367039 ], [ 56.2458441, 58.0366911 ], [ 56.2453091, 58.0367089 ], [ 56.244812, 58.0367623 ], [ 56.2352026, 58.0376623 ], [ 56.2293127, 58.0382111 ], [ 56.2164169, 58.0394821 ], [ 56.2128826, 58.0398228 ], [ 56.2103057, 58.040061 ], [ 56.2060958, 58.0404217 ], [ 56.1971336, 58.041251 ], [ 56.1970894, 58.0412519 ], [ 56.1973027, 58.0413629 ], [ 56.1970851, 58.041348 ], [ 56.1968734, 58.0413455 ], [ 56.1966044, 58.0413542 ], [ 56.1963622, 58.0413678 ], [ 56.194016, 58.0416083 ], [ 56.1928475, 58.042246 ], [ 56.1945739, 58.0487612 ], [ 56.2060725, 58.0476761 ], [ 56.2079252, 58.0459627 ], [ 56.2097239, 58.046113 ], [ 56.2091741, 58.0477915 ], [ 56.2214935, 58.0502634 ], [ 56.2267117, 58.0521481 ], [ 56.2441045, 58.0584295 ], [ 56.2426159, 58.0595803 ], [ 56.2415752, 58.059261 ], [ 56.2397459, 58.0585118 ], [ 56.2391424, 58.0587388 ], [ 56.2377571, 58.0582074 ], [ 56.2364897, 58.0585054 ], [ 56.2349166, 58.0597181 ], [ 56.2294798, 58.0615725 ], [ 56.2265924, 58.0602018 ], [ 56.225671, 58.0594838 ], [ 56.2251011, 58.0586934 ], [ 56.2248959, 58.0585125 ], [ 56.2245244, 58.05835 ], [ 56.2245445, 58.0586402 ], [ 56.2232725, 58.0586512 ], [ 56.2270993, 58.0722226 ], [ 56.2447535, 58.070858 ], [ 56.2594607, 58.0697277 ], [ 56.2606966, 58.0690309 ], [ 56.2673163, 58.0684095 ], [ 56.2693709, 58.0668831 ], [ 56.2709856, 58.0661538 ], [ 56.2669462, 58.0646883 ], [ 56.2676355, 58.0642882 ], [ 56.2719378, 58.0658474 ], [ 56.2733696, 58.0650569 ], [ 56.2752745, 58.0643619 ], [ 56.2770796, 58.0631744 ], [ 56.2781712, 58.0627175 ], [ 56.2787533, 58.0626622 ], [ 56.2807327, 58.0683755 ], [ 56.3071364, 58.0778621 ], [ 56.3080323, 58.078462 ], [ 56.3086626, 58.0797554 ], [ 56.3116801, 58.0783103 ], [ 56.313284, 58.076926 ], [ 56.3102129, 58.0733163 ], [ 56.311267, 58.0721971 ], [ 56.3112321, 58.069448 ], [ 56.3119858, 58.0694664 ], [ 56.3124311, 58.0669965 ], [ 56.3080564, 58.0646613 ], [ 56.3074207, 58.0642683 ], [ 56.3069916, 58.0641023 ], [ 56.299755, 58.0602514 ], [ 56.2979203, 58.0595561 ], [ 56.2955493, 58.0586054 ], [ 56.2920946, 58.0569792 ], [ 56.2917244, 58.0571693 ], [ 56.2922367, 58.0574389 ], [ 56.2926337, 58.0576291 ], [ 56.292403, 58.0577824 ], [ 56.2918505, 58.0580052 ], [ 56.2912658, 58.0576632 ], [ 56.2910083, 58.0574645 ], [ 56.291534, 58.0572318 ], [ 56.2916319, 58.0567251 ], [ 56.2889054, 58.0551769 ], [ 56.2887982, 58.0552251 ], [ 56.2884951, 58.0556395 ], [ 56.2882939, 58.0557914 ], [ 56.2872934, 58.0552067 ], [ 56.2868777, 58.0554068 ], [ 56.2854561, 58.054578 ], [ 56.2858792, 58.0543733 ], [ 56.2855071, 58.0541551 ], [ 56.2845346, 58.0547046 ], [ 56.2839299, 58.0544737 ], [ 56.2835464, 58.0544134 ], [ 56.2818841, 58.0538858 ], [ 56.2817989, 58.0539315 ], [ 56.2811525, 58.053669 ], [ 56.2804578, 58.0535803 ], [ 56.2795807, 58.0531112 ], [ 56.2796813, 58.0530452 ], [ 56.2794909, 58.052953 ], [ 56.2790751, 58.0531843 ], [ 56.2789276, 58.0530992 ], [ 56.2775409, 58.0538854 ], [ 56.2769133, 58.0534923 ], [ 56.2760925, 58.0539706 ], [ 56.2750116, 58.0523186 ], [ 56.274514, 58.0508787 ], [ 56.2751631, 58.0508382 ], [ 56.2764238, 58.0506871 ], [ 56.2763903, 58.0504429 ], [ 56.2772063, 58.0500853 ], [ 56.2761247, 58.0495182 ], [ 56.275017, 58.0492258 ], [ 56.2752396, 58.0488767 ], [ 56.276224, 58.0491009 ], [ 56.2762991, 58.0490165 ], [ 56.2765458, 58.0488781 ], [ 56.2770501, 58.0489086 ], [ 56.2772164, 58.0487862 ], [ 56.2780774, 58.0492869 ], [ 56.280942, 58.0478845 ], [ 56.2795472, 58.0477141 ], [ 56.2767711, 58.0475928 ], [ 56.2769039, 58.0473025 ], [ 56.2772915, 58.0466964 ], [ 56.2780473, 58.0462238 ] ], [ [ 56.2987679, 58.0683131 ], [ 56.299696, 58.0718396 ], [ 56.3073993, 58.0719021 ], [ 56.3076889, 58.0714623 ], [ 56.3070881, 58.0710623 ], [ 56.3062459, 58.0706906 ], [ 56.3057363, 58.0698849 ], [ 56.3043308, 58.0701005 ], [ 56.3039017, 58.0695075 ], [ 56.3033491, 58.0689316 ], [ 56.3030326, 58.0688209 ], [ 56.3026357, 58.068296 ], [ 56.2987679, 58.0683131 ] ], [ [ 56.3035583, 58.0682875 ], [ 56.3038587, 58.0688834 ], [ 56.3058704, 58.0688834 ], [ 56.3081047, 58.0686543 ], [ 56.3083209, 58.0683551 ], [ 56.3081396, 58.0678846 ], [ 56.3080403, 58.0671044 ], [ 56.3086465, 58.065846 ], [ 56.3079786, 58.0649578 ], [ 56.3069004, 58.0649635 ], [ 56.3067958, 58.064491 ], [ 56.3058731, 58.0644712 ], [ 56.304819, 58.0651863 ], [ 56.3039017, 58.066029 ], [ 56.3035583, 58.0682875 ] ] ] ] } },
{ "type": "Feature", "properties": { "full_id": "r12100252", "osm_id": "12100252", "osm_type": "relation", "boundary": "protected_area", "protection_title": "Охраняемый ландшафт", "protect_class": "1b", "official_name": null, "name": "Охраняемый ландшафт «Ласьвинская Долина»", "leisure": "nature_reserve", "ROW": 1 }, "geometry": { "type": "MultiPolygon", "coordinates": [ [ [ [ 55.9762549, 58.0618485 ], [ 55.9756637, 58.0619088 ], [ 55.9750706, 58.0619685 ], [ 55.9747517, 58.0619315 ], [ 55.9745371, 58.0617612 ], [ 55.9742528, 58.0615711 ], [ 55.9736676, 58.061475 ], [ 55.9733838, 58.06152 ], [ 55.9729889, 58.0616294 ], [ 55.9722036, 58.0615966 ], [ 55.9712207, 58.0616462 ], [ 55.9708732, 58.0617669 ], [ 55.9707606, 58.0619456 ], [ 55.9706315, 58.0620652 ], [ 55.9702843, 58.0620018 ], [ 55.9702402, 58.0617952 ], [ 55.9701327, 58.0613583 ], [ 55.9708633, 58.0611856 ], [ 55.9712425, 58.0610585 ], [ 55.9713829, 58.0608559 ], [ 55.971238, 58.0605693 ], [ 55.9711281, 58.0601421 ], [ 55.971238, 58.0600272 ], [ 55.9715395, 58.0599885 ], [ 55.9718549, 58.0601124 ], [ 55.9722542, 58.0603254 ], [ 55.9724718, 58.0603536 ], [ 55.9727102, 58.0602833 ], [ 55.9728098, 58.0601351 ], [ 55.9727439, 58.0599799 ], [ 55.9725711, 58.0597463 ], [ 55.9723115, 58.0595214 ], [ 55.9713573, 58.0590456 ], [ 55.9710352, 58.0589735 ], [ 55.970825, 58.0590027 ], [ 55.9706828, 58.0591399 ], [ 55.9706157, 58.0593291 ], [ 55.9707313, 58.0595055 ], [ 55.9707659, 58.0596753 ], [ 55.9706911, 58.0598539 ], [ 55.9704675, 58.0599714 ], [ 55.969854, 58.0599847 ], [ 55.9692679, 58.0599397 ], [ 55.9690139, 58.0598228 ], [ 55.9690762, 58.0596952 ], [ 55.9695524, 58.0593338 ], [ 55.9699559, 58.0588637 ], [ 55.9702208, 58.0585097 ], [ 55.9703207, 58.0581144 ], [ 55.9703647, 58.057683 ], [ 55.9703155, 58.0574222 ], [ 55.9700739, 58.0573254 ], [ 55.9697606, 58.0573114 ], [ 55.9691189, 58.0575492 ], [ 55.9687276, 58.0575682 ], [ 55.9684002, 58.0574106 ], [ 55.9679147, 58.0570842 ], [ 55.9675529, 58.0569995 ], [ 55.9671822, 58.0566792 ], [ 55.9669357, 58.0566783 ], [ 55.9667802, 58.0567606 ], [ 55.9667313, 58.0569832 ], [ 55.9665515, 58.0572711 ], [ 55.9663832, 58.0573623 ], [ 55.9660878, 58.0574014 ], [ 55.965745, 58.0572393 ], [ 55.9655356, 58.0569763 ], [ 55.9654286, 58.0566776 ], [ 55.9655893, 58.0565364 ], [ 55.9658576, 58.0564355 ], [ 55.965938, 58.0562327 ], [ 55.9659179, 58.056016 ], [ 55.9657234, 58.05579 ], [ 55.9654823, 58.0556091 ], [ 55.9652712, 58.0556047 ], [ 55.9651333, 58.0557786 ], [ 55.9651746, 58.0559481 ], [ 55.9650797, 58.0561674 ], [ 55.9648215, 58.0563195 ], [ 55.9645379, 58.0565052 ], [ 55.964098, 58.056684 ], [ 55.9637976, 58.0568798 ], [ 55.9634421, 58.0570072 ], [ 55.9629661, 58.056982 ], [ 55.9626053, 58.056899 ], [ 55.9624511, 58.0567635 ], [ 55.9625121, 58.0565811 ], [ 55.9627447, 58.0564669 ], [ 55.9630251, 58.0562356 ], [ 55.9631589, 58.05594 ], [ 55.9634435, 58.0558098 ], [ 55.9637051, 58.0556813 ], [ 55.9637761, 58.0554863 ], [ 55.9637297, 58.0551244 ], [ 55.9635301, 58.0547229 ], [ 55.9633309, 58.0546177 ], [ 55.9630734, 58.0546035 ], [ 55.9627749, 58.0546264 ], [ 55.9625369, 58.0547852 ], [ 55.9622902, 58.055157 ], [ 55.9620156, 58.0554953 ], [ 55.96142, 58.0558854 ], [ 55.9611636, 58.0559375 ], [ 55.9609351, 58.0559024 ], [ 55.9608149, 58.0557502 ], [ 55.9609788, 58.0552858 ], [ 55.9608632, 58.055052 ], [ 55.9606808, 58.0549158 ], [ 55.9604346, 58.0549216 ], [ 55.9600582, 58.0550922 ], [ 55.9597258, 58.055243 ], [ 55.9594417, 58.0553358 ], [ 55.9591566, 58.0552788 ], [ 55.9591091, 58.0551059 ], [ 55.9592265, 58.0549449 ], [ 55.9599628, 58.0547584 ], [ 55.9602571, 58.0545515 ], [ 55.9602229, 58.0543744 ], [ 55.9596991, 58.0542516 ], [ 55.9591879, 58.0542285 ], [ 55.9587966, 58.0543139 ], [ 55.9582432, 58.0546006 ], [ 55.9578752, 58.0546802 ], [ 55.9576235, 58.0546321 ], [ 55.9574544, 58.054441 ], [ 55.9569901, 58.0537634 ], [ 55.9565915, 58.0532534 ], [ 55.9565717, 58.0530566 ], [ 55.9565932, 58.0528652 ], [ 55.9571635, 58.052683 ], [ 55.9577659, 58.0525557 ], [ 55.9581971, 58.0525769 ], [ 55.958585, 58.0526835 ], [ 55.9588033, 58.0526734 ], [ 55.9589849, 58.0526102 ], [ 55.9590393, 58.0524804 ], [ 55.9588462, 58.0523413 ], [ 55.9587022, 58.0521063 ], [ 55.9584117, 58.051853 ], [ 55.9582102, 58.0517851 ], [ 55.9577519, 58.0518899 ], [ 55.9575856, 58.0520148 ], [ 55.9570042, 58.052161 ], [ 55.9565033, 58.0521699 ], [ 55.9560728, 58.0521028 ], [ 55.9557023, 58.0519451 ], [ 55.9555846, 58.0517168 ], [ 55.9556437, 58.0513852 ], [ 55.9557509, 58.0511405 ], [ 55.9559766, 58.0509645 ], [ 55.9560674, 58.0507658 ], [ 55.9558987, 58.0505201 ], [ 55.9556168, 58.0502435 ], [ 55.9551969, 58.0499444 ], [ 55.9548873, 58.0497212 ], [ 55.9546221, 58.0496103 ], [ 55.9543294, 58.0496673 ], [ 55.9539968, 58.0498262 ], [ 55.9535698, 58.0499036 ], [ 55.9530419, 58.0498234 ], [ 55.9525305, 58.049646 ], [ 55.9522372, 58.0495282 ], [ 55.9519255, 58.0494494 ], [ 55.9515904, 58.0495043 ], [ 55.9515613, 58.0496616 ], [ 55.9517016, 58.0499171 ], [ 55.9520334, 58.0500732 ], [ 55.952287, 58.0502259 ], [ 55.9523177, 58.050411 ], [ 55.9521006, 58.0505255 ], [ 55.9517547, 58.050555 ], [ 55.9513913, 58.0504592 ], [ 55.950982, 58.0502606 ], [ 55.9503936, 58.0499123 ], [ 55.9499359, 58.0497212 ], [ 55.9495595, 58.0495651 ], [ 55.9494713, 58.0493309 ], [ 55.9498262, 58.0489954 ], [ 55.9499265, 58.0487663 ], [ 55.9496838, 58.0486311 ], [ 55.9494418, 58.0486164 ], [ 55.9487281, 58.0489264 ], [ 55.9483618, 58.0490011 ], [ 55.9479657, 58.0489119 ], [ 55.9476453, 58.0487674 ], [ 55.9473354, 58.0487484 ], [ 55.9471518, 58.0488327 ], [ 55.9470123, 58.0489718 ], [ 55.9467539, 58.0493343 ], [ 55.9463492, 58.0494985 ], [ 55.9459952, 58.04947 ], [ 55.9457624, 58.0492528 ], [ 55.9456985, 58.0489734 ], [ 55.9460944, 58.0486445 ], [ 55.9462988, 58.0484892 ], [ 55.9463708, 58.0482139 ], [ 55.9462666, 58.0480605 ], [ 55.9460843, 58.0479413 ], [ 55.9458853, 58.0478234 ], [ 55.9506762, 58.0477567 ], [ 55.9645325, 58.0461158 ], [ 55.9646792, 58.04645 ], [ 55.965568, 58.0484748 ], [ 55.9666085, 58.0508453 ], [ 55.9656858, 58.0515663 ], [ 55.965777, 58.0522164 ], [ 55.9657287, 58.0528551 ], [ 55.9672415, 58.0539337 ], [ 55.9682071, 58.0549385 ], [ 55.9681386, 58.0549611 ], [ 55.9673488, 58.0552223 ], [ 55.9673839, 58.0552538 ], [ 55.9689689, 58.0566755 ], [ 55.9694257, 58.056852 ], [ 55.9703207, 58.0571977 ], [ 55.9710288, 58.0577256 ], [ 55.9717628, 58.0582612 ], [ 55.9725845, 58.0588608 ], [ 55.9727543, 58.0589966 ], [ 55.9739164, 58.0599265 ], [ 55.9751809, 58.0609382 ], [ 55.9759158, 58.0616335 ], [ 55.9762549, 58.0618485 ] ] ] ] } },
{ "type": "Feature", "properties": { "full_id": "r12100646", "osm_id": "12100646", "osm_type": "relation", "boundary": "protected_area", "protection_title": "Охраняемый ландшафт", "protect_class": "1b", "official_name": "Особо охраняемая природная территория местного значения - охраняемый ландшафт «Нижнекурьинские водно-болотные угодья»", "name": "Охраняемый ландшафт «Нижнекурьинские водно-болотные угодья»", "leisure": "nature_reserve", "ROW": 1 }, "geometry": { "type": "MultiPolygon", "coordinates": [ [ [ [ 56.0475663, 58.0262716 ], [ 56.0475308, 58.0244757 ], [ 56.0477319, 58.0245368 ], [ 56.0478526, 58.0245908 ], [ 56.0481262, 58.0246518 ], [ 56.0485312, 58.024693 ], [ 56.0488531, 58.0247058 ], [ 56.0491347, 58.0246959 ], [ 56.0493922, 58.024649 ], [ 56.0495746, 58.0246064 ], [ 56.0497731, 58.024595 ], [ 56.0499474, 58.0246092 ], [ 56.0501003, 58.024649 ], [ 56.0502666, 58.024676 ], [ 56.0504231, 58.0246988 ], [ 56.0507816, 58.0247016 ], [ 56.051133, 58.0246731 ], [ 56.0514148, 58.0246319 ], [ 56.0515729, 58.0245808 ], [ 56.0517284, 58.0245382 ], [ 56.0520369, 58.0244232 ], [ 56.0524419, 58.0242967 ], [ 56.0529247, 58.024122 ], [ 56.0532305, 58.0240112 ], [ 56.0534584, 58.0239303 ], [ 56.054856, 58.0272318 ], [ 56.0490559, 58.0264678 ], [ 56.0475663, 58.0262716 ] ] ], [ [ [ 56.0553826, 58.0240726 ], [ 56.0555389, 58.0240544 ], [ 56.0564448, 58.0239822 ], [ 56.0568495, 58.0239517 ], [ 56.0571754, 58.0239458 ], [ 56.0575408, 58.0238962 ], [ 56.0580638, 58.0238919 ], [ 56.0586163, 58.023872 ], [ 56.0592037, 58.0238365 ], [ 56.0598448, 58.0237968 ], [ 56.0603625, 58.0237499 ], [ 56.0609123, 58.0237044 ], [ 56.0617626, 58.0236292 ], [ 56.0625458, 58.023578 ], [ 56.0633022, 58.0235382 ], [ 56.0639512, 58.0235212 ], [ 56.0643294, 58.0235297 ], [ 56.0646942, 58.0234374 ], [ 56.0647452, 58.0233678 ], [ 56.0648632, 58.0233138 ], [ 56.0651422, 58.0232087 ], [ 56.0655338, 58.0230866 ], [ 56.0659924, 58.0229701 ], [ 56.0663196, 58.0228991 ], [ 56.0665449, 58.0228735 ], [ 56.0667327, 58.0228692 ], [ 56.0669151, 58.0228806 ], [ 56.0670626, 58.0228991 ], [ 56.0705709, 58.0239985 ], [ 56.0710698, 58.0262966 ], [ 56.0699802, 58.0265401 ], [ 56.066717, 58.0275933 ], [ 56.0668076, 58.0277251 ], [ 56.0662023, 58.0280075 ], [ 56.0653254, 58.0283202 ], [ 56.0645034, 58.0285948 ], [ 56.0641183, 58.0286778 ], [ 56.0625203, 58.0292827 ], [ 56.062053, 58.0289934 ], [ 56.0617148, 58.0287784 ], [ 56.061295, 58.0285457 ], [ 56.0605568, 58.0282431 ], [ 56.0601405, 58.0281023 ], [ 56.0596958, 58.0279765 ], [ 56.0590817, 58.0278309 ], [ 56.0582603, 58.0276869 ], [ 56.056974, 58.0275429 ], [ 56.0554173, 58.0245739 ], [ 56.0553826, 58.0240726 ] ], [ [ 56.0661077, 58.0266574 ], [ 56.0643482, 58.0243848 ], [ 56.0683393, 58.0236803 ], [ 56.070013, 58.0241576 ], [ 56.0698414, 58.0258847 ], [ 56.0661077, 58.0266574 ] ] ] ] } },
{ "type": "Feature", "properties": { "full_id": "r16625257", "osm_id": "16625257", "osm_type": "relation", "boundary": "protected_area", "protection_title": "Охраняемый ландшафт", "protect_class": "1b", "official_name": "Особо охраняемая природная территория местного значения - охраняемый ландшафт «Утиное болото»", "name": "Охраняемый ландшафт «Утиное болото»", "leisure": "nature_reserve", "ROW": 1 }, "geometry": { "type": "MultiPolygon", "coordinates": [ [ [ [ 55.9604395, 58.0148073 ], [ 55.9613037, 58.0146761 ], [ 55.9622432, 58.0145334 ], [ 55.9626612, 58.0144699 ], [ 55.9631529, 58.0143952 ], [ 55.9634685, 58.0143473 ], [ 55.9637983, 58.0142972 ], [ 55.9642702, 58.0141932 ], [ 55.9638776, 58.0137586 ], [ 55.9645024, 58.0127795 ], [ 55.9655109, 58.0120403 ], [ 55.9664968, 58.0113439 ], [ 55.9658823, 58.0111741 ], [ 55.9655634, 58.0114125 ], [ 55.9646174, 58.0110939 ], [ 55.9647238, 58.0110131 ], [ 55.965168, 58.0106766 ], [ 55.9644504, 58.0103762 ], [ 55.9647321, 58.0100657 ], [ 55.9642983, 58.0099327 ], [ 55.9640896, 58.0100602 ], [ 55.9631654, 58.009758 ], [ 55.9617854, 58.0107746 ], [ 55.960998, 58.0113545 ], [ 55.9607523, 58.0115355 ], [ 55.9613197, 58.0117276 ], [ 55.9620735, 58.0119827 ], [ 55.9624625, 58.0121144 ], [ 55.9615326, 58.0127685 ], [ 55.960764, 58.0124619 ], [ 55.9603339, 58.0127644 ], [ 55.9601026, 58.0129271 ], [ 55.9594984, 58.013352 ], [ 55.9592984, 58.0134927 ], [ 55.9597094, 58.0136567 ], [ 55.9592367, 58.0139891 ], [ 55.9591035, 58.0142729 ], [ 55.9597543, 58.0145203 ], [ 55.9602994, 58.0147274 ], [ 55.9604395, 58.0148073 ] ] ] ] } },
{ "type": "Feature", "properties": { "full_id": "w52016358", "osm_id": "52016358", "osm_type": "way", "boundary": "protected_area", "protection_title": "Охраняемый ландшафт", "protect_class": "1b", "official_name": "Особо охраняемая природная территория местного значения - охраняемый ландшафт «Южный лес»", "name": "Охраняемый ландшафт «Южный лес»", "leisure": "nature_reserve", "ROW": 1 }, "geometry": { "type": "MultiPolygon", "coordinates": [ [ [ [ 56.3277006, 57.9866931 ], [ 56.3292542, 57.9858058 ], [ 56.3298636, 57.9852734 ], [ 56.3296232, 57.9839948 ], [ 56.3300009, 57.9837354 ], [ 56.330576, 57.9838128 ], [ 56.3309193, 57.9834943 ], [ 56.3312111, 57.9826661 ], [ 56.3304215, 57.9826297 ], [ 56.330576, 57.9824477 ], [ 56.3312369, 57.9822429 ], [ 56.3316918, 57.9814602 ], [ 56.3319664, 57.9811962 ], [ 56.3322239, 57.9811962 ], [ 56.3325844, 57.9815603 ], [ 56.3335972, 57.9815148 ], [ 56.3341293, 57.9813419 ], [ 56.3346443, 57.9814602 ], [ 56.3350563, 57.9816149 ], [ 56.3355026, 57.9813692 ], [ 56.3354426, 57.9809141 ], [ 56.3351421, 57.9807184 ], [ 56.3353052, 57.9804044 ], [ 56.3360777, 57.9798537 ], [ 56.3391676, 57.9791984 ], [ 56.3393393, 57.9789436 ], [ 56.3361206, 57.9749111 ], [ 56.3360863, 57.9754163 ], [ 56.3351078, 57.9754846 ], [ 56.3351851, 57.9746471 ], [ 56.3340349, 57.9747336 ], [ 56.3337002, 57.974902 ], [ 56.3325329, 57.9747882 ], [ 56.3313828, 57.9748838 ], [ 56.3307991, 57.9753344 ], [ 56.3302069, 57.9753981 ], [ 56.3296661, 57.9756303 ], [ 56.3287993, 57.975257 ], [ 56.3268938, 57.9756712 ], [ 56.3262329, 57.9762083 ], [ 56.3267822, 57.9765405 ], [ 56.3260613, 57.9768045 ], [ 56.325263, 57.9761946 ], [ 56.3253231, 57.9757577 ], [ 56.3232117, 57.9757258 ], [ 56.3227053, 57.9759671 ], [ 56.3202162, 57.9762356 ], [ 56.3200359, 57.9765314 ], [ 56.3183279, 57.9766771 ], [ 56.3170233, 57.976932 ], [ 56.3168966, 57.9772178 ], [ 56.3165856, 57.9779196 ], [ 56.316843, 57.9787023 ], [ 56.3164997, 57.9797855 ], [ 56.3154955, 57.9798219 ], [ 56.3154955, 57.9799903 ], [ 56.3148933, 57.9802196 ], [ 56.3145289, 57.980503 ], [ 56.3145546, 57.9808677 ], [ 56.3150461, 57.9810032 ], [ 56.3153021, 57.9813092 ], [ 56.3145248, 57.9818747 ], [ 56.3142532, 57.9817072 ], [ 56.3134785, 57.9818629 ], [ 56.3131698, 57.981993 ], [ 56.3126631, 57.9819926 ], [ 56.3122509, 57.9821062 ], [ 56.3122046, 57.982246 ], [ 56.3128691, 57.9824431 ], [ 56.3127575, 57.9826388 ], [ 56.3124313, 57.9825205 ], [ 56.3121054, 57.9828442 ], [ 56.3121663, 57.9830967 ], [ 56.312511, 57.9833059 ], [ 56.3121382, 57.9835126 ], [ 56.3122333, 57.9837258 ], [ 56.3124085, 57.9839146 ], [ 56.3118134, 57.9842223 ], [ 56.3118649, 57.9844771 ], [ 56.3113155, 57.984418 ], [ 56.3121481, 57.9850141 ], [ 56.309453, 57.985733 ], [ 56.3094171, 57.9860571 ], [ 56.3110433, 57.9862909 ], [ 56.3126948, 57.985787 ], [ 56.3126445, 57.9867956 ], [ 56.3126336, 57.9876158 ], [ 56.3129965, 57.9881824 ], [ 56.3135214, 57.9886086 ], [ 56.3139849, 57.9885267 ], [ 56.3142252, 57.9889908 ], [ 56.3140965, 57.9894457 ], [ 56.3146114, 57.9896641 ], [ 56.314929, 57.9900781 ], [ 56.3144827, 57.9901646 ], [ 56.3146114, 57.9905331 ], [ 56.3142939, 57.9923574 ], [ 56.3150663, 57.9931308 ], [ 56.3152208, 57.9938132 ], [ 56.3157959, 57.9944318 ], [ 56.316577, 57.9951051 ], [ 56.3172808, 57.9954235 ], [ 56.317564, 57.9958738 ], [ 56.3181391, 57.9963833 ], [ 56.3191519, 57.9958375 ], [ 56.3193952, 57.9958242 ], [ 56.3197817, 57.9945007 ], [ 56.3198432, 57.9943558 ], [ 56.320168, 57.9935909 ], [ 56.3204576, 57.992755 ], [ 56.319535, 57.9923569 ], [ 56.3204576, 57.9923281 ], [ 56.3207688, 57.9917598 ], [ 56.3215435, 57.9912493 ], [ 56.3235905, 57.9899002 ], [ 56.3240947, 57.9897068 ], [ 56.3260474, 57.988467 ], [ 56.3278102, 57.9882224 ], [ 56.3277006, 57.9866931 ] ] ] ] } },
{ "type": "Feature", "properties": { "full_id": "w671020804", "osm_id": "671020804", "osm_type": "way", "boundary": null, "protection_title": null, "protect_class": null, "official_name": null, "name": "СНТ «Мечта»", "leisure": null, "ROW": 1 }, "geometry": { "type": "MultiPolygon", "coordinates": [ [ [ [ 56.4152643, 57.9620023 ], [ 56.415149, 57.9618133 ], [ 56.4150218, 57.9614535 ], [ 56.4145642, 57.9596163 ], [ 56.4142746, 57.9596305 ], [ 56.4142156, 57.9594512 ], [ 56.4128002, 57.9595755 ], [ 56.4125633, 57.9587255 ], [ 56.4129638, 57.9586604 ], [ 56.4126633, 57.9577982 ], [ 56.4142942, 57.9576473 ], [ 56.4147179, 57.9576615 ], [ 56.4172357, 57.957533 ], [ 56.4184159, 57.9577863 ], [ 56.4201861, 57.9580937 ], [ 56.4200413, 57.9592093 ], [ 56.4220722, 57.960875 ], [ 56.4196792, 57.961303 ], [ 56.4198395, 57.9617979 ], [ 56.4155693, 57.9621319 ], [ 56.4152643, 57.9620023 ] ] ] ] } },
{ "type": "Feature", "properties": { "full_id": "w671315357", "osm_id": "671315357", "osm_type": "way", "boundary": "protected_area", "protection_title": "Охраняемый ландшафт", "protect_class": "1b", "official_name": "Особо охраняемая природная территория местного значения - охраняемый ландшафт «Глушихинский ельник»", "name": "Охраняемый ландшафт «Глушихинский ельник»", "leisure": "nature_reserve", "ROW": 1 }, "geometry": { "type": "MultiPolygon", "coordinates": [ [ [ [ 56.5383289, 58.023485 ], [ 56.5377495, 58.0211781 ], [ 56.5019461, 58.0234813 ], [ 56.4997909, 58.0145295 ], [ 56.4996622, 58.0139839 ], [ 56.481745, 58.0150637 ], [ 56.4791057, 58.0055605 ], [ 56.5335867, 58.0020131 ], [ 56.5339327, 58.0019926 ], [ 56.5679619, 57.9999778 ], [ 56.5700963, 58.0102582 ], [ 56.5685713, 58.0103089 ], [ 56.5674114, 58.0101929 ], [ 56.5656998, 58.0105939 ], [ 56.5615868, 58.0165671 ], [ 56.572374, 58.0186358 ], [ 56.5726612, 58.0216668 ], [ 56.5383289, 58.023485 ] ] ] ] } },
{ "type": "Feature", "properties": { "full_id": "w706061846", "osm_id": "706061846", "osm_type": "way", "boundary": "protected_area", "protection_title": "Охраняемый ландшафт", "protect_class": "1b", "official_name": "Особо охраняемая природная территория местного значения - охраняемый ландшафт «Язовской»", "name": "Охраняемый ландшафт «Язовской»", "leisure": "nature_reserve", "ROW": 1 }, "geometry": { "type": "MultiPolygon", "coordinates": [ [ [ [ 56.3828981, 58.0806517 ], [ 56.4090335, 58.0785343 ], [ 56.41384, 58.0767927 ], [ 56.4125058, 58.075266 ], [ 56.4128429, 58.0749776 ], [ 56.4135196, 58.0745342 ], [ 56.4141473, 58.0741654 ], [ 56.4138308, 58.0737512 ], [ 56.4138192, 58.0733582 ], [ 56.4138093, 58.0730221 ], [ 56.4119625, 58.0716694 ], [ 56.4139795, 58.0710283 ], [ 56.4107823, 58.065155 ], [ 56.4062333, 58.0653707 ], [ 56.4055359, 58.060592 ], [ 56.4010298, 58.0628168 ], [ 56.3995224, 58.0620549 ], [ 56.3975322, 58.0631517 ], [ 56.3953435, 58.0624309 ], [ 56.396352, 58.0608815 ], [ 56.3981223, 58.0607225 ], [ 56.3987017, 58.0610517 ], [ 56.4023173, 58.0592922 ], [ 56.4002573, 58.0580889 ], [ 56.3945603, 58.0581911 ], [ 56.3865352, 58.0571296 ], [ 56.3853283, 58.0572609 ], [ 56.3847875, 58.0580919 ], [ 56.3851909, 58.0586822 ], [ 56.3874483, 58.0588275 ], [ 56.3877058, 58.0592362 ], [ 56.3867616, 58.0599718 ], [ 56.387577, 58.0608572 ], [ 56.3886928, 58.0624373 ], [ 56.3898945, 58.0630276 ], [ 56.3897013, 58.0635667 ], [ 56.3908129, 58.0641626 ], [ 56.3908129, 58.064376 ], [ 56.390109, 58.0643578 ], [ 56.3896112, 58.0649027 ], [ 56.3871479, 58.0637767 ], [ 56.3863153, 58.0639946 ], [ 56.3838005, 58.0622875 ], [ 56.3836031, 58.0629504 ], [ 56.384058, 58.0630866 ], [ 56.3845129, 58.0637994 ], [ 56.3860321, 58.0647528 ], [ 56.3853197, 58.0651614 ], [ 56.3858604, 58.0654565 ], [ 56.3851051, 58.065738 ], [ 56.3839035, 58.0653657 ], [ 56.3813801, 58.0663555 ], [ 56.3791431, 58.0676495 ], [ 56.3782644, 58.0681578 ], [ 56.3771271, 58.0700332 ], [ 56.3786507, 58.0705007 ], [ 56.3787077, 58.0710666 ], [ 56.3790893, 58.0719077 ], [ 56.3787889, 58.0732014 ], [ 56.3775766, 58.0744269 ], [ 56.3844859, 58.0774508 ], [ 56.383692, 58.0784266 ], [ 56.3823705, 58.0790384 ], [ 56.3822973, 58.0799128 ], [ 56.3828981, 58.0806517 ] ] ] ] } },
{ "type": "Feature", "properties": { "full_id": "w724345535", "osm_id": "724345535", "osm_type": "way", "boundary": "protected_area", "protection_title": "Охраняемый ландшафт", "protect_class": "1b", "official_name": "Особо охраняемая природная территория местного значения - охраняемый ландшафт «Сарматский смешанный лес»", "name": "Охраняемый ландшафт «Сарматский смешанный лес»", "leisure": "nature_reserve", "ROW": 1 }, "geometry": { "type": "MultiPolygon", "coordinates": [ [ [ [ 56.4083951, 58.0001988 ], [ 56.4475769, 57.9906177 ], [ 56.4465415, 57.9904016 ], [ 56.4454526, 57.9904101 ], [ 56.4454418, 57.9898044 ], [ 56.4467508, 57.9898101 ], [ 56.4467347, 57.9903987 ], [ 56.4472926, 57.9905039 ], [ 56.4479041, 57.9905494 ], [ 56.4502859, 57.990012 ], [ 56.4507687, 57.9905523 ], [ 56.454556, 57.9896367 ], [ 56.4595234, 57.9952607 ], [ 56.4594105, 57.995288 ], [ 56.4583946, 57.9955338 ], [ 56.4458227, 57.9985756 ], [ 56.4899416, 57.9951562 ], [ 56.4947594, 57.9948118 ], [ 56.5315472, 57.9926221 ], [ 56.5263676, 57.9780541 ], [ 56.5277032, 57.9742991 ], [ 56.5296546, 57.9710136 ], [ 56.5253047, 57.9714174 ], [ 56.452989, 57.977684 ], [ 56.4049673, 57.9818616 ], [ 56.4061153, 57.9916584 ], [ 56.4083951, 58.0001988 ] ] ] ] } },
{ "type": "Feature", "properties": { "full_id": "w805109762", "osm_id": "805109762", "osm_type": "way", "boundary": "protected_area", "protection_title": "Охраняемый ландшафт", "protect_class": "5", "official_name": "Особо охраняемая природная территория местного значения - охраняемый ландшафт «Лёвшинский»", "name": "Охраняемый ландшафт «Лёвшинский»", "leisure": "nature_reserve", "ROW": 1 }, "geometry": { "type": "MultiPolygon", "coordinates": [ [ [ [ 56.4363034, 58.1244499 ], [ 56.4869217, 58.1219051 ], [ 56.4803434, 58.0933817 ], [ 56.4633557, 58.0946423 ], [ 56.463332, 58.0955454 ], [ 56.4631885, 58.1010141 ], [ 56.4631521, 58.1024001 ], [ 56.4507992, 58.102354 ], [ 56.4507119, 58.0971943 ], [ 56.4456796, 58.0955186 ], [ 56.4456475, 58.0950842 ], [ 56.4301172, 58.0962924 ], [ 56.4341704, 58.1148047 ], [ 56.4342839, 58.1152604 ], [ 56.4363034, 58.1244499 ] ] ] ] } },
{ "type": "Feature", "properties": { "full_id": "w888977887", "osm_id": "888977887", "osm_type": "way", "boundary": "protected_area", "protection_title": "Охраняемый ландшафт", "protect_class": "1b", "official_name": "Особо охраняемая природная территория местного значения - охраняемый ландшафт «Красные горки»", "name": "Охраняемый ландшафт «Красные горки»", "leisure": "nature_reserve", "ROW": 1 }, "geometry": { "type": "MultiPolygon", "coordinates": [ [ [ [ 55.980041, 58.0256177 ], [ 55.9821975, 58.0272766 ], [ 55.9807384, 58.0279299 ], [ 55.9807062, 58.0288389 ], [ 55.9824711, 58.0287508 ], [ 55.9833669, 58.0278618 ], [ 55.9949005, 58.0316337 ], [ 55.9919286, 58.0339058 ], [ 55.9957051, 58.0352349 ], [ 55.9987306, 58.0328493 ], [ 56.0018205, 58.0338263 ], [ 56.0017347, 58.0349623 ], [ 56.0004473, 58.0358995 ], [ 56.00034, 58.0364958 ], [ 56.0063668, 58.0379042 ], [ 55.9955128, 58.0376077 ], [ 55.9916718, 58.0375056 ], [ 55.9865866, 58.0373706 ], [ 55.9863719, 58.0373649 ], [ 55.9814519, 58.0372342 ], [ 55.9787536, 58.0290377 ], [ 55.9704924, 58.0297421 ], [ 55.9677029, 58.0253847 ], [ 55.9731746, 58.0219417 ], [ 55.9741723, 58.0218394 ], [ 55.974859, 58.0214644 ], [ 55.9797406, 58.0237712 ], [ 55.9784853, 58.0239132 ], [ 55.978775, 58.0243394 ], [ 55.9801483, 58.0250382 ], [ 55.980041, 58.0256177 ] ] ] ] } },
{ "type": "Feature", "properties": { "full_id": "w889329202", "osm_id": "889329202", "osm_type": "way", "boundary": "protected_area", "protection_title": "Охраняемый ландшафт", "protect_class": "1b", "official_name": "Особо охраняемая природная территория местного значения - охраняемый ландшафт «Новокрымский пруд»", "name": "Охраняемый ландшафт «Новокрымский пруд»", "leisure": "nature_reserve", "ROW": 1 }, "geometry": { "type": "MultiPolygon", "coordinates": [ [ [ [ 55.835108, 58.0284759 ], [ 55.8388184, 58.028033 ], [ 55.8385412, 58.0273552 ], [ 55.8347968, 58.0277833 ], [ 55.835108, 58.0284759 ] ] ] ] } },
{ "type": "Feature", "properties": { "full_id": "w889429553", "osm_id": "889429553", "osm_type": "way", "boundary": "protected_area", "protection_title": "Ботанический памятник природы", "protect_class": "1b", "official_name": "Особо охраняемая природная территория регионального значения - ботанический памятник природы «Липогорский»", "name": "Ботанический памятник природы «Липогорский»", "leisure": "nature_reserve", "ROW": 1 }, "geometry": { "type": "MultiPolygon", "coordinates": [ [ [ [ 56.2865221, 57.9497716 ], [ 56.2871824, 57.9508683 ], [ 56.2873514, 57.9516582 ], [ 56.2883716, 57.9518227 ], [ 56.2888322, 57.9520393 ], [ 56.2893769, 57.9520142 ], [ 56.289545, 57.9520309 ], [ 56.2897132, 57.952095 ], [ 56.2900376, 57.9520123 ], [ 56.2902176, 57.9517883 ], [ 56.2904454, 57.9515679 ], [ 56.2908713, 57.951327 ], [ 56.2913809, 57.9510087 ], [ 56.292927, 57.9516368 ], [ 56.2930882, 57.9517614 ], [ 56.2920653, 57.9530671 ], [ 56.2920688, 57.9533719 ], [ 56.2917291, 57.953686 ], [ 56.2917291, 57.9538682 ], [ 56.2925697, 57.9564274 ], [ 56.2940409, 57.9562323 ], [ 56.2951373, 57.9560464 ], [ 56.29657, 57.9557082 ], [ 56.2975123, 57.9555298 ], [ 56.3005076, 57.9549086 ], [ 56.3011806, 57.9547485 ], [ 56.3003391, 57.9528608 ], [ 56.3000028, 57.9528905 ], [ 56.2998417, 57.9528143 ], [ 56.2993267, 57.9528813 ], [ 56.2986682, 57.9515969 ], [ 56.2969728, 57.9511675 ], [ 56.2964754, 57.9509036 ], [ 56.2966576, 57.9501136 ], [ 56.2968292, 57.9499835 ], [ 56.2969903, 57.949647 ], [ 56.2970008, 57.949489 ], [ 56.2924331, 57.9492065 ], [ 56.2890494, 57.9494258 ], [ 56.2865221, 57.9497716 ] ] ] ] } },
{ "type": "Feature", "properties": { "full_id": "w1011746896", "osm_id": "1011746896", "osm_type": "way", "boundary": "protected_area", "protection_title": "Охраняемый ландшафт", "protect_class": "1b", "official_name": "Особо охраняемая природная территория местного значения - охраняемый ландшафт «Липовая гора»", "name": "Охраняемый ландшафт «Липовая гора»", "leisure": "nature_reserve", "ROW": 1 }, "geometry": { "type": "MultiPolygon", "coordinates": [ [ [ [ 56.2897297, 57.9617827 ], [ 56.2919096, 57.968239 ], [ 56.2993498, 57.9674885 ], [ 56.2994784, 57.9677273 ], [ 56.336065, 57.9638787 ], [ 56.3365245, 57.9650291 ], [ 56.3367374, 57.9655621 ], [ 56.3381409, 57.9690758 ], [ 56.3395143, 57.9692938 ], [ 56.3390862, 57.9703715 ], [ 56.3386746, 57.9704091 ], [ 56.3400924, 57.9739509 ], [ 56.3445343, 57.9733752 ], [ 56.3450918, 57.9731743 ], [ 56.3540686, 57.9631173 ], [ 56.3548977, 57.9623211 ], [ 56.3549005, 57.9623194 ], [ 56.3574026, 57.9608796 ], [ 56.3583827, 57.9604302 ], [ 56.365011, 57.9581352 ], [ 56.359915, 57.953888 ], [ 56.3471644, 57.9547678 ], [ 56.3455063, 57.9505734 ], [ 56.3277813, 57.9531902 ], [ 56.3146019, 57.9500045 ], [ 56.301594, 57.9535695 ], [ 56.3019085, 57.9553746 ], [ 56.2968483, 57.9559813 ], [ 56.2921597, 57.9583949 ], [ 56.2900727, 57.9607969 ], [ 56.2897297, 57.9617827 ] ] ] ] } },
{ "type": "Feature", "properties": { "full_id": "w1443835038", "osm_id": "1443835038", "osm_type": "way", "boundary": "protected_area", "protection_title": null, "protect_class": null, "official_name": null, "name": "Территория артезианского водозабора", "leisure": null, "ROW": 1 }, "geometry": { "type": "MultiPolygon", "coordinates": [ [ [ [ 56.1235073, 57.9798 ], [ 56.1240681, 57.9797497 ], [ 56.1251743, 57.9796478 ], [ 56.125108, 57.9794423 ], [ 56.1248892, 57.9787635 ], [ 56.1232234, 57.9789153 ], [ 56.1234102, 57.9794874 ], [ 56.1235073, 57.9798 ] ] ] ] } },
{ "type": "Feature", "properties": { "full_id": "w1443840345", "osm_id": "1443840345", "osm_type": "way", "boundary": "protected_area", "protection_title": null, "protect_class": null, "official_name": null, "name": "Территория артезианского водозабора", "leisure": null, "ROW": 1 }, "geometry": { "type": "MultiPolygon", "coordinates": [ [ [ [ 56.1225988, 57.9772736 ], [ 56.1224714, 57.9773883 ], [ 56.1224143, 57.9775201 ], [ 56.1224354, 57.977655 ], [ 56.1225327, 57.97778 ], [ 56.122697, 57.9778835 ], [ 56.1229129, 57.9779556 ], [ 56.1231658, 57.9779898 ], [ 56.1234263, 57.9779807 ], [ 56.1236686, 57.9779292 ], [ 56.1238687, 57.9778402 ], [ 56.1240067, 57.9777227 ], [ 56.1240699, 57.9775828 ], [ 56.1240446, 57.9774394 ], [ 56.1239334, 57.9773081 ], [ 56.1237482, 57.9772029 ], [ 56.1235089, 57.9771349 ], [ 56.1232618, 57.9771117 ], [ 56.1230129, 57.9771287 ], [ 56.1227849, 57.9771844 ], [ 56.1225988, 57.9772736 ] ] ] ] } },
{ "type": "Feature", "properties": { "full_id": "w1443845819", "osm_id": "1443845819", "osm_type": "way", "boundary": "protected_area", "protection_title": null, "protect_class": null, "official_name": null, "name": "Территория артезианского водозабора", "leisure": null, "ROW": 1 }, "geometry": { "type": "MultiPolygon", "coordinates": [ [ [ [ 56.1213899, 57.9758344 ], [ 56.1215389, 57.9758315 ], [ 56.1215542, 57.9759446 ], [ 56.1215776, 57.9760619 ], [ 56.1216749, 57.9761869 ], [ 56.1218392, 57.9762904 ], [ 56.1220551, 57.9763625 ], [ 56.122308, 57.9763967 ], [ 56.1225685, 57.9763876 ], [ 56.1228108, 57.9763361 ], [ 56.1230109, 57.9762471 ], [ 56.1231489, 57.9761296 ], [ 56.1232121, 57.9759897 ], [ 56.1231868, 57.9758463 ], [ 56.1231569, 57.9756593 ], [ 56.1230684, 57.9756685 ], [ 56.1230143, 57.9749048 ], [ 56.121324, 57.974939 ], [ 56.1213899, 57.9758344 ] ] ] ] } },
{ "type": "Feature", "properties": { "full_id": "w1445334253", "osm_id": "1445334253", "osm_type": "way", "boundary": "protected_area", "protection_title": null, "protect_class": null, "official_name": null, "name": "Особо охраняемая природная территория «Черняевский лес»»", "leisure": "nature_reserve", "ROW": 1 }, "geometry": { "type": "MultiPolygon", "coordinates": [ [ [ [ 56.1719764, 57.9950018 ], [ 56.1712339, 57.99512 ], [ 56.1700855, 57.9952734 ], [ 56.1689161, 57.9953893 ], [ 56.1679438, 57.9954163 ], [ 56.1666415, 57.9953822 ], [ 56.1655417, 57.9952986 ], [ 56.1634853, 57.9951009 ], [ 56.1544035, 57.99312 ], [ 56.1545054, 57.9930312 ], [ 56.1543257, 57.9927014 ], [ 56.1542124, 57.99264 ], [ 56.1540991, 57.992582 ], [ 56.1538952, 57.9925208 ], [ 56.1537209, 57.9924888 ], [ 56.1532059, 57.9924832 ], [ 56.1525555, 57.9924035 ], [ 56.1521062, 57.9924213 ], [ 56.1518366, 57.9924035 ], [ 56.1515617, 57.9923381 ], [ 56.1513673, 57.9923062 ], [ 56.1511098, 57.9922877 ], [ 56.1506417, 57.992213 ], [ 56.1499014, 57.9921597 ], [ 56.1488892, 57.9921522 ], [ 56.1489258, 57.9915792 ], [ 56.148171, 57.9915645 ], [ 56.1480545, 57.9907808 ], [ 56.1460513, 57.9907181 ], [ 56.1459665, 57.9923564 ], [ 56.138757, 57.9921554 ], [ 56.1380516, 57.9918462 ], [ 56.1370766, 57.9912391 ], [ 56.1339336, 57.9862202 ], [ 56.1338644, 57.9862284 ], [ 56.133674, 57.9859348 ], [ 56.1351237, 57.9858602 ], [ 56.1354657, 57.9858296 ], [ 56.1353933, 57.9854201 ], [ 56.1334302, 57.9855272 ], [ 56.1330672, 57.9846051 ], [ 56.1332171, 57.9845848 ], [ 56.1332279, 57.9846068 ], [ 56.1333807, 57.9845883 ], [ 56.1333727, 57.9845684 ], [ 56.1352288, 57.9843629 ], [ 56.1351307, 57.9841062 ], [ 56.1353023, 57.9840166 ], [ 56.1352876, 57.9839626 ], [ 56.135124, 57.9839718 ], [ 56.135002, 57.9836582 ], [ 56.1348062, 57.9836788 ], [ 56.134703, 57.9834029 ], [ 56.1339291, 57.983484 ], [ 56.1338272, 57.9831996 ], [ 56.1323574, 57.9833695 ], [ 56.1314313, 57.9806986 ], [ 56.1331841, 57.9805481 ], [ 56.1330877, 57.9802515 ], [ 56.1327441, 57.9802801 ], [ 56.1322805, 57.9789139 ], [ 56.1316836, 57.97897 ], [ 56.1316501, 57.9788925 ], [ 56.1316876, 57.9787979 ], [ 56.13163, 57.9785186 ], [ 56.131807, 57.9785044 ], [ 56.1317547, 57.9783209 ], [ 56.1321155, 57.9783202 ], [ 56.1321651, 57.9781124 ], [ 56.1319384, 57.9774418 ], [ 56.1318387, 57.9774534 ], [ 56.1317089, 57.9771471 ], [ 56.1314568, 57.9771641 ], [ 56.1313146, 57.9768008 ], [ 56.1323685, 57.9767334 ], [ 56.1336264, 57.976598 ], [ 56.1333531, 57.9752679 ], [ 56.1330014, 57.9741961 ], [ 56.1329207, 57.9733669 ], [ 56.1306057, 57.973481 ], [ 56.1304735, 57.973092 ], [ 56.1303376, 57.9721385 ], [ 56.1305, 57.9721538 ], [ 56.1303524, 57.9714143 ], [ 56.1302537, 57.970919 ], [ 56.129958, 57.9702299 ], [ 56.1298895, 57.9702303 ], [ 56.1298595, 57.9697339 ], [ 56.1322038, 57.96972 ], [ 56.1323604, 57.968716 ], [ 56.1333368, 57.9679931 ], [ 56.1340866, 57.9678432 ], [ 56.1339954, 57.9674314 ], [ 56.1342596, 57.9674257 ], [ 56.1345051, 57.9667556 ], [ 56.1338426, 57.9667136 ], [ 56.1339767, 57.9663914 ], [ 56.1349503, 57.9665514 ], [ 56.1348926, 57.9666183 ], [ 56.1356919, 57.9666887 ], [ 56.1370585, 57.9668509 ], [ 56.1372436, 57.9667784 ], [ 56.1375963, 57.9668737 ], [ 56.1386853, 57.9669164 ], [ 56.138759, 57.9670017 ], [ 56.1388087, 57.9670067 ], [ 56.1386947, 57.9670914 ], [ 56.1391147, 57.9671319 ], [ 56.1393387, 57.9671753 ], [ 56.1394325, 57.967112 ], [ 56.1394781, 57.9671177 ], [ 56.1394956, 57.9670992 ], [ 56.139686, 57.9671355 ], [ 56.1402747, 57.9671796 ], [ 56.1399945, 57.9673389 ], [ 56.1401675, 57.9674214 ], [ 56.1402533, 57.9673724 ], [ 56.1403646, 57.9674271 ], [ 56.1405483, 57.9673162 ], [ 56.1405953, 57.9673389 ], [ 56.1404427, 57.967412 ], [ 56.1403203, 57.9674705 ], [ 56.140067, 57.9674383 ], [ 56.1397559, 57.9674682 ], [ 56.1394877, 57.9675784 ], [ 56.1394461, 57.9675841 ], [ 56.1389529, 57.9678189 ], [ 56.1386834, 57.9679818 ], [ 56.1381228, 57.9682385 ], [ 56.1381483, 57.9683901 ], [ 56.1383897, 57.9684569 ], [ 56.1390271, 57.9688797 ], [ 56.1395216, 57.9691628 ], [ 56.1407273, 57.9699546 ], [ 56.1422254, 57.9693353 ], [ 56.143203, 57.9688898 ], [ 56.1432929, 57.9688447 ], [ 56.1442298, 57.9696345 ], [ 56.1440527, 57.9697205 ], [ 56.1435941, 57.9694012 ], [ 56.1433916, 57.9694808 ], [ 56.1450322, 57.9706238 ], [ 56.1449008, 57.9706778 ], [ 56.147153, 57.9722468 ], [ 56.1473568, 57.9721658 ], [ 56.1478133, 57.9724845 ], [ 56.1481714, 57.9728088 ], [ 56.1484758, 57.9729368 ], [ 56.1488272, 57.9732192 ], [ 56.1491155, 57.9735435 ], [ 56.1492054, 57.9737526 ], [ 56.1491724, 57.9740566 ], [ 56.1495747, 57.9743645 ], [ 56.1496833, 57.9746767 ], [ 56.1494621, 57.9746938 ], [ 56.1494272, 57.9750821 ], [ 56.1495667, 57.9750856 ], [ 56.1496512, 57.9752905 ], [ 56.1495506, 57.9753381 ], [ 56.1496458, 57.9753936 ], [ 56.1493607, 57.9754592 ], [ 56.1488037, 57.9755875 ], [ 56.1486833, 57.9750927 ], [ 56.1460963, 57.9752123 ], [ 56.1445214, 57.9752851 ], [ 56.1447817, 57.9768721 ], [ 56.148129, 57.9768096 ], [ 56.1485351, 57.9768021 ], [ 56.1485786, 57.9774926 ], [ 56.1507241, 57.9769925 ], [ 56.1505942, 57.9761099 ], [ 56.1508611, 57.9761156 ], [ 56.1521842, 57.9769404 ], [ 56.1526762, 57.9769874 ], [ 56.1528367, 57.9769283 ], [ 56.1542234, 57.9777731 ], [ 56.1545909, 57.9776871 ], [ 56.1547765, 57.9765678 ], [ 56.1541288, 57.9764427 ], [ 56.1555063, 57.9759253 ], [ 56.1589801, 57.9770225 ], [ 56.1588017, 57.9773752 ], [ 56.1599842, 57.9776649 ], [ 56.1612196, 57.9766075 ], [ 56.1610546, 57.976547 ], [ 56.1613818, 57.9762889 ], [ 56.1614515, 57.9763124 ], [ 56.1621353, 57.9757505 ], [ 56.1631927, 57.9761609 ], [ 56.1639567, 57.9765128 ], [ 56.1641689, 57.9763621 ], [ 56.1648824, 57.9766484 ], [ 56.1662731, 57.9774492 ], [ 56.1691109, 57.9787 ], [ 56.1772046, 57.9812573 ], [ 56.1793341, 57.9824565 ], [ 56.1844657, 57.985695 ], [ 56.1875704, 57.9885957 ], [ 56.1879043, 57.9890947 ], [ 56.1884126, 57.9893435 ], [ 56.1842814, 57.9908988 ], [ 56.1821193, 57.9891842 ], [ 56.178326, 57.9905309 ], [ 56.178123, 57.9903708 ], [ 56.1774163, 57.9905805 ], [ 56.1775182, 57.9907234 ], [ 56.1777556, 57.9906651 ], [ 56.1777824, 57.9907227 ], [ 56.1717294, 57.9928755 ], [ 56.1717334, 57.9939345 ], [ 56.1723254, 57.994573 ], [ 56.1720018, 57.9947183 ], [ 56.1719764, 57.9950018 ] ] ] ] } }
]
}
