{
"type": "FeatureCollection",
"name": "boundary_territory",
"crs": { "type": "name", "properties": { "name": "urn:ogc:def:crs:OGC:1.3:CRS84" } },
"features": [
{ "type": "Feature", "properties": { "full_id": "r1084793", "osm_id": "1084793", "osm_type": "relation", "admin_leve": "6", "border_typ": null, "contact_we": null, "name_zh-Ha": null, "name_zh-_1": null, "name_sk": null, "ref": "59", "name_de": "Stadtkreis Perm", "name_ar": "دائرة المدينة بيرم", "name_tt": null, "addr_distr": null, "oktmo_user": null, "start_date": null, "name_lt": null, "official_n": null, "name_udm": null, "name_ca": "Districte urbà de Perm", "name_uk": null, "fias_code": null, "name_hu": null, "website": null, "name_ru": "Пермский городской округ", "old_name": null, "name_zh": null, "name_ja": "ペルミ管区", "name_en": "Perm District", "wikipedia": null, "wikidata": "Q78223868", "type": "boundary", "population": "2024-01-01", "populati_1": "1026912", "official_s": "ru:городской округ", "name": "Пермский городской округ", "boundary": "administrative", "alt_name": null, "addr_regio": "Пермский край", "addr_count": "RU" }, "geometry": { "type": "MultiPolygon", "coordinates": [ [ [ [ 55.994128552097465, 57.899535239739464 ], [ 56.007372727043787, 57.912875211563978 ], [ 56.002248428492159, 57.916090561415665 ], [ 56.000015900630686, 57.914870337808622 ], [ 55.996598353451425, 57.9164729469029 ], [ 55.997459818006682, 57.916863921113432 ], [ 55.997229285238376, 57.917179704868914 ], [ 55.995000801811429, 57.918290296432588 ], [ 55.992060497906913, 57.91966291437565 ], [ 55.987235487510645, 57.922208240731791 ], [ 55.988400284655768, 57.925713407547491 ], [ 55.983611674170284, 57.92798127434245 ], [ 55.972610812244177, 57.925575956471079 ], [ 55.959668621742864, 57.923307937742763 ], [ 55.94789122838668, 57.932310440455012 ], [ 55.93934938265582, 57.931623306087019 ], [ 55.93210175597509, 57.93210430152569 ], [ 55.929254474064798, 57.933272406473343 ], [ 55.927054301679583, 57.936845197415742 ], [ 55.929642739779837, 57.942821956273079 ], [ 55.936631522650544, 57.950652064681634 ], [ 55.947373540766627, 57.959922351509107 ], [ 55.955785964592472, 57.971798549896818 ], [ 55.966980959376102, 57.984048191804121 ], [ 55.949399802466985, 57.991789984091 ], [ 55.941375644356164, 57.986816219439199 ], [ 55.939110761018455, 57.984346231390468 ], [ 55.936651744823209, 57.979851788518616 ], [ 55.93477512720051, 57.973126225662824 ], [ 55.928368742902364, 57.963730629023829 ], [ 55.922658001343649, 57.958529815533431 ], [ 55.916360816777875, 57.954411969844152 ], [ 55.903677470086599, 57.944874090715444 ], [ 55.901477297701376, 57.943706363332133 ], [ 55.897691706979735, 57.942487078007652 ], [ 55.89432673744939, 57.94174861745477 ], [ 55.885202493145961, 57.940872749190461 ], [ 55.874169275743611, 57.940220127565176 ], [ 55.866399917008287, 57.940301705917406 ], [ 55.86469316563592, 57.940299559121037 ], [ 55.860640642235204, 57.940919977926484 ], [ 55.8412528, 57.9463946 ], [ 55.8337211, 57.9491504 ], [ 55.8303523, 57.9508128 ], [ 55.8274126, 57.9528054 ], [ 55.8259023, 57.9541871 ], [ 55.8253108, 57.9547283 ], [ 55.8209538, 57.9587141 ], [ 55.8121455, 57.9670917 ], [ 55.8095138, 57.9691224 ], [ 55.8085835, 57.9698402 ], [ 55.804646, 57.9731631 ], [ 55.8043977, 57.9734436 ], [ 55.8024144, 57.9756836 ], [ 55.80132, 57.9779592 ], [ 55.800333, 57.9814179 ], [ 55.799303, 57.9873561 ], [ 55.7989168, 57.9916555 ], [ 55.8016204, 58.0009124 ], [ 55.8038091, 58.0052329 ], [ 55.8121347, 58.0167594 ], [ 55.81604, 58.0234871 ], [ 55.8182287, 58.0284185 ], [ 55.8186626, 58.0306258 ], [ 55.818529, 58.03369 ], [ 55.8163833, 58.0388244 ], [ 55.8098612, 58.0462299 ], [ 55.80507918220642, 58.050221828678417 ], [ 55.79630547543367, 58.054864359620495 ], [ 55.791396377596534, 58.057627484505417 ], [ 55.77781802187679, 58.061827025033445 ], [ 55.768626519543432, 58.064479112033347 ], [ 55.757763834967641, 58.066689034097578 ], [ 55.744603274808505, 58.068125410104564 ], [ 55.724131292338747, 58.071218946807129 ], [ 55.709926243278098, 58.071771335871659 ], [ 55.704625569067524, 58.071410548693535 ], [ 55.705044168041539, 58.077887762920376 ], [ 55.705120001189016, 58.079416265400205 ], [ 55.705368733912749, 58.080089876353036 ], [ 55.705957199137117, 58.08072177602331 ], [ 55.706575997620483, 58.086783595200508 ], [ 55.706632844387116, 58.08729042259813 ], [ 55.7128738562512, 58.087624898603927 ], [ 55.71517469011814, 58.087928964979312 ], [ 55.719805118275382, 58.088917162803682 ], [ 55.72314132738245, 58.089722903850038 ], [ 55.727541672152981, 58.091288725916037 ], [ 55.730877881260042, 58.09286968041215 ], [ 55.731758669224725, 58.093368464617001 ], [ 55.733867167760607, 58.094773573479799 ], [ 55.737965528086093, 58.09799969919618 ], [ 55.739626442533798, 58.09892302422481 ], [ 55.742603146349161, 58.10007429725713 ], [ 55.744350342066859, 58.100484643017282 ], [ 55.768358105447263, 58.104587840942109 ], [ 55.779617811183591, 58.106502505069749 ], [ 55.793703228512776, 58.109237561189566 ], [ 55.796421088518088, 58.109590823970848 ], [ 55.798858534395876, 58.109613614997812 ], [ 55.802191148450021, 58.109385704072416 ], [ 55.805642399250431, 58.108724754149215 ], [ 55.809438775130886, 58.107311647692761 ], [ 55.811854650691174, 58.10589848522617 ], [ 55.815047057681561, 58.102935220785277 ], [ 55.8247537005577, 58.094112352674102 ], [ 55.82803238881808, 58.090897276842242 ], [ 55.831483639618504, 58.086404806214155 ], [ 55.835064312323922, 58.082732874620952 ], [ 55.83722134407418, 58.080862553052889 ], [ 55.840672594874597, 58.078581540437042 ], [ 55.844382689485045, 58.07570725697898 ], [ 55.846108314885257, 58.073973450289316 ], [ 55.846863275997869, 58.072501929867911 ], [ 55.84744567457043, 58.07058544024693 ], [ 55.845978892980256, 58.05991738324677 ], [ 55.851997011563476, 58.058776225930863 ], [ 55.862294141881272, 58.05719280976961 ], [ 55.86261028185212, 58.057146269108564 ], [ 55.864017745069141, 58.057033929338424 ], [ 55.864745743284836, 58.057025905055603 ], [ 55.865498008107728, 58.057051582754262 ], [ 55.867190603959202, 58.057178366120851 ], [ 55.868689066953173, 58.057454399236093 ], [ 55.870994394636213, 58.058057813037031 ], [ 55.872899323300608, 58.058597025256489 ], [ 55.874597985803902, 58.059123391238813 ], [ 55.875689983127444, 58.05952778910283 ], [ 55.877158112862439, 58.060118330139993 ], [ 55.877540311925671, 58.060440876964236 ], [ 55.878143943779506, 58.061103613288189 ], [ 55.879366374116749, 58.062084055369482 ], [ 55.879900239474921, 58.0631238401498 ], [ 55.88016717215401, 58.064202103504002 ], [ 55.880279405212271, 58.06519369196036 ], [ 55.880546337891353, 58.066234990652426 ], [ 55.880716204141684, 58.067244171042702 ], [ 55.881004370102076, 58.068064008837212 ], [ 55.882254100372343, 58.068776337939632 ], [ 55.884195428947535, 58.068802007191572 ], [ 55.885966891272382, 58.067159137865289 ], [ 55.88815088591948, 58.06515678867612 ], [ 55.889364216278985, 58.063963027087027 ], [ 55.89130554485417, 58.062441885955472 ], [ 55.893234740125777, 58.061029798228702 ], [ 55.894648269994562, 58.060148819765423 ], [ 55.896553198658964, 58.059449156543359 ], [ 55.898913126208186, 58.058958100317547 ], [ 55.901946452106792, 58.05871096489215 ], [ 55.906544974169293, 58.058775156076123 ], [ 55.911568161857609, 58.059166719800388 ], [ 55.915123219810951, 58.059539022311483 ], [ 55.921845070002554, 58.060168076357606 ], [ 55.924441596971882, 58.060219427219216 ], [ 55.927826788674892, 58.059859969637593 ], [ 55.93025951604568, 58.059484460979263 ], [ 55.931568564685513, 58.059430969398882 ], [ 55.932803465362532, 58.059359647163475 ], [ 55.933884677527331, 58.059358220717307 ], [ 55.935103400466225, 58.059439528057567 ], [ 55.936106420230089, 58.059565054815906 ], [ 55.937184936105211, 58.059759049847486 ], [ 55.938109763468134, 58.059992983631354 ], [ 55.9389132577951, 58.060255444101671 ], [ 55.940013343987715, 58.060689070218658 ], [ 55.942040953832958, 58.061539190354864 ], [ 55.943987674987554, 58.062343647823546 ], [ 55.945713300387744, 58.063073919764406 ], [ 55.947147726501662, 58.063564562838252 ], [ 55.949261617616926, 58.064269137323016 ], [ 55.950512696032071, 58.064776878738641 ], [ 55.95136472357342, 58.065238974201876 ], [ 55.952054973733496, 58.065701063685857 ], [ 55.952745223893558, 58.066271536282777 ], [ 55.953225163457979, 58.066876227285761 ], [ 55.954131116793079, 58.068376501309466 ], [ 55.954526123232327, 58.068867071535053 ], [ 55.955080210763199, 58.069369043393806 ], [ 55.955786638661365, 58.069856747929386 ], [ 55.956463407373015, 58.070220382940903 ], [ 55.957127543475508, 58.070530043416397 ], [ 55.958326249514819, 58.070932654354813 ], [ 55.959708170102779, 58.071262401349706 ], [ 55.961389767200565, 58.071456192012434 ], [ 55.962236246820737, 58.071492245973189 ], [ 55.963018340966428, 58.071473217498436 ], [ 55.963722793804692, 58.071451184515034 ], [ 55.964472695213168, 58.071387088485949 ], [ 55.965343792808859, 58.071256893072608 ], [ 55.966186485048183, 58.07107662171655 ], [ 55.966800040746023, 58.07092038580501 ], [ 55.967379510016208, 58.070730097553437 ], [ 55.968506255819356, 58.0702613832187 ], [ 55.969665194359692, 58.069705528115769 ], [ 55.977548627600783, 58.06594852196654 ], [ 55.978219940856611, 58.066223975727993 ], [ 55.978700938224677, 58.066640658107232 ], [ 55.97907210154807, 58.06701676987786 ], [ 55.979106187975738, 58.067245139406204 ], [ 55.978913031552338, 58.067471504251756 ], [ 55.978466120611934, 58.067605719898459 ], [ 55.97806087086088, 58.067806040820855 ], [ 55.977920737769409, 58.068032402110752 ], [ 55.977685920156645, 58.068218698379063 ], [ 55.976947380890721, 58.068292815978978 ], [ 55.976386848524797, 58.068376949284342 ], [ 55.976277014480118, 58.068539205813465 ], [ 55.976386848524797, 58.068707471064869 ], [ 55.976545918520529, 58.068783590799072 ], [ 55.976530768997129, 58.068999930210303 ], [ 55.975992960916301, 58.069162183908531 ], [ 55.97561801021206, 58.069312418156905 ], [ 55.975379405218455, 58.069498707747016 ], [ 55.97542485378866, 58.069658956079145 ], [ 55.976025153653509, 58.069898325685763 ], [ 55.976102794960958, 58.070044550680976 ], [ 55.975911532227975, 58.070245859454943 ], [ 55.974921132135478, 58.070811721322421 ], [ 55.975057477846121, 58.07119780422844 ], [ 55.975477877120575, 58.071348029911832 ], [ 55.975753409077484, 58.071290443474574 ], [ 55.976431350249776, 58.070864801710073 ], [ 55.976794938811459, 58.070824741047439 ], [ 55.977186932729531, 58.07097797283916 ], [ 55.977885704496515, 58.0713725667134 ], [ 55.977374408081651, 58.071732104035199 ], [ 55.977063842851877, 58.071903358700965 ], [ 55.976994723151357, 58.07211617402691 ], [ 55.977204922788594, 58.07245517370275 ], [ 55.978600572632111, 58.072507250177189 ], [ 55.978956586432091, 58.072759619708023 ], [ 55.977850671223635, 58.073376515495347 ], [ 55.978040040266187, 58.073789108676863 ], [ 55.978627084298076, 58.074353912970309 ], [ 55.978316519068308, 58.074584238397279 ], [ 55.977801435272589, 58.074584238397279 ], [ 55.976835653155618, 58.074117577509234 ], [ 55.976343293645009, 58.07412358605729 ], [ 55.976006216749276, 58.074271796589159 ], [ 55.976006216749276, 58.074470077284431 ], [ 55.975600966998236, 58.074716424492905 ], [ 55.975729737947169, 58.074990809219813 ], [ 55.976176648887559, 58.075187083132057 ], [ 55.976687945302437, 58.075255177910691 ], [ 55.977305288381125, 58.075072923947054 ], [ 55.977907481936406, 58.075116985430149 ], [ 55.9785248250151, 58.075299239168821 ], [ 55.978551336681058, 58.075401380967151 ], [ 55.978324093830004, 58.075535566807048 ], [ 55.977786285749183, 58.075707804608577 ], [ 55.977559042898136, 58.076344676703449 ], [ 55.977430271949217, 58.076993553566872 ], [ 55.976528875306713, 58.077468187506653 ], [ 55.977025022198184, 58.077980865178255 ], [ 55.977089407672651, 58.078469504230128 ], [ 55.977184092193923, 58.078601675938991 ], [ 55.97736399278434, 58.078635720087767 ], [ 55.977640471586462, 58.078618698017436 ], [ 55.978913031552359, 58.078202155413685 ], [ 55.979371304635315, 58.077985871759822 ], [ 55.983018552394682, 58.075630698253605 ], [ 55.9940833, 58.0764123 ], [ 55.9956864, 58.0765264 ], [ 55.9967245, 58.0766003 ], [ 55.9975474, 58.0766467 ], [ 56.0011729, 58.076851 ], [ 56.0018401, 58.0768886 ], [ 56.0227351, 58.0779934 ], [ 56.0236865, 58.0834688 ], [ 56.024152, 58.0879327 ], [ 56.0240227, 58.0900568 ], [ 56.0249889, 58.0935648 ], [ 56.0252182, 58.0942014 ], [ 56.0249545, 58.0951213 ], [ 56.0260849, 58.0985258 ], [ 56.026367, 58.0993018 ], [ 56.027055, 58.1014231 ], [ 56.0276033, 58.1029179 ], [ 56.0341514, 58.1022908 ], [ 56.0566762, 58.1001536 ], [ 56.0600458, 58.0998339 ], [ 56.0605667, 58.0997845 ], [ 56.0625355, 58.0995976 ], [ 56.0639068, 58.0994675 ], [ 56.1218777, 58.0939665 ], [ 56.122568, 58.0939747 ], [ 56.1228615, 58.0939699 ], [ 56.124054, 58.0941066 ], [ 56.1249436, 58.0942872 ], [ 56.1250918, 58.0943929 ], [ 56.1250073, 58.0945877 ], [ 56.1243392, 58.0946608 ], [ 56.1235398, 58.0948359 ], [ 56.123547, 58.094931 ], [ 56.1242239, 58.0950756 ], [ 56.1248001, 58.0958863 ], [ 56.1245912, 58.0963392 ], [ 56.1243032, 58.0962783 ], [ 56.1237559, 58.0960614 ], [ 56.1235398, 58.0961832 ], [ 56.1237631, 58.0964534 ], [ 56.1234822, 58.0966209 ], [ 56.1226828, 58.0967997 ], [ 56.1226612, 58.0971879 ], [ 56.1223732, 58.097264 ], [ 56.1220995, 58.0972564 ], [ 56.1217683, 58.0971042 ], [ 56.1211994, 58.0973478 ], [ 56.1204576, 58.0978273 ], [ 56.1204288, 58.0981394 ], [ 56.121221, 58.0983867 ], [ 56.1211922, 58.0986683 ], [ 56.1206377, 58.0989271 ], [ 56.1198887, 58.0989728 ], [ 56.1199031, 58.0991859 ], [ 56.1201264, 58.0993153 ], [ 56.1200903, 58.0995056 ], [ 56.1196943, 58.0995588 ], [ 56.1195142, 58.0997758 ], [ 56.1197303, 58.1001791 ], [ 56.1196007, 58.1003199 ], [ 56.1187293, 58.1006434 ], [ 56.1185132, 58.1007918 ], [ 56.1181676, 58.1007462 ], [ 56.1178939, 58.1005216 ], [ 56.1173394, 58.1004455 ], [ 56.1169361, 58.1006739 ], [ 56.1170082, 58.1012447 ], [ 56.1176419, 58.1011571 ], [ 56.1177499, 58.1012409 ], [ 56.1177499, 58.1013588 ], [ 56.1164969, 58.1019829 ], [ 56.1163744, 58.1027972 ], [ 56.1160936, 58.102957 ], [ 56.1155391, 58.1025613 ], [ 56.1150998, 58.1025727 ], [ 56.1149774, 58.102626 ], [ 56.1149414, 58.102938 ], [ 56.1146317, 58.1030331 ], [ 56.113962, 58.1031245 ], [ 56.1139404, 58.1034936 ], [ 56.114322, 58.1036343 ], [ 56.114286, 58.1038436 ], [ 56.1140304, 58.1040391 ], [ 56.1146267, 58.1046336 ], [ 56.1145705, 58.1047882 ], [ 56.1135353, 58.1049487 ], [ 56.1130177, 58.1055016 ], [ 56.1131077, 58.1056384 ], [ 56.1141992, 58.1058108 ], [ 56.1144355, 58.1059832 ], [ 56.1142554, 58.1063815 ], [ 56.1139179, 58.1064172 ], [ 56.1125113, 58.1057454 ], [ 56.112185, 58.1057811 ], [ 56.1121738, 58.1063637 ], [ 56.112005, 58.106548 ], [ 56.1103059, 58.1064112 ], [ 56.1096195, 58.1066253 ], [ 56.1089782, 58.1065955 ], [ 56.1084156, 58.1073624 ], [ 56.1085618, 58.1074873 ], [ 56.1087981, 58.1074932 ], [ 56.1096083, 58.1069998 ], [ 56.1098221, 58.1070176 ], [ 56.1099008, 58.1072079 ], [ 56.109507, 58.1075705 ], [ 56.109687, 58.1079866 ], [ 56.1093945, 58.1083077 ], [ 56.1089106, 58.1084741 ], [ 56.1076729, 58.1079034 ], [ 56.1073353, 58.1079926 ], [ 56.1074816, 58.108486 ], [ 56.1080105, 58.1089259 ], [ 56.10797, 58.1090522 ], [ 56.107898, 58.1092766 ], [ 56.1067615, 58.1108459 ], [ 56.161314, 58.1052541 ], [ 56.1578802, 58.0946713 ], [ 56.1636216, 58.0942648 ], [ 56.1628799, 58.0865252 ], [ 56.1653193, 58.085956 ], [ 56.1658248, 58.0859211 ], [ 56.166572, 58.0854796 ], [ 56.1674071, 58.0855493 ], [ 56.1680005, 58.0852821 ], [ 56.1685499, 58.085561 ], [ 56.169793, 58.0867866 ], [ 56.1699029, 58.0871236 ], [ 56.1701068, 58.0872723 ], [ 56.1701631, 58.0870864 ], [ 56.1704163, 58.0868336 ], [ 56.1706413, 58.086789 ], [ 56.1709648, 58.0868708 ], [ 56.1711336, 58.0870938 ], [ 56.1706694, 58.0875399 ], [ 56.1716399, 58.0877481 ], [ 56.1735637, 58.0877972 ], [ 56.1741435, 58.0880009 ], [ 56.1743264, 58.0882463 ], [ 56.1732434, 58.0883504 ], [ 56.1726633, 58.0882475 ], [ 56.1725367, 58.0885226 ], [ 56.1730183, 58.0888559 ], [ 56.1735106, 58.0885957 ], [ 56.1745936, 58.0884693 ], [ 56.1752688, 58.0882388 ], [ 56.1753864, 58.0882433 ], [ 56.1760564, 58.0882686 ], [ 56.1764362, 58.0886775 ], [ 56.17683, 58.0885957 ], [ 56.1768581, 58.0882091 ], [ 56.1772379, 58.0878894 ], [ 56.1780115, 58.0883132 ], [ 56.1796712, 58.0888411 ], [ 56.1798118, 58.0890344 ], [ 56.1793336, 58.0891682 ], [ 56.1792263, 58.0895053 ], [ 56.1798118, 58.0895994 ], [ 56.1801422, 58.0897624 ], [ 56.1804026, 58.0898448 ], [ 56.1808948, 58.0897779 ], [ 56.1812324, 58.0900975 ], [ 56.1815384, 58.0901062 ], [ 56.1819357, 58.0898522 ], [ 56.1823858, 58.0891608 ], [ 56.1827514, 58.0891979 ], [ 56.183089, 58.0897704 ], [ 56.1832578, 58.0898745 ], [ 56.1835532, 58.0897704 ], [ 56.1837219, 58.0895399 ], [ 56.1834688, 58.0889303 ], [ 56.1837079, 58.088789 ], [ 56.1853957, 58.0891756 ], [ 56.1856348, 58.0893689 ], [ 56.1852973, 58.0895325 ], [ 56.1853323, 58.0896465 ], [ 56.1862537, 58.0897927 ], [ 56.1862959, 58.0903875 ], [ 56.1866616, 58.0903875 ], [ 56.1870835, 58.0897407 ], [ 56.1875617, 58.0897779 ], [ 56.1879696, 58.0903132 ], [ 56.1884057, 58.0905139 ], [ 56.1890386, 58.0902834 ], [ 56.1891511, 58.0896589 ], [ 56.1893762, 58.0896812 ], [ 56.1899669, 58.0898671 ], [ 56.1895027, 58.0904247 ], [ 56.189981, 58.0907072 ], [ 56.1902341, 58.0905659 ], [ 56.1901216, 58.0902388 ], [ 56.1908108, 58.0894879 ], [ 56.1911765, 58.0895176 ], [ 56.1912468, 58.0898894 ], [ 56.1915703, 58.0899935 ], [ 56.1921189, 58.0898894 ], [ 56.1924002, 58.0900158 ], [ 56.1918516, 58.0903503 ], [ 56.1914297, 58.0908261 ], [ 56.1918094, 58.0908559 ], [ 56.1924002, 58.0907072 ], [ 56.1925549, 58.0907815 ], [ 56.1921947, 58.0914773 ], [ 56.1922591, 58.0915865 ], [ 56.1930472, 58.091696 ], [ 56.1937786, 58.091577 ], [ 56.1946225, 58.0916068 ], [ 56.1946928, 58.0914729 ], [ 56.1941021, 58.0912425 ], [ 56.1936379, 58.090618 ], [ 56.1947631, 58.0900827 ], [ 56.1951148, 58.0903652 ], [ 56.1958321, 58.0903057 ], [ 56.1956211, 58.0898745 ], [ 56.1961275, 58.0898745 ], [ 56.1964228, 58.0901422 ], [ 56.1962822, 58.0904024 ], [ 56.195818, 58.0906923 ], [ 56.1961415, 58.0910194 ], [ 56.1966197, 58.0909971 ], [ 56.1970839, 58.0905734 ], [ 56.1982372, 58.0902091 ], [ 56.1976184, 58.0900306 ], [ 56.1972808, 58.0897779 ], [ 56.1977309, 58.0893987 ], [ 56.1983357, 58.0895176 ], [ 56.198617, 58.0902314 ], [ 56.1991937, 58.0904098 ], [ 56.2003048, 58.0904693 ], [ 56.2002908, 58.0910715 ], [ 56.1999954, 58.0915473 ], [ 56.2002767, 58.0915844 ], [ 56.200558, 58.0914506 ], [ 56.2013035, 58.0907592 ], [ 56.2024849, 58.0907964 ], [ 56.2025271, 58.0905065 ], [ 56.2022036, 58.0902537 ], [ 56.2023302, 58.090105 ], [ 56.2030475, 58.0902091 ], [ 56.2038071, 58.0904395 ], [ 56.2032445, 58.09096 ], [ 56.2038633, 58.0911086 ], [ 56.2046791, 58.0911384 ], [ 56.2047916, 58.0913019 ], [ 56.2044541, 58.0915696 ], [ 56.2039055, 58.0916885 ], [ 56.204004, 58.0918446 ], [ 56.2045947, 58.0918967 ], [ 56.2052839, 58.0917034 ], [ 56.2054386, 58.0918075 ], [ 56.2053261, 58.0921272 ], [ 56.2058325, 58.0922684 ], [ 56.2076328, 58.0919562 ], [ 56.2077453, 58.0922461 ], [ 56.2063951, 58.0929003 ], [ 56.207464, 58.0932646 ], [ 56.2079704, 58.0935471 ], [ 56.2084151, 58.0937114 ], [ 56.2084955, 58.0939614 ], [ 56.2083964, 58.0941942 ], [ 56.2081521, 58.0942849 ], [ 56.2078196, 58.09414 ], [ 56.2074212, 58.0938997 ], [ 56.2069999, 58.0939485 ], [ 56.2069717, 58.0942012 ], [ 56.2076962, 58.0945341 ], [ 56.2082018, 58.0945906 ], [ 56.2089638, 58.0945617 ], [ 56.2093484, 58.0943895 ], [ 56.2097074, 58.0944276 ], [ 56.2096797, 58.0945755 ], [ 56.208795, 58.0950723 ], [ 56.2088948, 58.095294 ], [ 56.2093347, 58.0953089 ], [ 56.2098527, 58.0951975 ], [ 56.2104954, 58.0951666 ], [ 56.2113821, 58.0952615 ], [ 56.2120211, 58.0969814 ], [ 56.2155669, 58.1068904 ], [ 56.2185793, 58.1153064 ], [ 56.2189657, 58.1163858 ], [ 56.2198021, 58.1190144 ], [ 56.2225982, 58.1278011 ], [ 56.2274225, 58.1425699 ], [ 56.2314593, 58.1568651 ], [ 56.2390123, 58.156175 ], [ 56.2394989, 58.1559976 ], [ 56.2430351, 58.1556936 ], [ 56.2431, 58.1558 ], [ 56.2447419, 58.1556252 ], [ 56.2447131, 58.1555303 ], [ 56.249574, 58.1551275 ], [ 56.2528123, 58.1636544 ], [ 56.2568385, 58.1631535 ], [ 56.2598119, 58.1643303 ], [ 56.2611151, 58.1642175 ], [ 56.2621987, 58.1640817 ], [ 56.262778, 58.164059 ], [ 56.2633788, 58.1641609 ], [ 56.2638831, 58.1641949 ], [ 56.2654173, 58.1638383 ], [ 56.2673271, 58.1638723 ], [ 56.2676275, 58.1638157 ], [ 56.2688935, 58.1633799 ], [ 56.2694836, 58.1633063 ], [ 56.2705457, 58.1628083 ], [ 56.2709856, 58.162497 ], [ 56.2715435, 58.1623386 ], [ 56.2718224, 58.1623202 ], [ 56.2722087, 58.1621928 ], [ 56.2723079, 58.1620287 ], [ 56.2724742, 58.1618914 ], [ 56.2730187, 58.1617301 ], [ 56.274333, 58.1611613 ], [ 56.2752128, 58.1605105 ], [ 56.2762293, 58.1599912 ], [ 56.2767068, 58.1596926 ], [ 56.2770769, 58.1595072 ], [ 56.2779298, 58.1592072 ], [ 56.2783885, 58.1592469 ], [ 56.2788337, 58.1593643 ], [ 56.2792522, 58.1594138 ], [ 56.2795123, 58.1593035 ], [ 56.2794855, 58.1590021 ], [ 56.2800273, 58.1586978 ], [ 56.2803814, 58.158545 ], [ 56.2808132, 58.1584799 ], [ 56.2815937, 58.1582705 ], [ 56.2816474, 58.1581728 ], [ 56.2817681, 58.1581134 ], [ 56.2821007, 58.1580526 ], [ 56.2827793, 58.1577144 ], [ 56.2829509, 58.1576917 ], [ 56.283085, 58.157703 ], [ 56.2832661, 58.1577448 ], [ 56.2845468, 58.1571398 ], [ 56.2936449, 58.1528532 ], [ 56.2970989, 58.1538 ], [ 56.2988873, 58.1542932 ], [ 56.2990133, 58.1543258 ], [ 56.2992923, 58.1544291 ], [ 56.2995458, 58.1545847 ], [ 56.299409, 58.154693 ], [ 56.2991837, 58.154751 ], [ 56.2989905, 58.1547808 ], [ 56.2988645, 58.1547567 ], [ 56.2987572, 58.154693 ], [ 56.2986284, 58.154659 ], [ 56.2985761, 58.1547079 ], [ 56.2978989, 58.1551558 ], [ 56.2972149, 58.1551897 ], [ 56.2966785, 58.1554006 ], [ 56.2963834, 58.1553199 ], [ 56.296472, 58.1552648 ], [ 56.2955054, 58.1550457 ], [ 56.2954661, 58.1551713 ], [ 56.2951952, 58.1555138 ], [ 56.2951791, 58.1556808 ], [ 56.2942538, 58.1556101 ], [ 56.294062, 58.1556723 ], [ 56.2940593, 58.1557544 ], [ 56.2940942, 58.1557657 ], [ 56.2945716, 58.1558351 ], [ 56.2945448, 58.1559709 ], [ 56.2944348, 58.1562164 ], [ 56.2943973, 58.1563424 ], [ 56.2942095, 58.1563544 ], [ 56.293665, 58.1564259 ], [ 56.2933472, 58.1565285 ], [ 56.2932654, 58.1565073 ], [ 56.2924138, 58.1567931 ], [ 56.29222, 58.1572718 ], [ 56.2924245, 58.1575067 ], [ 56.2927102, 58.1576988 ], [ 56.2929542, 58.1578905 ], [ 56.2929837, 58.1580717 ], [ 56.2931782, 58.1582181 ], [ 56.293256, 58.1583837 ], [ 56.2932855, 58.1585436 ], [ 56.2933338, 58.1585889 ], [ 56.293374, 58.1586738 ], [ 56.2933552, 58.1587389 ], [ 56.293264, 58.1588422 ], [ 56.2932372, 58.1589002 ], [ 56.2932399, 58.158978 ], [ 56.2933633, 58.1590855 ], [ 56.2934136, 58.1591535 ], [ 56.2933968, 58.159198 ], [ 56.2933485, 58.1592497 ], [ 56.293199, 58.1593091 ], [ 56.2931266, 58.1593594 ], [ 56.2931078, 58.1594071 ], [ 56.2931299, 58.1594535 ], [ 56.2931976, 58.1595295 ], [ 56.2932546, 58.1596126 ], [ 56.2932727, 58.1597262 ], [ 56.2932627, 58.1597655 ], [ 56.293197, 58.1598249 ], [ 56.2931487, 58.1598921 ], [ 56.2931205, 58.1599989 ], [ 56.2931581, 58.160064 ], [ 56.2932265, 58.1601447 ], [ 56.2932372, 58.1602409 ], [ 56.2932023, 58.160306 ], [ 56.2931487, 58.1603668 ], [ 56.293138, 58.1604539 ], [ 56.2931621, 58.1605182 ], [ 56.2932131, 58.1606017 ], [ 56.2932895, 58.1606711 ], [ 56.2933525, 58.1607001 ], [ 56.2934424, 58.1607107 ], [ 56.2935269, 58.1607086 ], [ 56.2939212, 58.1605805 ], [ 56.2940124, 58.16056 ], [ 56.2940942, 58.1605748 ], [ 56.2941545, 58.1605954 ], [ 56.2942564, 58.1606682 ], [ 56.2943181, 58.1607637 ], [ 56.2943423, 58.1608635 ], [ 56.2944844, 58.1610439 ], [ 56.2945743, 58.1612066 ], [ 56.294589, 58.1612873 ], [ 56.2945729, 58.161409 ], [ 56.2945354, 58.1615066 ], [ 56.2944938, 58.1615887 ], [ 56.2944791, 58.161646 ], [ 56.2944925, 58.1617181 ], [ 56.2945434, 58.1617853 ], [ 56.2945461, 58.161866 ], [ 56.2944965, 58.1619551 ], [ 56.2944362, 58.1619735 ], [ 56.2943181, 58.1619855 ], [ 56.2941746, 58.1619898 ], [ 56.2939493, 58.1619749 ], [ 56.2938461, 58.161982 ], [ 56.2938474, 58.1620535 ], [ 56.2940392, 58.1622048 ], [ 56.2940365, 58.1623011 ], [ 56.2938541, 58.162444 ], [ 56.2938434, 58.162502 ], [ 56.2939627, 58.1625621 ], [ 56.2942283, 58.1625791 ], [ 56.2943088, 58.1626215 ], [ 56.2942551, 58.162751 ], [ 56.2940995, 58.1629038 ], [ 56.2940432, 58.1630276 ], [ 56.2941465, 58.1631429 ], [ 56.2943463, 58.163242 ], [ 56.2946695, 58.1633665 ], [ 56.2948774, 58.1633389 ], [ 56.2950584, 58.1634514 ], [ 56.2951355, 58.1636827 ], [ 56.2951322, 58.1637761 ], [ 56.2951992, 58.163948 ], [ 56.2953548, 58.1640414 ], [ 56.2953535, 58.1641652 ], [ 56.2954903, 58.1642698 ], [ 56.2955332, 58.1644248 ], [ 56.2956271, 58.1644962 ], [ 56.2957156, 58.164625 ], [ 56.2956673, 58.1647389 ], [ 56.2955345, 58.1648188 ], [ 56.2954594, 58.1649249 ], [ 56.2954889, 58.1650261 ], [ 56.2956619, 58.1651506 ], [ 56.2959234, 58.1652362 ], [ 56.2960991, 58.1653458 ], [ 56.2962829, 58.1655368 ], [ 56.2964237, 58.1656146 ], [ 56.2967187, 58.1657066 ], [ 56.2969427, 58.1657419 ], [ 56.2970808, 58.1657929 ], [ 56.2971385, 58.1660893 ], [ 56.2972726, 58.1662102 ], [ 56.2974349, 58.1662866 ], [ 56.2977085, 58.1664967 ], [ 56.2980196, 58.1668355 ], [ 56.2968206, 58.1671135 ], [ 56.2968045, 58.167521 ], [ 56.2968904, 58.1676695 ], [ 56.2976736, 58.1683952 ], [ 56.2980276, 58.1685975 ], [ 56.2985077, 58.1687772 ], [ 56.2987626, 58.1687206 ], [ 56.2990254, 58.168988 ], [ 56.3019034, 58.1701027 ], [ 56.3023621, 58.1704719 ], [ 56.3027027, 58.1703616 ], [ 56.3022172, 58.1699796 ], [ 56.302582, 58.1700037 ], [ 56.3040331, 58.1712131 ], [ 56.3038172, 58.1725011 ], [ 56.3049598, 58.1737607 ], [ 56.3051543, 58.1741447 ], [ 56.3052582, 58.1742419 ], [ 56.3054091, 58.1745994 ], [ 56.3054869, 58.1747196 ], [ 56.3077748, 58.1751991 ], [ 56.3082951, 58.1752755 ], [ 56.3094082, 58.1755598 ], [ 56.309765, 58.1757917 ], [ 56.3102558, 58.1759997 ], [ 56.3109934, 58.1762245 ], [ 56.3117927, 58.1763801 ], [ 56.3128442, 58.1765187 ], [ 56.3155898, 58.1771542 ], [ 56.3392291, 58.1693431 ], [ 56.3469194, 58.1655571 ], [ 56.3917158, 58.1521593 ], [ 56.3910188, 58.1540253 ], [ 56.3895254, 58.1552471 ], [ 56.3908211, 58.1556682 ], [ 56.3921708, 58.1541566 ], [ 56.3928136, 58.1524696 ], [ 56.3973643, 58.153264 ], [ 56.4013821, 58.1537683 ], [ 56.4067279, 58.1542459 ], [ 56.4111264, 58.154652 ], [ 56.4159246, 58.1551751 ], [ 56.4185507, 58.1554546 ], [ 56.4212126, 58.155394 ], [ 56.4217926, 58.1554375 ], [ 56.4250745, 58.1553348 ], [ 56.4259965, 58.1554509 ], [ 56.4271974, 58.1557404 ], [ 56.4275697, 58.155857 ], [ 56.4277574, 58.1561579 ], [ 56.4285525, 58.1562069 ], [ 56.4285932, 58.1558615 ], [ 56.4292122, 58.1557256 ], [ 56.4297971, 58.1557446 ], [ 56.4301712, 58.1559128 ], [ 56.4302295, 58.1560781 ], [ 56.4306064, 58.1560825 ], [ 56.4306369, 58.1559684 ], [ 56.4313034, 58.1559792 ], [ 56.4313241, 58.1561862 ], [ 56.4317578, 58.1561644 ], [ 56.4318404, 58.1560118 ], [ 56.4339261, 58.1559247 ], [ 56.435351, 58.1562407 ], [ 56.4361977, 58.1561644 ], [ 56.4372922, 58.1564586 ], [ 56.4414842, 58.1565893 ], [ 56.4415669, 58.1563496 ], [ 56.4419592, 58.1562624 ], [ 56.4423103, 58.1564477 ], [ 56.4421864, 58.1566547 ], [ 56.4442101, 58.1572866 ], [ 56.445222, 58.1573084 ], [ 56.4451601, 58.157145 ], [ 56.444334, 58.1569706 ], [ 56.4444579, 58.1565021 ], [ 56.4455524, 58.1565348 ], [ 56.4457796, 58.1569706 ], [ 56.4471012, 58.1569706 ], [ 56.4485881, 58.1579185 ], [ 56.4507358, 58.1582998 ], [ 56.4514379, 58.1582236 ], [ 56.4512933, 58.1580819 ], [ 56.4513346, 58.15745 ], [ 56.4529041, 58.1576026 ], [ 56.453503, 58.1579185 ], [ 56.4536888, 58.1578422 ], [ 56.4534617, 58.1574609 ], [ 56.4537714, 58.1569924 ], [ 56.4550724, 58.1571123 ], [ 56.4556093, 58.1569815 ], [ 56.4560017, 58.1571014 ], [ 56.4564767, 58.1569488 ], [ 56.4569929, 58.1570796 ], [ 56.4976335, 58.1559901 ], [ 56.505171, 58.1554562 ], [ 56.5072774, 58.1546281 ], [ 56.5071948, 58.1543339 ], [ 56.5082273, 58.1542467 ], [ 56.5080002, 58.1538981 ], [ 56.5083512, 58.1537782 ], [ 56.5090327, 58.1538654 ], [ 56.5101685, 58.1537673 ], [ 56.5114695, 58.1535167 ], [ 56.5133487, 58.1525251 ], [ 56.5153725, 58.1520893 ], [ 56.5169832, 58.1512611 ], [ 56.5175821, 58.1505964 ], [ 56.5198537, 58.1492124 ], [ 56.5197091, 58.1489727 ], [ 56.5202874, 58.1486348 ], [ 56.5211134, 58.1485368 ], [ 56.5217329, 58.1478502 ], [ 56.5222285, 58.1476649 ], [ 56.5233024, 58.1469348 ], [ 56.5228893, 58.146368 ], [ 56.5252848, 58.1446242 ], [ 56.5274738, 58.1425425 ], [ 56.5356308, 58.1351954 ], [ 56.5382741, 58.13223 ], [ 56.5411859, 58.1303873 ], [ 56.5415782, 58.129864 ], [ 56.5425695, 58.1296241 ], [ 56.5448617, 58.128272 ], [ 56.5470094, 58.1274542 ], [ 56.5498385, 58.1258077 ], [ 56.5523992, 58.1237248 ], [ 56.5554762, 58.1220999 ], [ 56.5557653, 58.1214564 ], [ 56.556612, 58.1207584 ], [ 56.5593792, 58.1199513 ], [ 56.5601639, 58.1195042 ], [ 56.557197798379349, 58.106884919051041 ], [ 56.549720088311844, 58.072304201570873 ], [ 56.570696023731983, 58.070925142998085 ], [ 56.588508312585041, 58.074633776946186 ], [ 56.615782780715882, 58.063684233029868 ], [ 56.619150746123566, 58.061872481374152 ], [ 56.624442664017536, 58.063023682350583 ], [ 56.627628480077583, 58.064993189601807 ], [ 56.633996517144709, 58.065090806382933 ], [ 56.651983423835681, 58.058442565524423 ], [ 56.6534766, 58.0563173 ], [ 56.6542249, 58.0558395 ], [ 56.6547668, 58.0556688 ], [ 56.6555926, 58.0545424 ], [ 56.6554507, 58.05302 ], [ 56.6545346, 58.0505211 ], [ 56.6542823, 58.0503176 ], [ 56.654067, 58.0480483 ], [ 56.6549277, 58.0477851 ], [ 56.6553776, 58.0478396 ], [ 56.6558472, 58.0474685 ], [ 56.6549492, 58.0471094 ], [ 56.655314, 58.0467347 ], [ 56.6551427, 58.0466645 ], [ 56.6566443, 58.0440376 ], [ 56.6563354, 58.0427922 ], [ 56.6558546, 58.0424674 ], [ 56.652405, 58.0438797 ], [ 56.6519304, 58.042511 ], [ 56.6426049, 58.0053584 ], [ 56.6418377, 58.0023001 ], [ 56.6414205, 58.000637 ], [ 56.6412591, 57.9999937 ], [ 56.6410394, 57.9991178 ], [ 56.6409881, 57.9989131 ], [ 56.6399949, 57.9949533 ], [ 56.6323428, 57.9954458 ], [ 56.534585714431671, 58.001728165471292 ], [ 56.526439058221364, 57.978040811532587 ], [ 56.52763208318941, 57.974335422862602 ], [ 56.531858800219034, 57.967330287880756 ], [ 56.50724839944985, 57.964997952088289 ], [ 56.453937226592544, 57.968324648475246 ], [ 56.446438212507765, 57.939893140869351 ], [ 56.477661380242608, 57.9342475654365 ], [ 56.510637893556151, 57.928380713315356 ], [ 56.516281302779255, 57.926030942977171 ], [ 56.552182325065338, 57.922298451520177 ], [ 56.546368450431885, 57.887994863592866 ], [ 56.470986257407759, 57.889782123151534 ], [ 56.469639460708549, 57.884870529116206 ], [ 56.459641618546286, 57.884199688105546 ], [ 56.449255510668991, 57.877284136082508 ], [ 56.445275787089834, 57.877697042181637 ], [ 56.444208056373483, 57.878626063576256 ], [ 56.444790454946038, 57.882187089991042 ], [ 56.441198997081926, 57.886212173597137 ], [ 56.438189937790369, 57.886212173597137 ], [ 56.435472077785079, 57.875322767387914 ], [ 56.433724882067423, 57.870109136009347 ], [ 56.432560084922301, 57.855703198302336 ], [ 56.42799796277059, 57.855806487191714 ], [ 56.422562242760037, 57.857097573306859 ], [ 56.41751478846453, 57.855496619634621 ], [ 56.409555341306223, 57.856271283526937 ], [ 56.400236964145286, 57.861486919784696 ], [ 56.391112719841857, 57.859886161306243 ], [ 56.383832737684912, 57.862829436523157 ], [ 56.383444471969874, 57.864326799966797 ], [ 56.386841796976469, 57.872225651721955 ], [ 56.371917833554633, 57.872858001163593 ], [ 56.363885586574753, 57.863745933612613 ], [ 56.360245595496266, 57.860079805229525 ], [ 56.354834142092905, 57.859163214788722 ], [ 56.3485733574379, 57.857704367786781 ], [ 56.342822171533896, 57.859640877508006 ], [ 56.333406727944201, 57.86028635759952 ], [ 56.333843526873622, 57.861990369429563 ], [ 56.316978234876579, 57.862739076391314 ], [ 56.314818506836659, 57.86570793342964 ], [ 56.309431320040503, 57.873858122999316 ], [ 56.305791328962009, 57.873845218378484 ], [ 56.304213999494664, 57.874800147818313 ], [ 56.303583067707727, 57.875129205469555 ], [ 56.30064680823773, 57.875232438622284 ], [ 56.299239345020716, 57.874909834036465 ], [ 56.296812684301727, 57.87560665631765 ], [ 56.287967505981158, 57.876932516996078 ], [ 56.27853992908787, 57.872228878022852 ], [ 56.275858468993377, 57.871848172523407 ], [ 56.274232606311664, 57.87098995721562 ], [ 56.26933075165929, 57.869079870725443 ], [ 56.265739293795157, 57.866033847381992 ], [ 56.26559369415201, 57.862109776325063 ], [ 56.252149993768775, 57.862058140959419 ], [ 56.24283161660783, 57.854415290080738 ], [ 56.230601246584094, 57.854105410550169 ], [ 56.231377778014178, 57.859786111537758 ], [ 56.217011946557733, 57.856584372120388 ], [ 56.209829030829496, 57.862781029337896 ], [ 56.223701441273121, 57.875386212456768 ], [ 56.215418439352277, 57.883557862156195 ], [ 56.202840247958797, 57.879674409599396 ], [ 56.212457913275095, 57.873484962511959 ], [ 56.211826981488159, 57.873201056839804 ], [ 56.205129397903733, 57.877227146066403 ], [ 56.2016789, 57.8755465 ], [ 56.1965305, 57.8783397 ], [ 56.1936534, 57.8770584 ], [ 56.1954624, 57.8760231 ], [ 56.1959129, 57.8757462 ], [ 56.1938937, 57.8747098 ], [ 56.1926071, 57.8753367 ], [ 56.192036, 57.8753178 ], [ 56.1909075, 57.8758873 ], [ 56.1921951, 57.8765408 ], [ 56.1902012, 57.8777133 ], [ 56.1889278, 57.878232 ], [ 56.1866436, 57.8785805 ], [ 56.1850066, 57.8793906 ], [ 56.1824422, 57.8782082 ], [ 56.1810531, 57.8789305 ], [ 56.1787252, 57.8778948 ], [ 56.1819867, 57.8761937 ], [ 56.1840207, 57.8750992 ], [ 56.183362, 57.8747472 ], [ 56.1873553, 57.8722526 ], [ 56.1883272, 57.8716563 ], [ 56.1843138, 57.8698416 ], [ 56.179619127095641, 57.867699583711904 ], [ 56.170106617077025, 57.873657742392737 ], [ 56.166250922823458, 57.871888322446004 ], [ 56.166978921039174, 57.871449538719141 ], [ 56.16567930940964, 57.8708099946844 ], [ 56.164767963495159, 57.871349162604744 ], [ 56.16297290863551, 57.870599559268229 ], [ 56.162255021506127, 57.871668931251428 ], [ 56.159515591183315, 57.873504319635401 ], [ 56.15992542721586, 57.873882856843089 ], [ 56.157401700068064, 57.875523138721313 ], [ 56.156625168637973, 57.875156089131742 ], [ 56.155460371492836, 57.875832833899629 ], [ 56.153583753870123, 57.879893035176295 ], [ 56.153411191330086, 57.882633985375591 ], [ 56.163085478729933, 57.886859685490521 ], [ 56.16306390841244, 57.88817259025334 ], [ 56.10201990988034, 57.920887987076732 ], [ 56.084163057351567, 57.909116682837258 ], [ 56.066993084619838, 57.908383265530567 ], [ 56.040936141077175, 57.892702890205264 ], [ 56.028252794385928, 57.89875577555523 ], [ 56.027821388035882, 57.90068147989161 ], [ 56.018503010874959, 57.904945172335822 ], [ 56.013800681659497, 57.902836312415346 ], [ 56.008710086728982, 57.906068318958461 ], [ 55.994128552097465, 57.899535239739464 ] ] ] ] } }
]
}
