{
"type": "FeatureCollection",
"name": "зоны в третьем сценарии (с)",
"crs": { "type": "name", "properties": { "name": "urn:ogc:def:crs:OGC:1.3:CRS84" } },
"features": [
{ "type": "Feature", "properties": { "id": null }, "geometry": { "type": "MultiPolygon", "coordinates": [ [ [ [ 55.970856201789339, 57.938600341883287 ], [ 55.975776068159945, 57.947250229551429 ], [ 55.981310917826868, 57.953124435809634 ], [ 55.996378008586838, 57.94928999351859 ], [ 56.002681587374155, 57.94578152768046 ], [ 56.009907641105983, 57.938763566611925 ], [ 56.009446403633738, 57.935090830650438 ], [ 55.996531754410917, 57.938600341883287 ], [ 55.987460750790106, 57.941048634864188 ], [ 55.983617105188081, 57.941538273416668 ], [ 55.970856201789339, 57.938600341883287 ] ] ] ] } },
{ "type": "Feature", "properties": { "id": null }, "geometry": { "type": "MultiPolygon", "coordinates": [ [ [ [ 56.25708666003969, 57.896853524071226 ], [ 56.258001016862593, 57.898878177269424 ], [ 56.263639550603834, 57.898959161025282 ], [ 56.263603374983518, 57.895169307261561 ], [ 56.25708666003969, 57.896853524071226 ] ] ] ] } },
{ "type": "Feature", "properties": { "id": null }, "geometry": { "type": "MultiPolygon", "coordinates": [ [ [ [ 55.987186824352349, 57.929137844901625 ], [ 55.989339837270521, 57.934512311429586 ], [ 55.990102739606833, 57.935357551969219 ], [ 55.99091388873169, 57.935232688142442 ], [ 55.990006246030681, 57.934358629193078 ], [ 55.993335274408331, 57.934947740860089 ], [ 55.994279102200402, 57.935751350423352 ], [ 55.9965678092098, 57.935767358399303 ], [ 55.997484498183354, 57.936407671579055 ], [ 55.998159953216508, 57.936151547677945 ], [ 55.998931901825799, 57.935716132851425 ], [ 55.998931901825799, 57.935716132851425 ], [ 56.000086809315746, 57.935808979103022 ], [ 56.000683863318258, 57.935405576402196 ], [ 56.001335194957363, 57.935117428839973 ], [ 56.001986526596468, 57.934771648711788 ], [ 56.001932248959875, 57.934829278964486 ], [ 56.003081125600858, 57.935588068661893 ], [ 56.004480282455226, 57.935536842858141 ], [ 56.005243184791986, 57.935376761750078 ], [ 56.0051346295188, 57.934944539192273 ], [ 56.00502607424562, 57.934108894155067 ], [ 56.005677405884718, 57.933071514629269 ], [ 56.00737508974013, 57.932053316682065 ], [ 56.007902788984985, 57.931659477654456 ], [ 56.007522845528854, 57.931083120069623 ], [ 56.006844375071232, 57.930900604905361 ], [ 56.006217166826154, 57.930106493037648 ], [ 56.005975932885754, 57.929030571517217 ], [ 56.00628579874342, 57.928480369180484 ], [ 56.003987443931443, 57.92805871034772 ], [ 56.002936385236602, 57.92733977255056 ], [ 56.000813526561004, 57.92664805911356 ], [ 55.999848590799353, 57.926084430904417 ], [ 55.998295647308211, 57.925203744114647 ], [ 55.997969981488652, 57.924339048796249 ], [ 55.996558762937262, 57.923820221610043 ], [ 55.996070264207923, 57.923099615859606 ], [ 55.995473210205411, 57.923330211273097 ], [ 55.994279102200402, 57.923474332654564 ], [ 55.993627770561297, 57.922782544748223 ], [ 55.992460801374548, 57.92183131461605 ], [ 55.991130999278042, 57.920447662170766 ], [ 55.988932754996057, 57.921788076284095 ], [ 55.987602952899572, 57.922364583096531 ], [ 55.987792924627641, 57.922854606610287 ], [ 55.988471395085043, 57.924166107233795 ], [ 55.988670413085863, 57.925246978333966 ], [ 55.988706598176925, 57.925698532624459 ], [ 55.988019081446765, 57.925957933584897 ], [ 55.98744916626233, 57.926673678367401 ], [ 55.986028901438402, 57.927187660784924 ], [ 55.985594680345656, 57.927600762815139 ], [ 55.985395662344814, 57.92796582576932 ], [ 55.985540402709063, 57.928350098553082 ], [ 55.985974623801809, 57.92860948035699 ], [ 55.98651740016772, 57.929080205510992 ], [ 55.987186824352349, 57.929137844901625 ] ] ] ] } },
{ "type": "Feature", "properties": { "id": null }, "geometry": { "type": "MultiPolygon", "coordinates": [ [ [ [ 56.375582514683487, 58.036424896087844 ], [ 56.375654884865583, 58.037242195092198 ], [ 56.378453198574334, 58.039796134058243 ], [ 56.380981884166076, 58.040333358310711 ], [ 56.382698915925531, 58.041992375643304 ], [ 56.383470864534843, 58.044699185429295 ], [ 56.382023460892384, 58.045516295270794 ], [ 56.380383070097601, 58.046026979435148 ], [ 56.378971851546382, 58.045897713195714 ], [ 56.377940576451124, 58.046414775347614 ], [ 56.375268910560933, 58.04709939242754 ], [ 56.373628519766157, 58.046741925005733 ], [ 56.364172149302107, 58.048784547826479 ], [ 56.363593187845133, 58.049397311905963 ], [ 56.362688560568756, 58.050177613453229 ], [ 56.363719835663993, 58.050953110991806 ], [ 56.364588277849485, 58.05187219739134 ], [ 56.365076776578803, 58.053336942477408 ], [ 56.366162329310647, 58.053681579653343 ], [ 56.367410714952243, 58.055246764992667 ], [ 56.368496267684087, 58.055519588446586 ], [ 56.369364709869558, 58.055304201682418 ], [ 56.370450262601395, 58.056251893731641 ], [ 56.371834342334516, 58.058290782304695 ], [ 56.371997175244296, 58.059023030783969 ], [ 56.371345843605177, 58.060616696175487 ], [ 56.369636098052524, 58.062483060738288 ], [ 56.370857344875851, 58.062468704460017 ], [ 56.372539951610207, 58.062296428670649 ], [ 56.374059725434783, 58.06231078501817 ], [ 56.374412530072632, 58.063129087287848 ], [ 56.374765334710496, 58.063459274122785 ], [ 56.37699071781077, 58.063631544303099 ], [ 56.379867432550142, 58.064004793509802 ], [ 56.381712872194271, 58.064148349858286 ], [ 56.3836031, 58.0629504 ], [ 56.382798424926108, 58.062569198286724 ], [ 56.383558311838392, 58.061248399715048 ], [ 56.384481031660464, 58.060071125036728 ], [ 56.384643864570243, 58.059209679956375 ], [ 56.3851909, 58.0586822 ], [ 56.3847875, 58.058091899999987 ], [ 56.3853283, 58.0572609 ], [ 56.386163638394812, 58.056653937308994 ], [ 56.388877520224405, 58.05699854248833 ], [ 56.390451571685574, 58.055734973912216 ], [ 56.391591402054019, 58.054356484493056 ], [ 56.392079900783337, 58.052977941884045 ], [ 56.39088579277832, 58.052633297920728 ], [ 56.389691684773304, 58.052030162985403 ], [ 56.387846245129168, 58.05148446069952 ], [ 56.386923525307104, 58.050220697091348 ], [ 56.385566584392279, 58.049330291346415 ], [ 56.385837972575231, 58.04904305895375 ], [ 56.386760692397296, 58.048210071958763 ], [ 56.386606905760189, 58.04704832587192 ], [ 56.38790052276574, 58.046429138078366 ], [ 56.389203186043936, 58.046026979435005 ], [ 56.390017350592821, 58.045912076134258 ], [ 56.391482846780804, 58.04536628041074 ], [ 56.390560126958754, 58.045021563027596 ], [ 56.389366018953723, 58.044131027731844 ], [ 56.389598206621258, 58.043039373550123 ], [ 56.392514121876054, 58.042780818991751 ], [ 56.395173726069068, 58.042953188905052 ], [ 56.396964888076596, 58.042550991147628 ], [ 56.401089988457592, 58.042608448247208 ], [ 56.399895880452576, 58.041976415071922 ], [ 56.399624492269609, 58.041488018145515 ], [ 56.398701772447545, 58.040999614545839 ], [ 56.396690484469282, 58.04066443174365 ], [ 56.390539018988854, 58.03920874425252 ], [ 56.37871855590879, 58.036935710155134 ], [ 56.375582514683487, 58.036424896087844 ] ] ] ] } },
{ "type": "Feature", "properties": { "id": null }, "geometry": { "type": "MultiPolygon", "coordinates": [ [ [ [ 56.259506773407395, 58.037106511980575 ], [ 56.263007680967576, 58.039347611735295 ], [ 56.264645056337962, 58.038500032834939 ], [ 56.264645056337962, 58.038500032834939 ], [ 56.266056274889351, 58.038825658744514 ], [ 56.266381940708911, 58.039649287511686 ], [ 56.267612233804989, 58.039898287821849 ], [ 56.269132007629558, 58.040798505241746 ], [ 56.270072819997161, 58.041104957063297 ], [ 56.271049817455825, 58.040377129697276 ], [ 56.274595956379819, 58.041066650729277 ], [ 56.274668326561944, 58.041985991415672 ], [ 56.273754653012794, 58.043161468107961 ], [ 56.274690942244014, 58.04359238674342 ], [ 56.274921622199386, 58.043077677770079 ], [ 56.276296655659714, 58.042139212564585 ], [ 56.277128912754122, 58.041717852824654 ], [ 56.278648686578698, 58.041737005647853 ], [ 56.281217828044056, 58.041124110214916 ], [ 56.280797176360608, 58.040791322745577 ], [ 56.278938167307196, 58.040243054618706 ], [ 56.277888799666414, 58.039400285467096 ], [ 56.276807770071095, 58.039110578982203 ], [ 56.275342273883119, 58.038614959965145 ], [ 56.27355111187557, 58.038097784969189 ], [ 56.271474992275934, 58.037494404684267 ], [ 56.269765246723288, 58.036955663681447 ], [ 56.268218334080416, 58.036352264119934 ], [ 56.266142214480759, 58.035447145682625 ], [ 56.264839551202563, 58.035296290381957 ], [ 56.264269636018341, 58.035554899079102 ], [ 56.263048389195021, 58.035576449719429 ], [ 56.261745725916818, 58.035641101562469 ], [ 56.259506773407395, 58.037106511980575 ] ] ] ] } },
{ "type": "Feature", "properties": { "id": null }, "geometry": { "type": "MultiPolygon", "coordinates": [ [ [ [ 56.476756406219195, 58.132057481367397 ], [ 56.478893588160005, 58.132670010864665 ], [ 56.479748460936335, 58.13479766306191 ], [ 56.480542271371498, 58.136699547584556 ], [ 56.481213957124332, 58.13821453545691 ], [ 56.480053772642179, 58.139052586166251 ], [ 56.478710401136524, 58.139374908110511 ], [ 56.477489154313197, 58.139729458879444 ], [ 56.479015712842347, 58.141147626653293 ], [ 56.480236959665675, 58.14201783800516 ], [ 56.482923702676977, 58.141888919146886 ], [ 56.486343193782261, 58.142082297259243 ], [ 56.491411368099058, 58.142920256943036 ], [ 56.494586609839679, 58.142533508770342 ], [ 56.497456539874499, 58.14224344488391 ], [ 56.49712765057744, 58.141324885233303 ], [ 56.499227347768304, 58.140728628417037 ], [ 56.500021158203459, 58.139858385556529 ], [ 56.501669841414952, 58.13869802865775 ], [ 56.50032646990929, 58.137602101311991 ], [ 56.50124240502678, 58.136989656634405 ], [ 56.501425592050289, 58.135796970982518 ], [ 56.500753906297462, 58.134120696604043 ], [ 56.498311412650814, 58.132508819912964 ], [ 56.497029103486319, 58.131702854212314 ], [ 56.490251183616905, 58.131606137102708 ], [ 56.488516, 58.131131 ], [ 56.483842, 58.131412 ], [ 56.483712591427569, 58.132486644627548 ], [ 56.482800437327434, 58.132856750777748 ], [ 56.481946705218313, 58.132702248967469 ], [ 56.480711, 58.131494 ], [ 56.476756406219195, 58.132057481367397 ] ] ] ] } },
{ "type": "Feature", "properties": { "id": null }, "geometry": { "type": "MultiPolygon", "coordinates": [ [ [ [ 56.486694867635855, 58.150295918193557 ], [ 56.485392204357659, 58.150015862740268 ], [ 56.483896553927131, 58.148819237345847 ], [ 56.482304409920424, 58.148080873948771 ], [ 56.481580708099202, 58.149099302214154 ], [ 56.482352656708507, 58.151390659277503 ], [ 56.481966682403858, 58.151568869755515 ], [ 56.476852522867183, 58.152001662915779 ], [ 56.477431484324157, 58.152816318117218 ], [ 56.478830641178526, 58.153554583286883 ], [ 56.481387720946856, 58.15363095467174 ], [ 56.483751813562883, 58.153885524771027 ], [ 56.485392204357659, 58.154140093049335 ], [ 56.490313376742009, 58.154165549777019 ], [ 56.495234549126351, 58.15345275451881 ], [ 56.496826693133059, 58.152663571687327 ], [ 56.498853058232477, 58.152383534863226 ], [ 56.500686436179599, 58.151543411170422 ], [ 56.502030651112626, 58.149976851779172 ], [ 56.502905788431356, 58.149048381492904 ], [ 56.504932153530802, 58.148386405487834 ], [ 56.50666903790173, 58.149786724821375 ], [ 56.510523880884008, 58.149043209852927 ], [ 56.510279631519353, 58.148624304531637 ], [ 56.508081387237368, 58.14768980566523 ], [ 56.50694852970534, 58.146547945631006 ], [ 56.505699955931888, 58.145659602899372 ], [ 56.504980400318878, 58.14461799988986 ], [ 56.502326826974382, 58.143319335272793 ], [ 56.49991448757028, 58.143650371928636 ], [ 56.500396955451102, 58.145330972085603 ], [ 56.500155721510701, 58.146145779968421 ], [ 56.497888122470854, 58.147724417172014 ], [ 56.495572276642932, 58.148411866331081 ], [ 56.486694867635855, 58.150295918193557 ] ] ] ] } },
{ "type": "Feature", "properties": { "id": null }, "geometry": { "type": "MultiPolygon", "coordinates": [ [ [ [ 56.25511028484329, 57.894090439615098 ], [ 56.256991909578488, 57.895552031832253 ], [ 56.264916444520928, 57.894359684751791 ], [ 56.26495262961199, 57.892782648838491 ], [ 56.261478860870092, 57.893301924400355 ], [ 56.261008454686305, 57.893013438903054 ], [ 56.25511028484329, 57.894090439615098 ] ] ] ] } },
{ "type": "Feature", "properties": { "id": null }, "geometry": { "type": "MultiPolygon", "coordinates": [ [ [ [ 56.265541768125914, 57.891539121665403 ], [ 56.266121860366979, 57.884154605327595 ], [ 56.266091329196406, 57.882774912179293 ], [ 56.265633361637654, 57.882012000302055 ], [ 56.264351052473167, 57.882174323333352 ], [ 56.263160336820441, 57.882628823923618 ], [ 56.262152808191189, 57.883229405179989 ], [ 56.262824493944017, 57.883554039521236 ], [ 56.264870082373086, 57.883586502794202 ], [ 56.264534239496676, 57.884381843828265 ], [ 56.262641306920528, 57.885225859974234 ], [ 56.262183339361776, 57.885826397862758 ], [ 56.263435117355677, 57.886215930590396 ], [ 56.263496179696844, 57.887968775649625 ], [ 56.262855025114611, 57.88856926773294 ], [ 56.261206341903119, 57.889640390875435 ], [ 56.261633778291291, 57.890760167317431 ], [ 56.262732900432269, 57.891587805751804 ], [ 56.265541768125914, 57.891539121665403 ] ] ] ] } },
{ "type": "Feature", "properties": { "id": null }, "geometry": { "type": "MultiPolygon", "coordinates": [ [ [ [ 55.776200604646426, 58.083446638391329 ], [ 55.772871576268791, 58.08383881074505 ], [ 55.772672558267956, 58.084125763395349 ], [ 55.771261339716567, 58.084326628877662 ], [ 55.771587005536105, 58.084479668486232 ], [ 55.771912671355665, 58.084479668486232 ], [ 55.773378167543655, 58.084900524025691 ], [ 55.774101869364877, 58.085206597664126 ], [ 55.77377620354531, 58.085560492035945 ], [ 55.773667648272124, 58.08578047866024 ], [ 55.775422625188604, 58.086086544751076 ], [ 55.775494995370735, 58.086411737096057 ], [ 55.775893031372419, 58.086086544751076 ], [ 55.77609204937324, 58.085512668677282 ], [ 55.776554133327579, 58.085185058821772 ], [ 55.778588820656474, 58.085283115663529 ], [ 55.779963854116815, 58.085216162423031 ], [ 55.78032570502743, 58.085063125972987 ], [ 55.780180964663181, 58.084269238855228 ], [ 55.780343797572954, 58.083341420685137 ], [ 55.780144779572112, 58.083025765705223 ], [ 55.777991766653969, 58.083255333240245 ], [ 55.778226969745873, 58.083896201459702 ], [ 55.776580548102579, 58.084125763395349 ], [ 55.776200604646426, 58.083446638391329 ] ] ] ] } },
{ "type": "Feature", "properties": { "id": null }, "geometry": { "type": "MultiPolygon", "coordinates": [ [ [ [ 55.815877556995204, 58.05372465906671 ], [ 55.816405350471754, 58.054596557276199 ], [ 55.816657232629069, 58.054947913226123 ], [ 55.816176366692375, 58.055565806687262 ], [ 55.814848260772024, 58.055965614408628 ], [ 55.815031447795533, 58.056438108674364 ], [ 55.815855789401262, 58.056898481691583 ], [ 55.815741297511586, 58.05648656927135 ], [ 55.816657232629069, 58.056668295924574 ], [ 55.817206793699569, 58.05640176318348 ], [ 55.818305915840547, 58.056207919940931 ], [ 55.819565326627107, 58.056110997925224 ], [ 55.821717774153207, 58.05659560537422 ], [ 55.821920467202446, 58.056213603631264 ], [ 55.82130532065441, 58.055371211037226 ], [ 55.820690174106367, 58.055218046613277 ], [ 55.820255953013614, 58.055218046613277 ], [ 55.819568436283454, 58.055409502040611 ], [ 55.81880854937117, 58.055409502040611 ], [ 55.817722996639318, 58.055045735851429 ], [ 55.817578256275091, 58.054222461851595 ], [ 55.816657232629069, 58.053796906716016 ], [ 55.815877556995204, 58.05372465906671 ] ] ] ] } },
{ "type": "Feature", "properties": { "id": null }, "geometry": { "type": "MultiPolygon", "coordinates": [ [ [ [ 55.824053408702817, 58.059866533711379 ], [ 55.824648766529172, 58.059612138915668 ], [ 55.825864642128131, 58.059602118625051 ], [ 55.827373673503722, 58.059394084791599 ], [ 55.829159746982818, 58.059067001109611 ], [ 55.831037413973682, 58.058824714969745 ], [ 55.831632771800038, 58.058437053727701 ], [ 55.83032756425763, 58.058461282678586 ], [ 55.829113950226933, 58.058473397147857 ], [ 55.827900336196272, 58.05815841961136 ], [ 55.825999770827487, 58.058013044427014 ], [ 55.824763258418869, 58.058000929801608 ], [ 55.823893120057242, 58.058461282678586 ], [ 55.822931388183896, 58.058558198317776 ], [ 55.822107046578139, 58.058764143177996 ], [ 55.820756042279847, 58.059042772569576 ], [ 55.819084460690434, 58.059091229633189 ], [ 55.818924172044873, 58.059357742308173 ], [ 55.819313444469806, 58.059648481140272 ], [ 55.820255953013614, 58.059716977907577 ], [ 55.820870534169536, 58.059333513965342 ], [ 55.821809367664954, 58.05929717142029 ], [ 55.822748201160394, 58.059333513965342 ], [ 55.824003, 58.0592495 ], [ 55.824053408702817, 58.059866533711379 ] ] ] ] } },
{ "type": "Feature", "properties": { "id": null }, "geometry": { "type": "MultiPolygon", "coordinates": [ [ [ [ 55.827635701307088, 58.033019282451903 ], [ 55.826574271969292, 58.034092085744767 ], [ 55.825352020004559, 58.034534820577797 ], [ 55.825976872449502, 58.03532726964746 ], [ 55.826686731264701, 58.036251341436156 ], [ 55.827213384858126, 58.035909136081401 ], [ 55.827831641062431, 58.036636455807155 ], [ 55.828106421597667, 58.037072840540439 ], [ 55.82860063706871, 58.037752997481981 ], [ 55.827667865832474, 58.038621344794919 ], [ 55.826316955766195, 58.039200231285811 ], [ 55.824033274463659, 58.040000441293444 ], [ 55.822971845125856, 58.040953859618469 ], [ 55.821234960754914, 58.042843595784923 ], [ 55.821524441483405, 58.044035269927264 ], [ 55.824001109938273, 58.044580022016518 ], [ 55.825609336207663, 58.044307647009767 ], [ 55.827144689724314, 58.043145308558096 ], [ 55.827808742684482, 58.042551440031659 ], [ 55.831945747709057, 58.040936834514234 ], [ 55.833007177046852, 58.040221772813922 ], [ 55.833556235546737, 58.040066781038135 ], [ 55.83314406474387, 58.039478921816944 ], [ 55.833052471232129, 58.038872871262264 ], [ 55.832846354419914, 58.038536213637975 ], [ 55.832170899386789, 58.037940289862917 ], [ 55.831366786252083, 58.037667864257173 ], [ 55.831209151808167, 58.037418308010039 ], [ 55.831205963625145, 58.03691868313711 ], [ 55.831977912234457, 58.03608434932157 ], [ 55.833659278247453, 58.035575776262164 ], [ 55.8345015, 58.035097799999946 ], [ 55.833636379869525, 58.03479994501204 ], [ 55.832880733397587, 58.034339287241792 ], [ 55.830293216690677, 58.033369462009503 ], [ 55.828890117797215, 58.033070369052908 ], [ 55.827635701307088, 58.033019282451903 ] ] ] ] } },
{ "type": "Feature", "properties": { "id": null }, "geometry": { "type": "MultiPolygon", "coordinates": [ [ [ [ 56.26734310718998, 57.882962594137076 ], [ 56.267800798334989, 57.884345400266639 ], [ 56.267903724816243, 57.886315223357528 ], [ 56.267594945372522, 57.888503789136841 ], [ 56.267609378326064, 57.890834606561882 ], [ 56.267080312966293, 57.893810508009416 ], [ 56.26697738648506, 57.896490923905134 ], [ 56.267398824644339, 57.897533383387412 ], [ 56.267295531315682, 57.899574046429755 ], [ 56.2654084, 57.903331199999968 ], [ 56.266732936092133, 57.905426478822207 ], [ 56.267802962514708, 57.906383410842103 ], [ 56.269344695553613, 57.905734090349441 ], [ 56.27011664416294, 57.90529659760896 ], [ 56.272375086283986, 57.90553936090285 ], [ 56.274916745692686, 57.904677375661414 ], [ 56.276977599707038, 57.902925345155474 ], [ 56.277595855911343, 57.901556511887918 ], [ 56.27635934350274, 57.899530542969622 ], [ 56.275947172699873, 57.897394938586139 ], [ 56.277698898612066, 57.896463994401152 ], [ 56.277183685108483, 57.895259207312911 ], [ 56.27635934350274, 57.894328207815626 ], [ 56.275947172699873, 57.893287650432761 ], [ 56.276771514305615, 57.891589834254134 ], [ 56.277492813210621, 57.889782393442182 ], [ 56.278111069414948, 57.888358285170867 ], [ 56.277029121057424, 57.886222017005977 ], [ 56.277544334561014, 57.884359525824998 ], [ 56.278626282918559, 57.883126941857803 ], [ 56.280687136932912, 57.882277803883603 ], [ 56.281769085290442, 57.881319075624006 ], [ 56.284499716859465, 57.88071643335185 ], [ 56.288930552990315, 57.879839844749213 ], [ 56.290939885654304, 57.878415342706155 ], [ 56.290888364303946, 57.877346929152587 ], [ 56.289291202442818, 57.877319533516008 ], [ 56.287384912479546, 57.877072971847873 ], [ 56.286084652945355, 57.875993271411041 ], [ 56.284911887662325, 57.876223690944485 ], [ 56.28321168310049, 57.876525050979396 ], [ 56.281717563940084, 57.876853804501927 ], [ 56.280738658283269, 57.876853804501927 ], [ 56.280378008830759, 57.877018180136567 ], [ 56.279328564234014, 57.877285981453049 ], [ 56.277772990644067, 57.877208616987673 ], [ 56.275277395145238, 57.877593488943027 ], [ 56.273279984503432, 57.878449058290492 ], [ 56.271464815218664, 57.878620803213067 ], [ 56.27177974381334, 57.878756374097058 ], [ 56.271163702466062, 57.879558667848045 ], [ 56.26734310718998, 57.882962594137076 ] ] ] ] } },
{ "type": "Feature", "properties": { "id": null }, "geometry": { "type": "MultiPolygon", "coordinates": [ [ [ [ 56.243322280165899, 57.933971443895373 ], [ 56.246293184321303, 57.933871964436108 ], [ 56.260439236426713, 57.933100513670688 ], [ 56.262262871176382, 57.933026688912392 ], [ 56.26292837148096, 57.932761503597142 ], [ 56.264232505661923, 57.932092193558482 ], [ 56.2653989124017, 57.931207998331701 ], [ 56.26540622642478, 57.930453485267179 ], [ 56.265929627070605, 57.930567592389821 ], [ 56.26602612064675, 57.929671004878038 ], [ 56.266145235793992, 57.929345583758895 ], [ 56.266014822375901, 57.928653127953588 ], [ 56.265833133494425, 57.92815956381196 ], [ 56.265495405977873, 57.927365391310815 ], [ 56.265449697564158, 57.926760347273124 ], [ 56.26540622642478, 57.925906255026547 ], [ 56.264710688194945, 57.925306069941975 ], [ 56.264928043891764, 57.924659705554262 ], [ 56.265058457309863, 57.923805563338377 ], [ 56.264536803637483, 57.922997572272017 ], [ 56.26431944794065, 57.922304994030405 ], [ 56.264275976801279, 57.921866354235291 ], [ 56.26431944794065, 57.9211275803642 ], [ 56.263450025153332, 57.921473882508614 ], [ 56.262276304390475, 57.922120304243407 ], [ 56.261276468185081, 57.92281288604697 ], [ 56.261276468185081, 57.92355162524801 ], [ 56.261189525906353, 57.923944074267126 ], [ 56.259624564889201, 57.924705874824959 ], [ 56.260189689700937, 57.925467659220892 ], [ 56.25958109374983, 57.926090925341931 ], [ 56.259059440077451, 57.926460263123239 ], [ 56.258354881341752, 57.926904250829246 ], [ 56.25679894083045, 57.927383590955131 ], [ 56.255364393231403, 57.927637501946158 ], [ 56.254494970444092, 57.927637501946158 ], [ 56.252408355754568, 57.927752915439399 ], [ 56.251017279294878, 57.927522088081943 ], [ 56.250234798786309, 57.927452839585328 ], [ 56.249191491441543, 57.927291259240441 ], [ 56.248756780047891, 57.927429756723441 ], [ 56.248061241818036, 57.927637501946158 ], [ 56.246452809661534, 57.927522088081943 ], [ 56.24556948250008, 57.927160440716882 ], [ 56.244583550668828, 57.926991179527903 ], [ 56.243235945348509, 57.92715276122324 ], [ 56.243888012438966, 57.92842230638383 ], [ 56.244496608390094, 57.929091684847734 ], [ 56.244800906365654, 57.930084188563391 ], [ 56.244266819221856, 57.931079918057264 ], [ 56.243322280165899, 57.933971443895373 ] ] ] ] } },
{ "type": "Feature", "properties": { "id": null }, "geometry": { "type": "MultiPolygon", "coordinates": [ [ [ [ 56.221075565455173, 57.934687251055273 ], [ 56.225980619360939, 57.934627181480778 ], [ 56.230325016957053, 57.934492419963213 ], [ 56.231672622277365, 57.934284714406409 ], [ 56.233170057963029, 57.933897578535188 ], [ 56.232802871900866, 57.933384643104482 ], [ 56.231976920252926, 57.932715344684794 ], [ 56.23071625721132, 57.932230672521413 ], [ 56.229412123030379, 57.931192067277983 ], [ 56.228846998218629, 57.930799697476772 ], [ 56.228629642521796, 57.930199594191421 ], [ 56.228933940497356, 57.929761050831239 ], [ 56.229310314916496, 57.928800012710525 ], [ 56.23128138202307, 57.928653127953588 ], [ 56.2334984101307, 57.928237648059529 ], [ 56.236063207353261, 57.92789141114153 ], [ 56.235628495959602, 57.927775998093509 ], [ 56.23432436177864, 57.927868328561594 ], [ 56.231716093416736, 57.928052988785446 ], [ 56.230368488096403, 57.92789141114153 ], [ 56.229020882776084, 57.927429756723441 ], [ 56.227542864037673, 57.926968096369208 ], [ 56.22641261441418, 57.926506430078788 ], [ 56.225456249348142, 57.926229427455134 ], [ 56.224239057445914, 57.925490743344213 ], [ 56.223327713194351, 57.925572033945535 ], [ 56.222282856174473, 57.926344845474709 ], [ 56.218718222746531, 57.925975506506113 ], [ 56.217587973123024, 57.926321761900468 ], [ 56.215284002736666, 57.926021674084964 ], [ 56.213675570580158, 57.926090925341924 ], [ 56.21358862830143, 57.926460263123239 ], [ 56.213719041719521, 57.926968096369208 ], [ 56.215110118179204, 57.927314342191401 ], [ 56.216380175710547, 57.927903381053582 ], [ 56.217979213377319, 57.928237648059529 ], [ 56.219239876418904, 57.928976275658144 ], [ 56.21951621693588, 57.929773473155549 ], [ 56.220191671969033, 57.930516359420935 ], [ 56.22067442401795, 57.931145906347496 ], [ 56.221326491108442, 57.93165367331823 ], [ 56.221761202502101, 57.932507628844668 ], [ 56.221494335247229, 57.933436521955173 ], [ 56.221022193132889, 57.933800063432976 ], [ 56.221928556339975, 57.934333015422986 ], [ 56.221075565455173, 57.934687251055273 ] ] ] ] } },
{ "type": "Feature", "properties": { "id": null }, "geometry": { "type": "MultiPolygon", "coordinates": [ [ [ [ 56.303899849290978, 57.92926112884323 ], [ 56.299444128547918, 57.928976275658144 ], [ 56.299009417154274, 57.929391747004381 ], [ 56.298412103122956, 57.93064601302396 ], [ 56.301649999227138, 57.93046216987134 ], [ 56.303660829066345, 57.930199594191421 ], [ 56.305921328313325, 57.930014945008509 ], [ 56.308616538953977, 57.929807213542489 ], [ 56.309485961741288, 57.929207093666307 ], [ 56.317215962801555, 57.929389215606797 ], [ 56.322502747352324, 57.929619285592352 ], [ 56.328795191941204, 57.930132109823681 ], [ 56.329482685849307, 57.929622562341372 ], [ 56.332075973530749, 57.926801774362339 ], [ 56.331569300538831, 57.926598763811775 ], [ 56.330786820030269, 57.92599859030296 ], [ 56.329743512685496, 57.925652331792072 ], [ 56.329091445595019, 57.923528539878014 ], [ 56.327178715462949, 57.921312275256795 ], [ 56.326222350396904, 57.91997321576455 ], [ 56.325202195460186, 57.920042930455736 ], [ 56.323701024313714, 57.919026609104684 ], [ 56.321500752290355, 57.917388084928064 ], [ 56.320834471907702, 57.916629529853616 ], [ 56.321606420517, 57.915835102321246 ], [ 56.324067006709178, 57.915501950062385 ], [ 56.328569791922639, 57.915447748710598 ], [ 56.329786983824853, 57.91503211600574 ], [ 56.328656734201374, 57.914454840381715 ], [ 56.328569791922639, 57.91373900572367 ], [ 56.326657061790556, 57.913254077366737 ], [ 56.325526812167077, 57.913277169341676 ], [ 56.322788130387053, 57.913138617269283 ], [ 56.31779492425855, 57.913400456905897 ], [ 56.317553690318128, 57.912964766109177 ], [ 56.316267459482262, 57.913046248924132 ], [ 56.314900116973625, 57.913733628655578 ], [ 56.31316323260269, 57.913502971619536 ], [ 56.31213770124257, 57.913069341032681 ], [ 56.310659682504145, 57.912422756382114 ], [ 56.310138028831773, 57.912815327022159 ], [ 56.308920836929545, 57.913415720879733 ], [ 56.308138356420955, 57.913623547184827 ], [ 56.306573395403824, 57.913346445177517 ], [ 56.30605174173143, 57.912676773168464 ], [ 56.304878020968573, 57.912953880341476 ], [ 56.302983160317424, 57.913118539934906 ], [ 56.301835041213003, 57.912815327022159 ], [ 56.30105256070442, 57.912353478765006 ], [ 56.299965782220291, 57.911868531704606 ], [ 56.298689196178152, 57.912016479638147 ], [ 56.299313715129806, 57.912492033865618 ], [ 56.298879003736168, 57.91415465339086 ], [ 56.298705119178706, 57.915378476927081 ], [ 56.298640949390077, 57.915911983172919 ], [ 56.299313715129806, 57.916463719520642 ], [ 56.299748426523458, 57.916648438398724 ], [ 56.299922311080934, 57.917040962860483 ], [ 56.299052888293623, 57.916856246001075 ], [ 56.298661648039335, 57.916948604549532 ], [ 56.29796549435693, 57.917372688090197 ], [ 56.298399715449676, 57.918064580212459 ], [ 56.300965618425693, 57.917964532908449 ], [ 56.30326958881205, 57.91743348303266 ], [ 56.304617194132383, 57.916925514934675 ], [ 56.307373618032877, 57.916680782639446 ], [ 56.309110502403826, 57.916962671654211 ], [ 56.311963816685108, 57.917456572320972 ], [ 56.310920509340335, 57.919072785618155 ], [ 56.311329854655604, 57.919858312533037 ], [ 56.310063818142496, 57.919933847115459 ], [ 56.308718249182441, 57.91977166953852 ], [ 56.306527103077272, 57.919573504811211 ], [ 56.307660173887932, 57.920919797474625 ], [ 56.306747279961264, 57.920919797474625 ], [ 56.306182155149529, 57.921196841060237 ], [ 56.304225953878088, 57.921681662192341 ], [ 56.302400166024754, 57.92223573547161 ], [ 56.29992231108092, 57.922004872644166 ], [ 56.298400821203145, 57.92225882167272 ], [ 56.298061987933103, 57.924598459578277 ], [ 56.298544455813925, 57.92554641390565 ], [ 56.304768291476478, 57.926033191537577 ], [ 56.303899849290978, 57.92926112884323 ] ] ] ] } },
{ "type": "Feature", "properties": { "id": null }, "geometry": { "type": "MultiPolygon", "coordinates": [ [ [ [ 56.302182810327949, 57.931215147720991 ], [ 56.302008925770494, 57.932899979978103 ], [ 56.303921655902556, 57.933200010304176 ], [ 56.306138684010186, 57.933315405915685 ], [ 56.306573395403838, 57.934030850426943 ], [ 56.305095376665413, 57.934215478953718 ], [ 56.302356694885411, 57.934030850426943 ], [ 56.298618176900007, 57.933638511654323 ], [ 56.297096687022211, 57.934169321911043 ], [ 56.296314206513642, 57.936223252862263 ], [ 56.298183465506341, 57.93689248587382 ], [ 56.301009089565092, 57.937423248009857 ], [ 56.303921655902556, 57.937723240527731 ], [ 56.306703808821936, 57.937584782754136 ], [ 56.309964144274339, 57.937515553667055 ], [ 56.311311749594658, 57.936454024275847 ], [ 56.313354893144833, 57.935092451486966 ], [ 56.311746460988303, 57.933961614484573 ], [ 56.312050758963863, 57.932022953876711 ], [ 56.311963816685136, 57.930661212993634 ], [ 56.310224971110529, 57.930684293777929 ], [ 56.307921000724164, 57.930753536041763 ], [ 56.305182318944162, 57.930938181425752 ], [ 56.302182810327949, 57.931215147720991 ] ] ] ] } },
{ "type": "Feature", "properties": { "id": null }, "geometry": { "type": "MultiPolygon", "coordinates": [ [ [ [ 56.33019434879558, 57.930004025710652 ], [ 56.345281112571904, 57.93219030937653 ], [ 56.350917779719111, 57.932817416466641 ], [ 56.357888005154528, 57.934640379457534 ], [ 56.364303068480908, 57.936857870679248 ], [ 56.367344375618572, 57.937713875044366 ], [ 56.369128364950456, 57.937515553667048 ], [ 56.371493599393602, 57.936791854003665 ], [ 56.372779940657132, 57.935854015514145 ], [ 56.374736141928572, 57.934469341627384 ], [ 56.374931762055709, 57.933569274955147 ], [ 56.373823248001898, 57.933015376554138 ], [ 56.372084402427269, 57.932923059322981 ], [ 56.370606383688852, 57.932092193558503 ], [ 56.370475970270768, 57.931492111879336 ], [ 56.368954480392972, 57.93133054971333 ], [ 56.367824230769472, 57.930868939518064 ], [ 56.365346375825659, 57.929576399392708 ], [ 56.363781414808507, 57.9290224393785 ], [ 56.364085712784075, 57.928745456165998 ], [ 56.366520096588509, 57.928329977340411 ], [ 56.364042241644711, 57.927245093294097 ], [ 56.363303232275484, 57.925721583761394 ], [ 56.36234686720946, 57.924682790197053 ], [ 56.361955626955165, 57.924405773504269 ], [ 56.361173146446582, 57.924359603847698 ], [ 56.36012983910183, 57.925075226853494 ], [ 56.359695127708186, 57.92560616373833 ], [ 56.359130002896435, 57.926529513534305 ], [ 56.358912647199602, 57.927291259240484 ], [ 56.358477935805951, 57.928029906309426 ], [ 56.357478099600556, 57.928399224145252 ], [ 56.355348013771653, 57.928606963758391 ], [ 56.351652966925606, 57.928537717354239 ], [ 56.348262218055119, 57.928329977340411 ], [ 56.345175767160171, 57.928376141891817 ], [ 56.343349979306844, 57.9290224393785 ], [ 56.340263528411903, 57.929068603039518 ], [ 56.337785673468076, 57.928606963758391 ], [ 56.336481539287121, 57.928676210028975 ], [ 56.337045392703203, 57.929209894009865 ], [ 56.336514678034298, 57.929491684688621 ], [ 56.334488312934866, 57.929491684688621 ], [ 56.331255778133375, 57.928825630428847 ], [ 56.33019434879558, 57.930004025710652 ] ] ] ] } },
{ "type": "Feature", "properties": { "id": null }, "geometry": { "type": "MultiPolygon", "coordinates": [ [ [ [ 56.112050914529142, 57.972614865223591 ], [ 56.113061618519374, 57.971214318788327 ], [ 56.113844099027958, 57.97021142475333 ], [ 56.114626579536527, 57.96945058987022 ], [ 56.116550177453448, 57.967859701110129 ], [ 56.117691294861785, 57.967098816309225 ], [ 56.11710443448036, 57.966510848810579 ], [ 56.116224143908191, 57.965110063856983 ], [ 56.11711642979791, 57.964190524515068 ], [ 56.117854311634403, 57.960993860513447 ], [ 56.118897618979162, 57.95966204648937 ], [ 56.119560933727392, 57.958559739125221 ], [ 56.120169149805598, 57.957672881487603 ], [ 56.121008337369865, 57.956989786784447 ], [ 56.118930222333695, 57.957620988749937 ], [ 56.115735093590352, 57.958503155078276 ], [ 56.113761430129088, 57.958935643198743 ], [ 56.112605171556048, 57.959869605175498 ], [ 56.111337165288553, 57.960198554459801 ], [ 56.110554866618813, 57.960539146288497 ], [ 56.105465036915305, 57.964539357998774 ], [ 56.102335114881001, 57.966337915358054 ], [ 56.104160902734343, 57.966337915358054 ], [ 56.106703964387208, 57.965542410731643 ], [ 56.108464545531518, 57.965646173205734 ], [ 56.11074678034818, 57.965611585747737 ], [ 56.112637774910588, 57.966337915358054 ], [ 56.114398356054878, 57.96744467503899 ], [ 56.113159428582968, 57.968585985172595 ], [ 56.112116121238195, 57.96931225452002 ], [ 56.110355540093906, 57.969485173624335 ], [ 56.109964299839618, 57.970211424753323 ], [ 56.110029506548663, 57.971214318788313 ], [ 56.110225126675807, 57.971663882867453 ], [ 56.10976867971246, 57.972320927916861 ], [ 56.110438622774041, 57.972541435307029 ], [ 56.112050914529142, 57.972614865223591 ] ] ] ] } },
{ "type": "Feature", "properties": { "id": null }, "geometry": { "type": "MultiPolygon", "coordinates": [ [ [ [ 56.33966278095653, 58.003052935478777 ], [ 56.346224344135678, 58.003640919262061 ], [ 56.346371223492781, 58.005416944831296 ], [ 56.347816488142364, 58.005686005031265 ], [ 56.349538453499683, 58.006067856285902 ], [ 56.353585944271607, 58.006250094586029 ], [ 56.355793592950207, 58.006038822563511 ], [ 56.359144661435522, 58.005858121951846 ], [ 56.362444677273082, 58.005278748312442 ], [ 56.367204767033584, 58.004622307561604 ], [ 56.367465593869774, 58.004017680430373 ], [ 56.365607202661906, 58.004121331521034 ], [ 56.364759515444284, 58.004259532508385 ], [ 56.363846621517609, 58.004605032642445 ], [ 56.362933727590949, 58.004777781458962 ], [ 56.358825704920925, 58.004846880752147 ], [ 56.35820624118498, 58.004587757714937 ], [ 56.357782397576173, 58.003326665489361 ], [ 56.358988721693564, 58.00348214501409 ], [ 56.362086040373335, 58.00322301209772 ], [ 56.364140051708361, 58.002272842022307 ], [ 56.363496694268953, 58.002030331982624 ], [ 56.36244467727311, 58.000838901252649 ], [ 56.361499179991903, 58.000666133427657 ], [ 56.360260252519993, 58.00047608785723 ], [ 56.358695291502848, 58.00054519545413 ], [ 56.355728386241168, 58.001028944897158 ], [ 56.353576564842591, 58.001927319378431 ], [ 56.352109413889011, 58.001910043158688 ], [ 56.350968296480666, 58.001754556805921 ], [ 56.349924989135914, 58.001633622509104 ], [ 56.349501145527086, 58.002169185579291 ], [ 56.348490441536846, 58.002601085445079 ], [ 56.347153704001371, 58.001253540630962 ], [ 56.347088497292326, 58.000804347754347 ], [ 56.347610150964698, 57.999335793249315 ], [ 56.346925480519701, 57.998834743224563 ], [ 56.345914776529462, 57.998402797920164 ], [ 56.344904072539208, 57.997763509306381 ], [ 56.343739352851394, 57.998171119777929 ], [ 56.343241301458491, 57.998731076826758 ], [ 56.341496158903631, 57.999985037356211 ], [ 56.340046172715141, 58.000441534008786 ], [ 56.33966278095653, 58.003052935478777 ] ] ] ] } },
{ "type": "Feature", "properties": { "id": null }, "geometry": { "type": "MultiPolygon", "coordinates": [ [ [ [ 56.325342059824806, 58.014243142048855 ], [ 56.324461769252672, 58.015365692107196 ], [ 56.323222841780748, 58.016384591669841 ], [ 56.322668584753849, 58.017058085621805 ], [ 56.324135735707429, 58.017386193467367 ], [ 56.324526975961703, 58.017852446808703 ], [ 56.326091936978855, 58.01788698385154 ], [ 56.327917724832211, 58.018163278993946 ], [ 56.329319669076739, 58.018629522208442 ], [ 56.330265166357925, 58.019043955520431 ], [ 56.331601903893421, 58.019182098890887 ], [ 56.332808228010791, 58.019061223470906 ], [ 56.334210172255325, 58.019147563098279 ], [ 56.334741608572152, 58.01928285368345 ], [ 56.33509046282748, 58.019976412919505 ], [ 56.335383893018196, 58.020062750338212 ], [ 56.336864467247729, 58.019717254271036 ], [ 56.339051770402143, 58.020347662341592 ], [ 56.340258094519513, 58.019346143450512 ], [ 56.340844954900945, 58.019449750153264 ], [ 56.341268798509752, 58.019656962658537 ], [ 56.341737392844003, 58.019257300543451 ], [ 56.34240991591809, 58.018948981643796 ], [ 56.342735949463332, 58.018379133089347 ], [ 56.343377783638786, 58.017902958004868 ], [ 56.343257603135712, 58.017187602236071 ], [ 56.343224999781192, 58.016445033952593 ], [ 56.34270334610882, 58.016082378724583 ], [ 56.342181692436441, 58.015581563081035 ], [ 56.340453714646671, 58.014925311282198 ], [ 56.339149580465715, 58.014735341409846 ], [ 56.338171479829995, 58.015132549992664 ], [ 56.337878049639265, 58.015633371920963 ], [ 56.336704328876408, 58.01635868780312 ], [ 56.336189012214611, 58.017042625739492 ], [ 56.334943747732126, 58.016393226287903 ], [ 56.333639613551163, 58.01582333702553 ], [ 56.332139859243064, 58.015408866406176 ], [ 56.32966200429923, 58.014994390985692 ], [ 56.327379769482569, 58.014424479443228 ], [ 56.326140842010659, 58.014096344437462 ], [ 56.325342059824806, 58.014243142048855 ] ] ] ] } },
{ "type": "Feature", "properties": { "id": null }, "geometry": { "type": "MultiPolygon", "coordinates": [ [ [ [ 56.340627716718103, 58.00790990318572 ], [ 56.343746653453586, 58.008517588935021 ], [ 56.343393865901497, 58.009034580675092 ], [ 56.343127189717627, 58.009933949788596 ], [ 56.344072686998835, 58.009968494475054 ], [ 56.344626944025727, 58.009467593258087 ], [ 56.345931078206682, 58.009104867310732 ], [ 56.347854676123603, 58.009346685017434 ], [ 56.350723771321697, 58.009433048088155 ], [ 56.353560263165292, 58.009692136049885 ], [ 56.356005514754592, 58.009484865830558 ], [ 56.357374855644586, 58.00920850367082 ], [ 56.359331056916027, 58.008759410609734 ], [ 56.360408899831683, 58.008216636915066 ], [ 56.362049290626466, 58.00790990318572 ], [ 56.362965979600006, 58.007500920790761 ], [ 56.364873627185091, 58.007135719449408 ], [ 56.365493090921056, 58.006669326456112 ], [ 56.364612800348901, 58.005822894019822 ], [ 56.362591392368408, 58.006116556520368 ], [ 56.360211347488182, 58.006375668490655 ], [ 56.35740745899912, 58.006686600379062 ], [ 56.356404416420879, 58.006938562367012 ], [ 56.354179726901243, 58.00696298201234 ], [ 56.352255192645835, 58.006682941980785 ], [ 56.34860455327766, 58.006755695987458 ], [ 56.345597135890536, 58.006606255508913 ], [ 56.34469215073478, 58.007343003273469 ], [ 56.343909670226211, 58.00737755046076 ], [ 56.342051279018335, 58.007187540517968 ], [ 56.341366608573345, 58.007204814190807 ], [ 56.340844954900966, 58.007343003273469 ], [ 56.340627716718103, 58.00790990318572 ] ] ] ] } },
{ "type": "Feature", "properties": { "id": null }, "geometry": { "type": "MultiPolygon", "coordinates": [ [ [ [ 56.012219442976956, 58.045661234086452 ], [ 56.013490973803407, 58.04624790285559 ], [ 56.013653990576024, 58.046713780017711 ], [ 56.012969320131013, 58.047334940120088 ], [ 56.011143532277671, 58.047818057179832 ], [ 56.011208738986731, 58.048335675353343 ], [ 56.011540599999982, 58.048673 ], [ 56.015218951593177, 58.047835311239758 ], [ 56.017077342801031, 58.047835311239758 ], [ 56.018055443436751, 58.047524736886771 ], [ 56.017696806536996, 58.047231414186122 ], [ 56.019261767554141, 58.047110633550794 ], [ 56.020826728571294, 58.046731034610801 ], [ 56.020533298380563, 58.046161628640604 ], [ 56.019979041353658, 58.045971824634456 ], [ 56.018251063563888, 58.046109864011633 ], [ 56.016229655583409, 58.046127118896287 ], [ 56.013980024121253, 58.045902804745964 ], [ 56.012219442976956, 58.045661234086452 ] ] ] ] } },
{ "type": "Feature", "properties": { "id": null }, "geometry": { "type": "MultiPolygon", "coordinates": [ [ [ [ 56.009154727651726, 58.052415969433916 ], [ 56.011306549050296, 58.051820775856761 ], [ 56.011665185950065, 58.051449853105581 ], [ 56.011208738986731, 58.050975411416083 ], [ 56.011469565822914, 58.050613106247418 ], [ 56.012300951363287, 58.050423325883415 ], [ 56.012072727881609, 58.049983376617483 ], [ 56.011926012786247, 58.049586554986263 ], [ 56.011453264145651, 58.049008567770166 ], [ 56.010980515505054, 58.048585854782907 ], [ 56.009920906483032, 58.048879166366355 ], [ 56.009089520942666, 58.049043074732054 ], [ 56.008160325338729, 58.049250115803538 ], [ 56.007377844830167, 58.050043762131551 ], [ 56.006758381094201, 58.050423325883415 ], [ 56.007231129734812, 58.050638985309853 ], [ 56.008095118629697, 58.050768380340969 ], [ 56.009562269583263, 58.050587227166226 ], [ 56.010083923255657, 58.050949532597279 ], [ 56.008796090751964, 58.051285955779626 ], [ 56.009154727651726, 58.052415969433916 ] ] ] ] } },
{ "type": "Feature", "properties": { "id": null }, "geometry": { "type": "MultiPolygon", "coordinates": [ [ [ [ 56.022196069461287, 58.047093379140982 ], [ 56.022359086233905, 58.047619634892101 ], [ 56.021853734238796, 58.047749040856893 ], [ 56.019995343030928, 58.047964716423536 ], [ 56.019653007808415, 58.048163136795225 ], [ 56.021413588952718, 58.048232152318448 ], [ 56.022456896297477, 58.048370182965016 ], [ 56.02345129861046, 58.048171763742943 ], [ 56.023695823769401, 58.047990597404073 ], [ 56.023467600287731, 58.047628261970992 ], [ 56.024820639500476, 58.047309058664716 ], [ 56.025211879754764, 58.046998479738178 ], [ 56.024820639500476, 58.046748289195527 ], [ 56.0245806, 58.0464195 ], [ 56.022196069461287, 58.047093379140982 ] ] ] ] } },
{ "type": "Feature", "properties": { "id": null }, "geometry": { "type": "MultiPolygon", "coordinates": [ [ [ [ 55.759103300130413, 58.095967558678048 ], [ 55.760146607475171, 58.096027866463423 ], [ 55.759983590702554, 58.095398937403161 ], [ 55.760358529279571, 58.094856154093854 ], [ 55.760570451083979, 58.094511525483689 ], [ 55.7609942946928, 58.093977344557786 ], [ 55.760309624247789, 58.093494851684582 ], [ 55.760162909152434, 58.093064048961601 ], [ 55.759967289025298, 58.092624624824467 ], [ 55.759445635352904, 58.092495381401051 ], [ 55.759478238707437, 58.092822797164253 ], [ 55.759820573929936, 58.093641323425217 ], [ 55.759902082316245, 58.094184125219982 ], [ 55.759527143739227, 58.094830307063589 ], [ 55.7590356, 58.0950556 ], [ 55.759103300130413, 58.095967558678048 ] ] ] ] } },
{ "type": "Feature", "properties": { "id": null }, "geometry": { "type": "MultiPolygon", "coordinates": [ [ [ [ 56.286381051168725, 57.902130679627554 ], [ 56.288092727281231, 57.904746561148087 ], [ 56.288532872567309, 57.904798530375039 ], [ 56.289657688298384, 57.904954437604943 ], [ 56.290635788934104, 57.905058375382417 ], [ 56.292054034855894, 57.905630027784802 ], [ 56.293814616000184, 57.906877237824162 ], [ 56.294352571349826, 57.90773466961484 ], [ 56.294156951222689, 57.909163677131119 ], [ 56.294548191476963, 57.910800470450724 ], [ 56.294694906572339, 57.911787706558179 ], [ 56.294303666318044, 57.912722957845844 ], [ 56.294694906572339, 57.913891987716127 ], [ 56.295868627335196, 57.915242819297525 ], [ 56.296504392748403, 57.916229933328694 ], [ 56.297433588352341, 57.916801408000659 ], [ 56.297824828606636, 57.915892239476022 ], [ 56.29796549435693, 57.914810008574634 ], [ 56.298496209025828, 57.913297941899685 ], [ 56.298689196178152, 57.912016479638147 ], [ 56.298362783956271, 57.910306842223534 ], [ 56.298607309115198, 57.908903861810082 ], [ 56.298754024210567, 57.907526809241425 ], [ 56.298607309115191, 57.905127667067049 ], [ 56.298770325887816, 57.903897719802117 ], [ 56.298802929242349, 57.902788998867194 ], [ 56.2985563, 57.9020637 ], [ 56.297091253129828, 57.901636932283949 ], [ 56.295265465276493, 57.901056553926473 ], [ 56.294271062963503, 57.900805342477398 ], [ 56.293325565682316, 57.900380877763183 ], [ 56.292869118718976, 57.900276926456769 ], [ 56.290994425833851, 57.900848654921468 ], [ 56.286381051168725, 57.902130679627554 ] ] ] ] } },
{ "type": "Feature", "properties": { "id": null }, "geometry": { "type": "MultiPolygon", "coordinates": [ [ [ [ 56.271120533868768, 57.905755774891226 ], [ 56.271269396346888, 57.906305605263121 ], [ 56.271220491315106, 57.907708687133947 ], [ 56.271220491315106, 57.9086180627869 ], [ 56.272002971823667, 57.909189658559889 ], [ 56.273567932840812, 57.909033769705459 ], [ 56.274790558635473, 57.90864404461022 ], [ 56.276404424684408, 57.908176368915804 ], [ 56.277724860542612, 57.907344930428287 ], [ 56.276648949843327, 57.906851254723222 ], [ 56.275377419016905, 57.905915850575731 ], [ 56.273937221923255, 57.905656602689724 ], [ 56.271120533868768, 57.905755774891226 ] ] ] ] } },
{ "type": "Feature", "properties": { "id": null }, "geometry": { "type": "MultiPolygon", "coordinates": [ [ [ [ 56.303565056712536, 57.895907451211258 ], [ 56.305178922761471, 57.897993170338438 ], [ 56.305949177012096, 57.898363519025992 ], [ 56.30719625532263, 57.898558437855179 ], [ 56.30873676382388, 57.89869488040668 ], [ 56.311084205349616, 57.898733863897696 ], [ 56.313064859136936, 57.898383010956479 ], [ 56.312698071398543, 57.897759263938134 ], [ 56.312514677529343, 57.896882101380378 ], [ 56.312331283660157, 57.896424019092315 ], [ 56.31044232680744, 57.896365540082165 ], [ 56.307012861453437, 57.895907451211258 ], [ 56.30563740743446, 57.895829478056086 ], [ 56.304757116862312, 57.895926944473608 ], [ 56.303565056712536, 57.895907451211258 ] ] ] ] } },
{ "type": "Feature", "properties": { "id": null }, "geometry": { "type": "MultiPolygon", "coordinates": [ [ [ [ 56.302538051045026, 57.895459103259384 ], [ 56.306121886051699, 57.895381566504994 ], [ 56.309066872788442, 57.895732011374307 ], [ 56.312734750172389, 57.896043903825806 ], [ 56.3136883982922, 57.896024410626865 ], [ 56.314311937447478, 57.895088724646627 ], [ 56.315228906793472, 57.894698848300052 ], [ 56.315448979436511, 57.894347955972869 ], [ 56.315375621888826, 57.89395807159238 ], [ 56.315045512924279, 57.893568182983465 ], [ 56.313578361970698, 57.893236774341275 ], [ 56.311450993088002, 57.89306132147037 ], [ 56.308406654859326, 57.893139300629826 ], [ 56.305655746821387, 57.893041826654077 ], [ 56.304775456249239, 57.893178290146118 ], [ 56.304445347284663, 57.893782622241638 ], [ 56.304151917093961, 57.894230991102688 ], [ 56.303381662843336, 57.894562390579793 ], [ 56.302538051045026, 57.895459103259384 ] ] ] ] } },
{ "type": "Feature", "properties": { "id": null }, "geometry": { "type": "MultiPolygon", "coordinates": [ [ [ [ 56.3006231, 57.8871279 ], [ 56.301731118020562, 57.887036920178204 ], [ 56.302446354110437, 57.887046669215714 ], [ 56.303271626521806, 57.887114912404321 ], [ 56.304298632189315, 57.887699848708294 ], [ 56.305765783142895, 57.887855830115718 ], [ 56.30635264352432, 57.886724949582216 ], [ 56.306939503905753, 57.885243052290129 ], [ 56.308406654859326, 57.883878092863625 ], [ 56.308553369954701, 57.882552082670159 ], [ 56.310020520908274, 57.881226023586812 ], [ 56.310387308646675, 57.879509874550713 ], [ 56.311707744504886, 57.877871655905238 ], [ 56.311120884123454, 57.876584431771647 ], [ 56.310827453932745, 57.875687248318428 ], [ 56.30987380581292, 57.875180134729959 ], [ 56.3080746, 57.8747633 ], [ 56.3077492, 57.8756935 ], [ 56.3068864, 57.8774476 ], [ 56.304445347284684, 57.878183703304124 ], [ 56.304225274641645, 57.879665891482965 ], [ 56.303565056712536, 57.881577043984464 ], [ 56.303491699164852, 57.883878092863625 ], [ 56.3006231, 57.8871279 ] ] ] ] } },
{ "type": "Feature", "properties": { "id": null }, "geometry": { "type": "MultiPolygon", "coordinates": [ [ [ [ 56.181742813569059, 58.00208725898549 ], [ 56.181278597837654, 58.0022512469547 ], [ 56.181175592060676, 58.002468151012337 ], [ 56.181175592060676, 58.002468151012337 ], [ 56.182526644083147, 58.002301434647855 ], [ 56.183276799999987, 58.0022915 ], [ 56.184369499999988, 58.0021469 ], [ 56.185978621482555, 58.001875192843507 ], [ 56.18712771605334, 58.001915070809368 ], [ 56.187151181914466, 58.001770977881023 ], [ 56.187133676526678, 58.00165578030078 ], [ 56.186771817325933, 58.001234509436465 ], [ 56.186895608187641, 58.00052933581226 ], [ 56.186709921895087, 58.000701530653416 ], [ 56.186152863017391, 58.000750729027324 ], [ 56.185796964289999, 58.001095115751738 ], [ 56.185162536123734, 58.001259108265657 ], [ 56.184667372676913, 58.001144313584788 ], [ 56.18479116353862, 58.00093112248662 ], [ 56.184543581815198, 58.000922922803625 ], [ 56.184187683087792, 58.00110331539527 ], [ 56.18356872877925, 58.001283707077953 ], [ 56.182934300612999, 58.001488696523126 ], [ 56.181742813569059, 58.00208725898549 ] ] ] ] } },
{ "type": "Feature", "properties": { "id": null }, "geometry": { "type": "MultiPolygon", "coordinates": [ [ [ [ 56.247077194627671, 57.881837652526677 ], [ 56.256991909578488, 57.880221588785197 ], [ 56.259081154421096, 57.879830744576488 ], [ 56.259452495770638, 57.879336570728903 ], [ 56.260195272176482, 57.879040905518075 ], [ 56.263577596151642, 57.878759373308398 ], [ 56.263723311735149, 57.877625733831096 ], [ 56.265798219000139, 57.876802497027953 ], [ 56.265965812161689, 57.875565380164758 ], [ 56.268117887325786, 57.874663566363587 ], [ 56.269005359810841, 57.874179945563689 ], [ 56.270717495421657, 57.873083643982547 ], [ 56.2715840314536, 57.872161990553202 ], [ 56.272617869416202, 57.871855692066973 ], [ 56.272388672054717, 57.871075725844833 ], [ 56.271274554299346, 57.870483203999669 ], [ 56.270222331974828, 57.870121102513238 ], [ 56.268176221877752, 57.870338084604334 ], [ 56.267251351293837, 57.86954502445677 ], [ 56.265951547245898, 57.868557440617224 ], [ 56.26421847518197, 57.867438146166648 ], [ 56.262856775703199, 57.866648035005454 ], [ 56.261126082912078, 57.865359656257191 ], [ 56.26155697165526, 57.864475139865377 ], [ 56.260195272176482, 57.863158169870836 ], [ 56.258524095543414, 57.862499666802648 ], [ 56.257595664080611, 57.862532592242182 ], [ 56.257100500633776, 57.863421567724856 ], [ 56.256976709772069, 57.864343445034429 ], [ 56.256605337186933, 57.866351738847726 ], [ 56.256729128048654, 57.86756982967367 ], [ 56.256914814341208, 57.868689120028492 ], [ 56.257100500633776, 57.870302153711918 ], [ 56.257533768649751, 57.871487193607884 ], [ 56.25827651382, 57.87227719852298 ], [ 56.258400304681707, 57.872869690826334 ], [ 56.256791023479501, 57.873330511427973 ], [ 56.255862592016705, 57.873659665387017 ], [ 56.255367428569862, 57.874021731263902 ], [ 56.255615010293276, 57.874515451587648 ], [ 56.255738801154976, 57.875206648658391 ], [ 56.255738801154976, 57.875832005994027 ], [ 56.255243637708162, 57.876457352459298 ], [ 56.253881938229377, 57.876951039358659 ], [ 56.252148866165449, 57.877280160194346 ], [ 56.249796839793007, 57.877576366371954 ], [ 56.248524598270116, 57.877604950681523 ], [ 56.245587950494937, 57.877708012779109 ], [ 56.243792983000162, 57.877971304148105 ], [ 56.243483505845909, 57.87853079190868 ], [ 56.245464159633229, 57.879156091460956 ], [ 56.245897427649211, 57.880505385038369 ], [ 56.246083113941772, 57.880999016384045 ], [ 56.247077194627671, 57.881837652526677 ] ] ] ] } },
{ "type": "Feature", "properties": { "id": null }, "geometry": { "type": "MultiPolygon", "coordinates": [ [ [ [ 56.35279083673403, 57.980261959998963 ], [ 56.353007470742021, 57.980261959998963 ], [ 56.352821784449461, 57.980393230405753 ], [ 56.353069366172868, 57.980639361122186 ], [ 56.353347895611705, 57.980721404318608 ], [ 56.353812111343117, 57.980803447327155 ], [ 56.35368832048141, 57.980852673042115 ], [ 56.353874006773964, 57.98113161748271 ], [ 56.354245379359099, 57.981180842746795 ], [ 56.354462013367076, 57.98124647632703 ], [ 56.354678647375074, 57.981344926471927 ], [ 56.354833385952205, 57.98154182595021 ], [ 56.354895281383051, 57.98154182595021 ], [ 56.355235706252756, 57.98154182595021 ], [ 56.355111915391049, 57.981738724346386 ], [ 56.355761817415008, 57.982181741781396 ], [ 56.356566458016111, 57.982509899312589 ], [ 56.35631887629269, 57.982838053838016 ], [ 56.357432994048075, 57.983297465123975 ], [ 56.357866262064057, 57.983166205357712 ], [ 56.359042275250268, 57.983412317024964 ], [ 56.359351752404542, 57.984232677038499 ], [ 56.359815968135948, 57.985118644753321 ], [ 56.362415576231825, 57.986365525158504 ], [ 56.364024857434025, 57.985758496698367 ], [ 56.365665086351662, 57.98520067769266 ], [ 56.36294168739407, 57.983395909633089 ], [ 56.360775347314195, 57.982165333825932 ], [ 56.356504562585265, 57.979277416618039 ], [ 56.356009399138436, 57.978817953782077 ], [ 56.35279083673403, 57.980261959998963 ] ] ] ] } },
{ "type": "Feature", "properties": { "id": null }, "geometry": { "type": "MultiPolygon", "coordinates": [ [ [ [ 56.591645304399499, 58.046226182667439 ], [ 56.591796174512211, 58.046392015715909 ], [ 56.591970255411489, 58.046281460435772 ], [ 56.592596946648889, 58.046207756725678 ], [ 56.592747816761594, 58.046035780810996 ], [ 56.593084373166867, 58.045783957442801 ], [ 56.59350216732512, 58.045912940365234 ], [ 56.593780696763979, 58.046084916871052 ], [ 56.59424491249537, 58.046250750575027 ], [ 56.595010868452192, 58.046017354771045 ], [ 56.595544716543309, 58.045796241550704 ], [ 56.596310672500124, 58.045562842778438 ], [ 56.596008932274714, 58.045372437387933 ], [ 56.595567927329874, 58.045280305383173 ], [ 56.595022473845489, 58.045114467176099 ], [ 56.594372571821509, 58.044862637316115 ], [ 56.593769091370689, 58.044819641796835 ], [ 56.593444140358706, 58.044991623563639 ], [ 56.593188821706434, 58.045255736808457 ], [ 56.592701395188463, 58.045593553230304 ], [ 56.592330022603342, 58.045943650516243 ], [ 56.591645304399499, 58.046226182667439 ] ] ] ] } },
{ "type": "Feature", "properties": { "id": null }, "geometry": { "type": "MultiPolygon", "coordinates": [ [ [ [ 56.599119177675107, 58.040759403280468 ], [ 56.59971528537362, 58.040915604268385 ], [ 56.600442192509604, 58.041306118846464 ], [ 56.600674300375317, 58.041815969648034 ], [ 56.601022462173859, 58.041600973208823 ], [ 56.60132420239929, 58.041373689852662 ], [ 56.601950893636683, 58.041263119048729 ], [ 56.602728454986774, 58.041164833602565 ], [ 56.60267042802036, 58.040630401759095 ], [ 56.602856114312914, 58.040089818892248 ], [ 56.60235708240166, 58.039776522807131 ], [ 56.600651089588744, 58.039543084723249 ], [ 56.599780685092362, 58.039334217777082 ], [ 56.599502155653518, 58.039524655335917 ], [ 56.599397707113951, 58.039874812070593 ], [ 56.599293258574384, 58.040335539390604 ], [ 56.599119177675107, 58.040759403280468 ] ] ] ] } },
{ "type": "Feature", "properties": { "id": null }, "geometry": { "type": "MultiPolygon", "coordinates": [ [ [ [ 56.599641420372919, 58.042479379080241 ], [ 56.599293258574377, 58.04292778774095 ], [ 56.599606604193063, 58.043302481074591 ], [ 56.600244900823746, 58.04349903994116 ], [ 56.600941224420858, 58.043935151066492 ], [ 56.601324202399269, 58.044193129790592 ], [ 56.601533099478409, 58.043922866318873 ], [ 56.601788418130681, 58.043492897492932 ], [ 56.601463467118684, 58.043333193468754 ], [ 56.600778748914863, 58.042860219672576 ], [ 56.600279717003602, 58.042522377414862 ], [ 56.599641420372919, 58.042479379080241 ] ] ] ] } },
{ "type": "Feature", "properties": { "id": null }, "geometry": { "type": "MultiPolygon", "coordinates": [ [ [ [ 56.586016688656223, 58.047761644433507 ], [ 56.586480904387606, 58.048228411734321 ], [ 56.587014752478737, 58.04825911989564 ], [ 56.587200438771291, 58.048124003788502 ], [ 56.587072779445158, 58.047964320457758 ], [ 56.586550536747339, 58.047712510678778 ], [ 56.586016688656223, 58.047761644433507 ] ] ] ] } },
{ "type": "Feature", "properties": { "id": null }, "geometry": { "type": "MultiPolygon", "coordinates": [ [ [ [ 56.390918422140103, 58.145930802424594 ], [ 56.390813973600537, 58.145698057955961 ], [ 56.390396179442263, 58.145710307702764 ], [ 56.389723066631738, 58.145710307702764 ], [ 56.389398115619755, 58.145943052091312 ], [ 56.389298585193117, 58.146361942542477 ], [ 56.3895062, 58.1466118 ], [ 56.3899665, 58.146564 ], [ 56.390362, 58.1464957 ], [ 56.390767552027398, 58.146641276127227 ], [ 56.390999659893097, 58.147229243640965 ], [ 56.39162635113049, 58.147339486468645 ], [ 56.392415517873879, 58.14737623400201 ], [ 56.392804908651065, 58.146878482308409 ], [ 56.392856522818718, 58.146757645468469 ], [ 56.392891338998581, 58.146567779505183 ], [ 56.392821706638877, 58.146426910555462 ], [ 56.392891338998581, 58.1462615419467 ], [ 56.393077025291134, 58.146096172569735 ], [ 56.393378765516566, 58.145838929789797 ], [ 56.393738532708397, 58.145673558449673 ], [ 56.394225959226368, 58.145477561792596 ], [ 56.395015125969763, 58.145195814707535 ], [ 56.395073152936185, 58.144791564995117 ], [ 56.395003520576473, 58.144571063217228 ], [ 56.394620542598069, 58.144589438417555 ], [ 56.3939432, 58.144602300000017 ], [ 56.393285922370261, 58.144013677633851 ], [ 56.392926155178422, 58.144338309858945 ], [ 56.392543177200011, 58.144724189596765 ], [ 56.392415517873879, 58.144981440431721 ], [ 56.392473544840307, 58.145428562459692 ], [ 56.392253042367877, 58.14580830552552 ], [ 56.391823642816334, 58.145894053399125 ], [ 56.390918422140103, 58.145930802424594 ] ] ] ] } },
{ "type": "Feature", "properties": { "id": null }, "geometry": { "type": "MultiPolygon", "coordinates": [ [ [ [ 56.407688215437112, 58.134169177925358 ], [ 56.40877912240591, 58.134438758650013 ], [ 56.410218191173271, 58.134671576724678 ], [ 56.411657259940625, 58.134916646738056 ], [ 56.412550407277394, 58.134832824611017 ], [ 56.411935789379463, 58.134475519499823 ], [ 56.411680470727191, 58.133960864149628 ], [ 56.411321379669701, 58.133593965627426 ], [ 56.410566352971827, 58.133531979010215 ], [ 56.409800397015005, 58.133568740795965 ], [ 56.409289759710454, 58.133826072233738 ], [ 56.407688215437112, 58.134169177925358 ] ] ] ] } },
{ "type": "Feature", "properties": { "id": null }, "geometry": { "type": "MultiPolygon", "coordinates": [ [ [ [ 56.134598804696672, 58.034717332356543 ], [ 56.137114273691225, 58.033560713780957 ], [ 56.136748703802745, 58.033450118809945 ], [ 56.136287389419657, 58.033132156362782 ], [ 56.135860891216431, 58.033012343692725 ], [ 56.135382168743412, 58.033353347929683 ], [ 56.134163602448474, 58.033851023952337 ], [ 56.133815440649933, 58.034067603021185 ], [ 56.134598804696672, 58.034717332356543 ] ] ] ] } },
{ "type": "Feature", "properties": { "id": null }, "geometry": { "type": "MultiPolygon", "coordinates": [ [ [ [ 56.104465401031852, 58.001543018529389 ], [ 56.103890934064225, 58.001930444787369 ], [ 56.103664628895167, 58.002207175261809 ], [ 56.103734261254893, 58.002327091136408 ], [ 56.102968305298063, 58.002603818544785 ], [ 56.102219757431179, 58.002640715370958 ], [ 56.10152343383406, 58.002548473234249 ], [ 56.10087933450675, 58.00252080054689 ], [ 56.100809702147025, 58.002954336857911 ], [ 56.101018599226165, 58.003350971862545 ], [ 56.101506025744143, 58.003489331876779 ], [ 56.101749739003125, 58.003360195880141 ], [ 56.102306797880821, 58.00319416319995 ], [ 56.10291608102829, 58.003286403672917 ], [ 56.103560180355601, 58.003572347628655 ], [ 56.105057276089397, 58.00366458712714 ], [ 56.105544702607354, 58.003470883905784 ], [ 56.105144316539025, 58.003203387257933 ], [ 56.105179132718888, 58.002898992089264 ], [ 56.104813562830394, 58.002631491167982 ], [ 56.10460466575126, 58.002299418277936 ], [ 56.10500505181961, 58.001865874035538 ], [ 56.104918011369968, 58.001718283308279 ], [ 56.104465401031852, 58.001543018529389 ] ] ] ] } }
]
}
