{
"type": "FeatureCollection",
"name": "зоны в первом сценарии",
"crs": { "type": "name", "properties": { "name": "urn:ogc:def:crs:OGC:1.3:CRS84" } },
"features": [
{ "type": "Feature", "properties": { "id": null }, "geometry": { "type": "MultiPolygon", "coordinates": [ [ [ [ 56.339243304256925, 58.018010698556338 ], [ 56.344137015412123, 58.019428498630283 ], [ 56.3457977, 58.019083199999983 ], [ 56.3460343, 58.0182842 ], [ 56.347106703378117, 58.016969465844674 ], [ 56.3477157, 58.0160816 ], [ 56.349992738161951, 58.014886909512434 ], [ 56.351038402938705, 58.014842598486261 ], [ 56.352167720897604, 58.015064153068252 ], [ 56.353171559083286, 58.015241395746131 ], [ 56.353380692038627, 58.015440792709285 ], [ 56.354719142952881, 58.015330016755833 ], [ 56.354886449317171, 58.014886909512434 ], [ 56.353840784540402, 58.014687509462625 ], [ 56.353840784540402, 58.014266550152882 ], [ 56.355472021592135, 58.014443796781656 ], [ 56.355764807729635, 58.013956366439871 ], [ 56.356977778870657, 58.013601867475415 ], [ 56.35701960546173, 58.013646180038023 ], [ 56.358023443647433, 58.013845585890742 ], [ 56.357688830918867, 58.013491085828797 ], [ 56.358859975468825, 58.012560506456758 ], [ 56.361662357070529, 58.012028735950246 ], [ 56.362289755936573, 58.011563430274791 ], [ 56.363293594122268, 58.011098118549214 ], [ 56.363670033441892, 58.010588484479236 ], [ 56.362791675029428, 58.009613512122989 ], [ 56.361787836843732, 58.009148175043904 ], [ 56.360282079565216, 58.009214652139924 ], [ 56.359654680699151, 58.008660672566862 ], [ 56.360825825249123, 58.008217482734516 ], [ 56.361076784795543, 58.008084524714654 ], [ 56.363837339806182, 58.006511150642531 ], [ 56.364004646170457, 58.005979290244667 ], [ 56.362498888891935, 58.006178738819983 ], [ 56.359487374334883, 58.006511150642531 ], [ 56.358023443647433, 58.006910040754633 ], [ 56.3564688, 58.007067500000012 ], [ 56.355179235454642, 58.006976522007804 ], [ 56.35379895794933, 58.007043003137483 ], [ 56.352000414533315, 58.006932201186061 ], [ 56.350912923165502, 58.007131644451647 ], [ 56.349825431797676, 58.008350440260465 ], [ 56.347775928835247, 58.010078843151732 ], [ 56.344513454731768, 58.01309226906119 ], [ 56.341669246538999, 58.01566234358733 ], [ 56.339243304256925, 58.018010698556338 ] ] ] ] } },
{ "type": "Feature", "properties": { "id": null }, "geometry": { "type": "MultiPolygon", "coordinates": [ [ [ [ 56.335708957311503, 58.017412547298107 ], [ 56.337821200160533, 58.018154696439794 ], [ 56.340979107786332, 58.015296783902905 ], [ 56.343112263930912, 58.013313834480833 ], [ 56.346667524171878, 58.010145318519072 ], [ 56.350013651457481, 58.007043003137483 ], [ 56.347127616673639, 58.006754917350385 ], [ 56.345663685986196, 58.00673275680915 ], [ 56.344994460529058, 58.006954361603796 ], [ 56.343906969161239, 58.008261801964714 ], [ 56.342568518247006, 58.009236811144476 ], [ 56.340853628013122, 58.01078790737094 ], [ 56.340937281195266, 58.011275380872348 ], [ 56.337883940047135, 58.01346892945832 ], [ 56.337423847545367, 58.014266550152882 ], [ 56.338009419820352, 58.014798287405242 ], [ 56.338009419820352, 58.015086308451011 ], [ 56.336754622088257, 58.016216214780783 ], [ 56.336043570040047, 58.016614996731171 ], [ 56.335708957311503, 58.017412547298107 ] ] ] ] } },
{ "type": "Feature", "properties": { "id": null }, "geometry": { "type": "MultiPolygon", "coordinates": [ [ [ [ 56.3229518470351, 58.01698054294787 ], [ 56.322951847035107, 58.017035928412497 ], [ 56.323265546468136, 58.017534393735851 ], [ 56.32431121124489, 58.017733777920697 ], [ 56.324980436702006, 58.018021775337189 ], [ 56.326674413640355, 58.018498073669235 ], [ 56.32696719977784, 58.018398383845359 ], [ 56.327092679551058, 58.018143619700105 ], [ 56.328159257623341, 58.01845376711514 ], [ 56.329079442626892, 58.018763911841525 ], [ 56.331233512066994, 58.019395269584031 ], [ 56.332132783775009, 58.018686375911983 ], [ 56.333450321393727, 58.0189522126851 ], [ 56.335939003562395, 58.020015540024559 ], [ 56.336524575837366, 58.019672177359567 ], [ 56.337591153909656, 58.018741758735935 ], [ 56.337361107658772, 58.01845376711514 ], [ 56.335332517991858, 58.017844546432158 ], [ 56.335060645149895, 58.017623009066277 ], [ 56.335123385036518, 58.017368239399666 ], [ 56.335039731854366, 58.017013774236929 ], [ 56.333805847417793, 58.016548533381417 ], [ 56.332237350252669, 58.016038976931704 ], [ 56.329665014901856, 58.015152774516942 ], [ 56.325733315341253, 58.013967444475917 ], [ 56.3229518470351, 58.01698054294787 ] ] ] ] } },
{ "type": "Feature", "properties": { "id": null }, "geometry": { "type": "MultiPolygon", "coordinates": [ [ [ [ 56.339619743576584, 58.002732554373779 ], [ 56.342338471996143, 58.003242300311626 ], [ 56.344178842003224, 58.00333095103813 ], [ 56.344396076964969, 58.00212577109285 ], [ 56.343425963363963, 57.999407946308821 ], [ 56.343425963363963, 57.998898145772742 ], [ 56.342589431542557, 57.999452276447158 ], [ 56.341669246539006, 58.000006398545345 ], [ 56.339962130271516, 57.999999910340513 ], [ 56.339619743576584, 58.002732554373779 ] ] ] ] } },
{ "type": "Feature", "properties": { "id": null }, "geometry": { "type": "MultiPolygon", "coordinates": [ [ [ [ 56.344429801549644, 57.998432669378431 ], [ 56.344346148367507, 57.999053303226056 ], [ 56.344513454731782, 58.000072892620807 ], [ 56.34459710791392, 58.000427525604231 ], [ 56.344722587687116, 58.001447075864448 ], [ 56.344931720642485, 58.001956840106516 ], [ 56.345977385419239, 58.00333095103813 ], [ 56.346604784285283, 58.004017986724925 ], [ 56.346437477921008, 58.004793656330158 ], [ 56.346521131103145, 58.005236888558144 ], [ 56.347274009742414, 58.005613631636812 ], [ 56.348988899976277, 58.005946048707401 ], [ 56.351163210942687, 58.006166231042705 ], [ 56.354719142952902, 58.006056853711584 ], [ 56.357939790465288, 58.005879565540248 ], [ 56.360240252974165, 58.005680115297899 ], [ 56.361746010252681, 58.005414179912627 ], [ 56.362791675029435, 58.005103919466009 ], [ 56.362164276163377, 58.004970949879933 ], [ 56.360867651840202, 58.005037434734724 ], [ 56.35986381365452, 58.005281211479087 ], [ 56.358190750011708, 58.005236888558144 ], [ 56.357563351145664, 58.005746598835501 ], [ 56.357437871372447, 58.005037434734724 ], [ 56.357688830918875, 58.00472717102258 ], [ 56.357061432052824, 58.004128797697611 ], [ 56.355848460911787, 58.003463926716265 ], [ 56.355221062045743, 58.003064998199982 ], [ 56.354091744086851, 58.002843369325539 ], [ 56.352836946354742, 58.002688228297004 ], [ 56.352000414533336, 58.002688228297004 ], [ 56.350661963619089, 58.002710391342248 ], [ 56.348947073385219, 58.002688228297004 ], [ 56.348152368154871, 58.002222801177382 ], [ 56.347524969288834, 58.001535731036654 ], [ 56.346939397013848, 58.000892976064087 ], [ 56.346855743831696, 58.000250209551623 ], [ 56.347064876787066, 57.999452276447144 ], [ 56.347190356560262, 57.998875980367366 ], [ 56.347608622470972, 57.998587828848912 ], [ 56.347190356560262, 57.998410503684916 ], [ 56.346521131103145, 57.998632160002707 ], [ 56.344429801549644, 57.998432669378431 ] ] ] ] } },
{ "type": "Feature", "properties": { "id": null }, "geometry": { "type": "MultiPolygon", "coordinates": [ [ [ [ 56.19159543777922, 58.034389509494467 ], [ 56.195297091088939, 58.034854518339777 ], [ 56.195610790521968, 58.034610943032213 ], [ 56.198538651896875, 58.033570193480628 ], [ 56.199856189515572, 58.033249105057486 ], [ 56.192703842442576, 58.032263677755616 ], [ 56.19159543777922, 58.034389509494467 ] ] ] ] } },
{ "type": "Feature", "properties": { "id": null }, "geometry": { "type": "MultiPolygon", "coordinates": [ [ [ [ 56.191239911755133, 58.035673804923896 ], [ 56.191741830847967, 58.035563091617725 ], [ 56.193791333810402, 58.035718090150368 ], [ 56.194774258700555, 58.035917372990696 ], [ 56.194836998587157, 58.035651662290078 ], [ 56.19510887142912, 58.035087020494544 ], [ 56.191741830847967, 58.034699516063327 ], [ 56.191239911755133, 58.035673804923896 ] ] ] ] } },
{ "type": "Feature", "properties": { "id": null }, "geometry": { "type": "MultiPolygon", "coordinates": [ [ [ [ 56.183533362350467, 58.034256648713551 ], [ 56.184223501103126, 58.034383973638455 ], [ 56.184903183208007, 58.034699516063313 ], [ 56.184809073378091, 58.034843446770864 ], [ 56.185300535823181, 58.035042734486389 ], [ 56.184976379742388, 58.035253092536529 ], [ 56.185844281507094, 58.036791990098592 ], [ 56.186304374008856, 58.037007873307445 ], [ 56.187161819125791, 58.037068763207557 ], [ 56.187266385603465, 58.037018944206096 ], [ 56.187726478105247, 58.036941447843553 ], [ 56.190089680500705, 58.037207148958558 ], [ 56.191041235447557, 58.034633086310535 ], [ 56.183784321896887, 58.033741808524404 ], [ 56.183533362350467, 58.034256648713551 ] ] ] ] } },
{ "type": "Feature", "properties": { "id": null }, "geometry": { "type": "MultiPolygon", "coordinates": [ [ [ [ 55.777991766653969, 58.083255333240245 ], [ 55.778531709342417, 58.083923210987635 ], [ 55.776580548102579, 58.084125763395349 ], [ 55.776147593651437, 58.083632980134283 ], [ 55.772871576268791, 58.08383881074505 ], [ 55.771065662836399, 58.083989549136959 ], [ 55.770030454707424, 58.08409734836664 ], [ 55.770501003856964, 58.084263192699503 ], [ 55.771661691759164, 58.084661215953716 ], [ 55.773794847903723, 58.085050942755117 ], [ 55.773559573328967, 58.085415789520205 ], [ 55.773481148470701, 58.085581627725716 ], [ 55.774608460639726, 58.085962205718289 ], [ 55.775494995370735, 58.086411737096057 ], [ 55.776194648566388, 58.086087429492316 ], [ 55.77609204937324, 58.085512668677282 ], [ 55.776680882687558, 58.085299702317783 ], [ 55.777825885618107, 58.085158738778517 ], [ 55.779959041762687, 58.085108986808173 ], [ 55.780131576450856, 58.08493485436577 ], [ 55.779880616904435, 58.084760721073621 ], [ 55.780180964663181, 58.084269238855228 ], [ 55.780068836564254, 58.083516887132028 ], [ 55.780021781649289, 58.08311055864997 ], [ 55.777991766653969, 58.083255333240245 ] ] ] ] } },
{ "type": "Feature", "properties": { "id": null }, "geometry": { "type": "MultiPolygon", "coordinates": [ [ [ [ 55.812944537145384, 58.055394676403701 ], [ 55.813885635444443, 58.055759826335496 ], [ 55.814647263899104, 58.056194458565635 ], [ 55.816094667541563, 58.056759233688837 ], [ 55.817430439037643, 58.057253582646887 ], [ 55.818936196316159, 58.05805022714069 ], [ 55.818519068642672, 58.058874667925707 ], [ 55.818718086643514, 58.059496830624987 ], [ 55.818718086643514, 58.059496830624987 ], [ 55.819532225238916, 58.059925590911476 ], [ 55.820816821925064, 58.059496830624987 ], [ 55.822083300112219, 58.059334112196282 ], [ 55.823641687811559, 58.059560483559515 ], [ 55.825864642128131, 58.059602118625051 ], [ 55.826805454495727, 58.059046960219696 ], [ 55.826747312198499, 58.05816640297833 ], [ 55.824959225430256, 58.057120806837325 ], [ 55.823946832301864, 58.056826240314294 ], [ 55.8227035, 58.056659299999964 ], [ 55.820347843764779, 58.056423725740551 ], [ 55.821163462290656, 58.055643642671136 ], [ 55.820473323538003, 58.055444469795994 ], [ 55.819568436283454, 58.055409502040611 ], [ 55.817618658697462, 58.055527458628909 ], [ 55.817578256275091, 58.054681965958295 ], [ 55.817940107185692, 58.053667219837507 ], [ 55.8187743, 58.053535299999979 ], [ 55.817795366821443, 58.052977941884187 ], [ 55.817210849434524, 58.052440144238773 ], [ 55.817144035182345, 58.052039736635471 ], [ 55.8161071, 58.0516018 ], [ 55.814324814650682, 58.051444179459807 ], [ 55.813132756805189, 58.052274152036873 ], [ 55.811658369469967, 58.052888319331963 ], [ 55.811313300093644, 58.053203698434992 ], [ 55.810717271170887, 58.053817849751752 ], [ 55.808772334686132, 58.054382195708065 ], [ 55.808835074572727, 58.054863542567652 ], [ 55.809838912758408, 58.055228697928172 ], [ 55.811564259640065, 58.055411274208836 ], [ 55.812944537145384, 58.055394676403701 ] ] ] ] } },
{ "type": "Feature", "properties": { "id": null }, "geometry": { "type": "MultiPolygon", "coordinates": [ [ [ [ 55.832846354419914, 58.038536213637975 ], [ 55.83084108979947, 58.037381514242092 ], [ 55.831656708325326, 58.036551195750818 ], [ 55.833425315876916, 58.035675688920257 ], [ 55.833939948283117, 58.03494349401938 ], [ 55.831849254132905, 58.03388774474201 ], [ 55.828890117797215, 58.033070369052908 ], [ 55.827314056053204, 58.033547173808991 ], [ 55.827264916262962, 58.034392277422157 ], [ 55.825352020004559, 58.034534820577797 ], [ 55.824933881174516, 58.03589704721746 ], [ 55.824933881174516, 58.037242195092183 ], [ 55.823743793735161, 58.037548677401865 ], [ 55.825257239891599, 58.038078966872071 ], [ 55.827024575324728, 58.038417029677667 ], [ 55.827732194883261, 58.03771894421638 ], [ 55.828214662764069, 58.037548677401865 ], [ 55.829649031953956, 58.03784648417394 ], [ 55.828246827289469, 58.038161634138987 ], [ 55.828519713995078, 58.038975671688576 ], [ 55.826316955766195, 58.039200231285811 ], [ 55.825508199438019, 58.040204452869467 ], [ 55.822873124200605, 58.041399983207334 ], [ 55.821009809077196, 58.043592652741019 ], [ 55.821555586581908, 58.044886718311183 ], [ 55.822935864087221, 58.046115296302432 ], [ 55.824065182046098, 58.045285180665601 ], [ 55.826010118530888, 58.044023367969736 ], [ 55.826386557850526, 58.042861132653549 ], [ 55.828802043484806, 58.042296604720754 ], [ 55.831029309459304, 58.042196981218837 ], [ 55.832346847078, 58.042246793004495 ], [ 55.832566436681127, 58.040885245880247 ], [ 55.833225205490486, 58.040055008765776 ], [ 55.833444795093598, 58.039440620886573 ], [ 55.832846354419914, 58.038536213637975 ] ] ] ] } },
{ "type": "Feature", "properties": { "id": null }, "geometry": { "type": "MultiPolygon", "coordinates": [ [ [ [ 55.99440397417915, 57.93918748095858 ], [ 55.994027534859498, 57.938687924561748 ], [ 55.993525615766664, 57.938787836397417 ], [ 55.9914551995087, 57.939054266599342 ], [ 55.990388621436409, 57.939587121069266 ], [ 55.990263141663199, 57.940086664949185 ], [ 55.990451361323004, 57.940586201875362 ], [ 55.990702320869445, 57.941152335318804 ], [ 55.990074922003387, 57.941385446493598 ], [ 55.988443684951648, 57.941884965340293 ], [ 55.984930251301762, 57.942051470077267 ], [ 55.984930251301762, 57.942051470077267 ], [ 55.98380093334287, 57.942018169191677 ], [ 55.982106956404529, 57.942317876049437 ], [ 55.981479557538471, 57.942550979652587 ], [ 55.979973800259955, 57.943549977942894 ], [ 55.977589684568947, 57.944815335849654 ], [ 55.978091603661788, 57.945780973703457 ], [ 55.978217083435005, 57.946813178531926 ], [ 55.977966123888592, 57.947379213733008 ], [ 55.978656262641252, 57.948145011849093 ], [ 55.979346401393904, 57.94797853538833 ], [ 55.980350239579586, 57.948611141829332 ], [ 55.980914898559028, 57.949110560087171 ], [ 55.981479557538471, 57.949709852819012 ], [ 55.981165858105449, 57.950209255781004 ], [ 55.980914898559028, 57.95154096302285 ], [ 55.980977638445637, 57.951907173846983 ], [ 55.981165858105449, 57.953238818053876 ], [ 55.980852158672427, 57.954270808310156 ], [ 55.981605037311695, 57.95470356958073 ], [ 55.983361754136652, 57.953904621618051 ], [ 55.984867511415167, 57.953438560420871 ], [ 55.985369430508008, 57.953205527551248 ], [ 55.987816286085611, 57.952639584278792 ], [ 55.989322043364126, 57.952140215152028 ], [ 55.989698482683771, 57.951907173846983 ], [ 55.99603521123089, 57.951407794523476 ], [ 55.996662610096941, 57.951174748459877 ], [ 55.998544806695087, 57.950941700882218 ], [ 55.998733026354898, 57.950741944610556 ], [ 55.998921246014724, 57.950109375744823 ], [ 56.000364263406645, 57.949043971387837 ], [ 56.0035012577369, 57.947345917791935 ], [ 56.004003176829741, 57.946979660400487 ], [ 56.005885373427901, 57.945581188693595 ], [ 56.008018529572475, 57.944315857796241 ], [ 56.008332229005497, 57.943583277406901 ], [ 56.008959627871555, 57.942650880733254 ], [ 56.009022367758156, 57.941485350819228 ], [ 56.009524286850997, 57.939953453927814 ], [ 56.009461546964395, 57.938721228537865 ], [ 56.0096497666242, 57.93808844770637 ], [ 56.0096497666242, 57.938021838548742 ], [ 56.009524286850997, 57.937222519014419 ], [ 56.00870866832512, 57.936722935265152 ], [ 56.004254136376161, 57.937155908249643 ], [ 56.003752217283321, 57.936989380796831 ], [ 55.998042887602253, 57.937522265926006 ], [ 55.996223430890709, 57.937888619862633 ], [ 55.99440397417915, 57.93918748095858 ] ] ] ] } },
{ "type": "Feature", "properties": { "id": null }, "geometry": { "type": "MultiPolygon", "coordinates": [ [ [ [ 56.106912275833892, 57.998452064349038 ], [ 56.106347616854428, 57.99870973938976 ], [ 56.10637898679775, 57.998884292395992 ], [ 56.106018232449756, 57.999241707801168 ], [ 56.106033917421406, 57.999407946308821 ], [ 56.106253507024533, 57.999524312804915 ], [ 56.107712209388097, 57.999690550000395 ], [ 56.108574882828925, 57.999715485513143 ], [ 56.110127695022399, 57.999873410023937 ], [ 56.111539342471012, 57.999998086777246 ], [ 56.112543180656694, 58.000097827867272 ], [ 56.113264689352654, 58.000147698308098 ], [ 56.113970513076964, 58.000172633502459 ], [ 56.11426852753835, 57.999732109178673 ], [ 56.114801816574492, 57.998909228470275 ], [ 56.115005721205947, 57.998468688601172 ], [ 56.115272365724032, 57.998111265479224 ], [ 56.115539010242102, 57.997529406253385 ], [ 56.115366475553934, 57.997296659915463 ], [ 56.115037091149247, 57.997113786731511 ], [ 56.11439400731156, 57.996930912613529 ], [ 56.113672498615593, 57.99673141251052 ], [ 56.112935304947989, 57.996689849849162 ], [ 56.111413862697816, 57.996182781495932 ], [ 56.110237489823966, 57.995933400983169 ], [ 56.109547351071306, 57.995708957036733 ], [ 56.108747417517094, 57.996315783725912 ], [ 56.108496457970659, 57.996698162385293 ], [ 56.108433718084058, 57.996847787705697 ], [ 56.110347284625519, 57.997404720903376 ], [ 56.110378654568812, 57.997629154220775 ], [ 56.110096325079098, 57.998044767760547 ], [ 56.110268859767267, 57.998227636189718 ], [ 56.110331599653868, 57.998418815821609 ], [ 56.110064955135798, 57.998651554865233 ], [ 56.109829680561027, 57.998742987647013 ], [ 56.109076801921766, 57.99880948406895 ], [ 56.108888582261947, 57.99880948406895 ], [ 56.106912275833892, 57.998452064349038 ] ] ] ] } },
{ "type": "Feature", "properties": { "id": null }, "geometry": { "type": "MultiPolygon", "coordinates": [ [ [ [ 55.987196729705239, 57.927391931100026 ], [ 55.992090440860437, 57.927591817385732 ], [ 55.994286336891641, 57.927741731369728 ], [ 55.994819625927775, 57.927974929656145 ], [ 55.995227435190714, 57.928108185139777 ], [ 55.994976475644293, 57.92855791874554 ], [ 55.995164695304098, 57.928891051117681 ], [ 55.994976475644293, 57.929224180398691 ], [ 55.994192227061717, 57.929798821143315 ], [ 55.993157018932742, 57.929990366014195 ], [ 55.992890374414664, 57.929948725911828 ], [ 55.991321877249526, 57.929982037997604 ], [ 55.99052194369532, 57.930007022041622 ], [ 55.990427833865404, 57.930656601083861 ], [ 55.988749541898706, 57.931614292334999 ], [ 55.989627900311191, 57.932905053162123 ], [ 55.989972969687521, 57.934312345948449 ], [ 55.990176874318976, 57.935319900381465 ], [ 55.991541466852645, 57.935319900381465 ], [ 55.992796264584747, 57.934953520223686 ], [ 55.993705992940527, 57.935103403467529 ], [ 55.994349076778235, 57.935278266460969 ], [ 55.994850995871076, 57.935419821593584 ], [ 55.994992160615951, 57.935702930184043 ], [ 55.995227435190721, 57.935869463605854 ], [ 55.995839149085128, 57.935886116905536 ], [ 55.996309698234668, 57.935802850329871 ], [ 55.997125316760531, 57.935869463605854 ], [ 55.997689975739974, 57.935986036541379 ], [ 55.997360591335301, 57.936110935694984 ], [ 55.997376276306959, 57.936402365363186 ], [ 55.998003675173017, 57.936294120334111 ], [ 55.99834874454934, 57.936135915473578 ], [ 55.998113469974562, 57.935869463605854 ], [ 55.997705660711638, 57.935694603492671 ], [ 55.998615389067403, 57.935727910246577 ], [ 55.999211417990161, 57.935619663183374 ], [ 55.999227102961811, 57.935619663183374 ], [ 56.000168201260891, 57.934961847086996 ], [ 56.000387790864011, 57.934645424923545 ], [ 56.000497585665556, 57.934503866736797 ], [ 56.001956288029128, 57.934628771048196 ], [ 56.002662111753459, 57.934503866736797 ], [ 56.003069921016376, 57.934770328742353 ], [ 56.003728689825735, 57.934945193358473 ], [ 56.004183554003632, 57.935045115613754 ], [ 56.004120814117009, 57.935303246819068 ], [ 56.003728689825735, 57.935444801853173 ], [ 56.004277663833527, 57.93564464330386 ], [ 56.004795267898018, 57.935578029610596 ], [ 56.005187392189306, 57.935369861022316 ], [ 56.005046227444439, 57.934970173948372 ], [ 56.004685473096465, 57.934587136326009 ], [ 56.004512938408276, 57.933987590971817 ], [ 56.004983487557816, 57.933554579765655 ], [ 56.005548146537272, 57.932671886899158 ], [ 56.006175545403316, 57.932322134664865 ], [ 56.007304863362215, 57.931889103367666 ], [ 56.006897054099269, 57.931356134600023 ], [ 56.006646094552856, 57.931006369545869 ], [ 56.006332395119841, 57.930623289624023 ], [ 56.005861845970301, 57.929907085761151 ], [ 56.005987325743497, 57.92950733785716 ], [ 56.005893215913588, 57.929107585501967 ], [ 56.005265817047551, 57.928974333727751 ], [ 56.005046227444417, 57.928957677221177 ], [ 56.003164030846271, 57.928158155818636 ], [ 56.003258140676181, 57.927608474525989 ], [ 56.0022856724338, 57.926975497763877 ], [ 56.001501423851231, 57.92664234761731 ], [ 56.000685805325361, 57.926209247805367 ], [ 55.99971333708298, 57.926092643117229 ], [ 55.997737030654918, 57.925942722247477 ], [ 55.996701822525935, 57.925426323349029 ], [ 55.994662776211264, 57.925076500520767 ], [ 55.991431672051093, 57.924660040329016 ], [ 55.990553313638621, 57.924526772047507 ], [ 55.988890706643573, 57.924693357322106 ], [ 55.989298515906519, 57.925209766761974 ], [ 55.98863974709716, 57.925792800751722 ], [ 55.988137828004319, 57.926242563360987 ], [ 55.987259469591834, 57.926725635443766 ], [ 55.986443851065957, 57.927092099584861 ], [ 55.987196729705239, 57.927391931100026 ] ] ] ] } },
{ "type": "Feature", "properties": { "id": null }, "geometry": { "type": "MultiPolygon", "coordinates": [ [ [ [ 56.500283522362935, 58.146164582650357 ], [ 56.493538984552849, 58.148283638558105 ], [ 56.491656787954696, 58.149210685852474 ], [ 56.488896232944057, 58.149707308400103 ], [ 56.486763076799491, 58.14987284770956 ], [ 56.485571018953991, 58.14990595547907 ], [ 56.48412800156207, 58.149144468989284 ], [ 56.482998683603178, 58.148614729649125 ], [ 56.48180662575767, 58.149144468989284 ], [ 56.482245804963902, 58.149607984444899 ], [ 56.482873203829953, 58.150700532708768 ], [ 56.482434024623728, 58.151561304691178 ], [ 56.476536475282835, 58.15228963395549 ], [ 56.477540313468516, 58.153017948315679 ], [ 56.479861689272916, 58.15358072647691 ], [ 56.481775255814377, 58.153845560179363 ], [ 56.484849510258037, 58.153862112220324 ], [ 56.487453215552158, 58.154044184162913 ], [ 56.49106075903196, 58.154209703302378 ], [ 56.492660626140392, 58.153977976291571 ], [ 56.495264331434512, 58.153398652163268 ], [ 56.497554337295597, 58.152852423633433 ], [ 56.498746395141112, 58.152322739477007 ], [ 56.500471742022754, 58.15172683537817 ], [ 56.502040239187892, 58.14954176832078 ], [ 56.503671476239617, 58.149177577436291 ], [ 56.504706684368614, 58.148482293582269 ], [ 56.506557511023452, 58.149657646457129 ], [ 56.507749568868974, 58.149508660212526 ], [ 56.509223956204195, 58.149326565066687 ], [ 56.511106152802348, 58.14911136051149 ], [ 56.511263002518852, 58.148863045946435 ], [ 56.510070944673359, 58.147902879996295 ], [ 56.509192586260873, 58.14757178228416 ], [ 56.507749568868974, 58.146677803078646 ], [ 56.506557511023452, 58.145982470397293 ], [ 56.504926273971734, 58.145187787845366 ], [ 56.503953805729353, 58.144906333521007 ], [ 56.502322568677613, 58.143581812708995 ], [ 56.501663799868254, 58.14339968724375 ], [ 56.500346262249543, 58.1436811534792 ], [ 56.500220782476333, 58.144459313255929 ], [ 56.500597221795957, 58.144989114435624 ], [ 56.500283522362935, 58.146164582650357 ] ] ] ] } },
{ "type": "Feature", "properties": { "id": null }, "geometry": { "type": "MultiPolygon", "coordinates": [ [ [ [ 56.095642623702368, 57.969876040297869 ], [ 56.101602912929849, 57.96914398185686 ], [ 56.104928126919951, 57.969210533242027 ], [ 56.107563202157365, 57.969742939875182 ], [ 56.110700196487628, 57.969576563651806 ], [ 56.111390335240287, 57.970275338600501 ], [ 56.112268693652759, 57.970441711580442 ], [ 56.112268693652759, 57.972072125917201 ], [ 56.112394173425969, 57.971706120991314 ], [ 56.113021572292027, 57.970874277714216 ], [ 56.113648971158071, 57.970275338600501 ], [ 56.114966508776789, 57.969243808888272 ], [ 56.115280208209811, 57.968478461209266 ], [ 56.116597745828507, 57.967912758943697 ], [ 56.11691144526155, 57.967080827629459 ], [ 56.116535005941905, 57.966714771734715 ], [ 56.116535005941905, 57.965683139557164 ], [ 56.117413364354391, 57.964718037418116 ], [ 56.118040763220428, 57.963220413696952 ], [ 56.117978023333826, 57.962687910186851 ], [ 56.118354462653464, 57.961556313968075 ], [ 56.119358300839146, 57.959026734457403 ], [ 56.121115017664088, 57.957462299930285 ], [ 56.119044601406131, 57.957728591478087 ], [ 56.116974185148152, 57.958161311025968 ], [ 56.115531167756224, 57.958460883038846 ], [ 56.113774450931267, 57.959093304625505 ], [ 56.111453075126889, 57.960091842317262 ], [ 56.110951156034048, 57.960690951585597 ], [ 56.10844156056983, 57.962155398767941 ], [ 56.105367306126169, 57.963786190010858 ], [ 56.104488947713705, 57.964551637871743 ], [ 56.103924288734248, 57.965350348650894 ], [ 56.100850034290609, 57.966515103307565 ], [ 56.100034415764732, 57.967380325126761 ], [ 56.098152219166572, 57.968345355596995 ], [ 56.095642623702368, 57.969876040297869 ] ] ] ] } },
{ "type": "Feature", "properties": { "id": null }, "geometry": { "type": "MultiPolygon", "coordinates": [ [ [ [ 56.22190664549543, 57.934820290148174 ], [ 56.227239535856867, 57.934670405722066 ], [ 56.232384206558507, 57.934470558846996 ], [ 56.234642842476283, 57.934170786448078 ], [ 56.23555257083207, 57.934170786448078 ], [ 56.235960380095008, 57.933437998933044 ], [ 56.235270241342349, 57.933088254163387 ], [ 56.234297773099968, 57.933021635725652 ], [ 56.232572426218312, 57.932955017164282 ], [ 56.231756807692449, 57.932555303199706 ], [ 56.230376530187129, 57.931605964695116 ], [ 56.229184472341629, 57.931322823789294 ], [ 56.227835564779625, 57.930973058410594 ], [ 56.228400223759074, 57.929957053936178 ], [ 56.228964882738509, 57.929573962816939 ], [ 56.22946680183135, 57.928807768314456 ], [ 56.229404061944749, 57.92855791874554 ], [ 56.229372692001455, 57.927924958722315 ], [ 56.229090362511734, 57.927275330252776 ], [ 56.228494333588969, 57.926858895564202 ], [ 56.227615975176512, 57.926609032432644 ], [ 56.226361177444396, 57.92647577138483 ], [ 56.224792680279272, 57.926559059597679 ], [ 56.222157605041851, 57.926908867981865 ], [ 56.221059657026252, 57.927491874381985 ], [ 56.220118558727172, 57.92807487131526 ], [ 56.219961709010654, 57.928191469565888 ], [ 56.218801021108469, 57.928408008169598 ], [ 56.217389373659856, 57.928474635169522 ], [ 56.21698156439691, 57.928607888798417 ], [ 56.218550061562041, 57.929224180398698 ], [ 56.218675541335251, 57.929257493156797 ], [ 56.219397050031205, 57.929623931455623 ], [ 56.220432258160209, 57.930290173325638 ], [ 56.221530206175792, 57.930873124819328 ], [ 56.22190664549543, 57.934820290148174 ] ] ] ] } },
{ "type": "Feature", "properties": { "id": null }, "geometry": { "type": "MultiPolygon", "coordinates": [ [ [ [ 56.243771495977349, 57.933721123155429 ], [ 56.256225363468481, 57.933138217910525 ], [ 56.258044820180032, 57.932705196458009 ], [ 56.259989756664787, 57.933088254163358 ], [ 56.260899485020559, 57.933204836131893 ], [ 56.261558253829918, 57.933021635725638 ], [ 56.262656201845516, 57.932322134664858 ], [ 56.262687571788824, 57.931855793051504 ], [ 56.265416756856141, 57.931122958275893 ], [ 56.265291277082945, 57.929973709979045 ], [ 56.264883467819999, 57.928358037838493 ], [ 56.264130589180745, 57.927508531568584 ], [ 56.26281305156202, 57.927958272685927 ], [ 56.259205508082218, 57.927408588332987 ], [ 56.256821392391217, 57.927391931100004 ], [ 56.255096045509582, 57.927525188747467 ], [ 56.253245218854723, 57.927092099584861 ], [ 56.251551241916381, 57.926775608046881 ], [ 56.249951374807956, 57.927158729026814 ], [ 56.247724108833459, 57.927308644819178 ], [ 56.245904652121901, 57.927142071677928 ], [ 56.245057663652744, 57.927625131658495 ], [ 56.245716432462103, 57.927825016645897 ], [ 56.245716432462103, 57.928008243573437 ], [ 56.245308623199165, 57.928707828695529 ], [ 56.245057663652744, 57.929357431245577 ], [ 56.244649854389806, 57.930490043475601 ], [ 56.244304785013483, 57.931572654116223 ], [ 56.243959715637168, 57.932846761738368 ], [ 56.243771495977349, 57.933721123155429 ] ] ] ] } },
{ "type": "Feature", "properties": { "id": null }, "geometry": { "type": "MultiPolygon", "coordinates": [ [ [ [ 56.3042213767215, 57.929257493156754 ], [ 56.311122764248047, 57.929490681597855 ], [ 56.312565781639968, 57.929357431245556 ], [ 56.313067700732809, 57.929157554789761 ], [ 56.31639291472289, 57.928891051117674 ], [ 56.31990634837279, 57.929024303200997 ], [ 56.321663065197733, 57.929757180818733 ], [ 56.325113758961024, 57.929957053936143 ], [ 56.329003631930547, 57.930123614017262 ], [ 56.329129111703764, 57.929723868524313 ], [ 56.330697608868888, 57.928457978431084 ], [ 56.331701447054584, 57.926725635443745 ], [ 56.331325007734947, 57.925892748485083 ], [ 56.330885828528707, 57.925059842205805 ], [ 56.327246915105604, 57.922194497053546 ], [ 56.326368556693126, 57.920628455985955 ], [ 56.321349365764711, 57.918562510113041 ], [ 56.321286625878109, 57.917996020322889 ], [ 56.321223885991486, 57.916696392336789 ], [ 56.321851284857559, 57.915763297089505 ], [ 56.324298140435161, 57.91533006605642 ], [ 56.324800059528002, 57.91483017760229 ], [ 56.323294302249465, 57.914796851457993 ], [ 56.322164984290588, 57.91393036085384 ], [ 56.320784706785268, 57.913263815397038 ], [ 56.318400591094267, 57.913530435063898 ], [ 56.316204695063085, 57.913363798004006 ], [ 56.314949897330969, 57.913797052751889 ], [ 56.312691261413192, 57.913663744155244 ], [ 56.311185504134649, 57.91299719375133 ], [ 56.308424949124031, 57.91356376238312 ], [ 56.305476174453574, 57.913530435063898 ], [ 56.303656717742037, 57.913163832511799 ], [ 56.300707943071572, 57.912897210123994 ], [ 56.299076706019854, 57.912263974022089 ], [ 56.298010127947549, 57.912730570126747 ], [ 56.297947388060955, 57.914363608768582 ], [ 56.298763006586853, 57.91616319802074 ], [ 56.298574786927027, 57.917462845299454 ], [ 56.300143284092158, 57.918162635894561 ], [ 56.30328027842242, 57.917696110346107 ], [ 56.304723295814341, 57.917129606890548 ], [ 56.30786029014461, 57.916763041069764 ], [ 56.310495365382032, 57.91702963476498 ], [ 56.311122764248076, 57.917762757224033 ], [ 56.311436463681112, 57.918829090452007 ], [ 56.311750163114134, 57.919628819596959 ], [ 56.312503041753395, 57.920528493599171 ], [ 56.309867966515974, 57.920795059345664 ], [ 56.306354532866081, 57.920828379924863 ], [ 56.303844937401877, 57.920961661932466 ], [ 56.301523561597477, 57.921428145063757 ], [ 56.298449307153817, 57.922061219621412 ], [ 56.298261087493998, 57.922561007441473 ], [ 56.298637526813636, 57.924027011586602 ], [ 56.298637526813636, 57.925259741474889 ], [ 56.302025480690311, 57.925626220577804 ], [ 56.305036995247377, 57.926026011696806 ], [ 56.3042213767215, 57.929257493156754 ] ] ] ] } },
{ "type": "Feature", "properties": { "id": null }, "geometry": { "type": "MultiPolygon", "coordinates": [ [ [ [ 56.331262267848345, 57.928957677221163 ], [ 56.351840950654861, 57.932955017164261 ], [ 56.352154650087883, 57.933354726677905 ], [ 56.356107262944008, 57.934487212795737 ], [ 56.361126453872444, 57.935819503660426 ], [ 56.364639887522323, 57.936851995066455 ], [ 56.366773043666903, 57.937618017883935 ], [ 56.368843459924882, 57.937351577019236 ], [ 56.370411957090013, 57.936951912013342 ], [ 56.371917714368543, 57.936485630547999 ], [ 56.372733332894398, 57.935852810298435 ], [ 56.374050870513123, 57.93558635632899 ], [ 56.374113610399725, 57.935153364409715 ], [ 56.374552789605964, 57.934320672960474 ], [ 56.37467826937916, 57.933354726677905 ], [ 56.374050870513123, 57.932688541682417 ], [ 56.373235251987239, 57.932288824750536 ], [ 56.370725656523035, 57.93182248270444 ], [ 56.368906199811484, 57.931322823789266 ], [ 56.366333864460671, 57.93058997813327 ], [ 56.365330026274982, 57.930023678061332 ], [ 56.36501632684196, 57.929090929057224 ], [ 56.363887008883061, 57.927891644727737 ], [ 56.363887008883061, 57.927924958722286 ], [ 56.362381251604546, 57.927958272685927 ], [ 56.36056179489298, 57.927058784817497 ], [ 56.360373575233162, 57.927325302090807 ], [ 56.359432476934082, 57.927458559985538 ], [ 56.3584286387484, 57.927758388440402 ], [ 56.357236580902914, 57.92762513165848 ], [ 56.356107262944008, 57.928024900520469 ], [ 56.35466424555208, 57.92782501664589 ], [ 56.354287806232463, 57.928158155818622 ], [ 56.351150811902201, 57.927658445900327 ], [ 56.350837112469179, 57.927092099584847 ], [ 56.349331355190643, 57.926825580580449 ], [ 56.345755181654141, 57.92842466493115 ], [ 56.34594340131396, 57.929324118580197 ], [ 56.346194360860387, 57.929857117516548 ], [ 56.343496545736365, 57.929857117516548 ], [ 56.337034337416021, 57.92912424193895 ], [ 56.33697159752942, 57.92912424193895 ], [ 56.334775701498224, 57.929424056483533 ], [ 56.333395423992904, 57.92912424193895 ], [ 56.331638707167961, 57.928524605338303 ], [ 56.331262267848345, 57.928957677221163 ] ] ] ] } },
{ "type": "Feature", "properties": { "id": null }, "geometry": { "type": "MultiPolygon", "coordinates": [ [ [ [ 56.246563420931182, 57.89746306775745 ], [ 56.249574935488241, 57.897679791663322 ], [ 56.249574935488241, 57.897596436469549 ], [ 56.252900149478322, 57.897729804686811 ], [ 56.254343166870242, 57.89841330903355 ], [ 56.257072351937559, 57.898346626254799 ], [ 56.25851536932948, 57.898730050543165 ], [ 56.264475658556975, 57.899863628864949 ], [ 56.264914837763222, 57.899746938629626 ], [ 56.264914837763222, 57.899480216669055 ], [ 56.264726618103403, 57.898813403108115 ], [ 56.264820727933319, 57.897663120640033 ], [ 56.264977577649816, 57.896146025154394 ], [ 56.264820727933319, 57.895329101064085 ], [ 56.264507028500283, 57.895162379580974 ], [ 56.263754149861022, 57.895395789440819 ], [ 56.261777843432959, 57.895629197785148 ], [ 56.260366195984346, 57.895662541710628 ], [ 56.257699750803624, 57.896112681677387 ], [ 56.255190155339399, 57.896446115055667 ], [ 56.251739461576122, 57.89674620245178 ], [ 56.246563420931182, 57.89746306775745 ] ] ] ] } },
{ "type": "Feature", "properties": { "id": null }, "geometry": { "type": "MultiPolygon", "coordinates": [ [ [ [ 56.25616262358178, 57.895762573301468 ], [ 56.260052496551296, 57.895145707390142 ], [ 56.261589623773133, 57.895045674082724 ], [ 56.263314970654783, 57.894878951285129 ], [ 56.264695248160095, 57.89454550337026 ], [ 56.265322647026132, 57.894028652989782 ], [ 56.265636346459175, 57.893511795178455 ], [ 56.265448126799356, 57.892861544151295 ], [ 56.263283600711475, 57.893061622643081 ], [ 56.261495513943217, 57.893378411311197 ], [ 56.259519207515154, 57.893411757324408 ], [ 56.258483999386172, 57.893445103306661 ], [ 56.25688413227774, 57.893878598261665 ], [ 56.255660704488939, 57.893895271040158 ], [ 56.2552215252827, 57.893995307548764 ], [ 56.25616262358178, 57.895762573301468 ] ] ] ] } },
{ "type": "Feature", "properties": { "id": null }, "geometry": { "type": "MultiPolygon", "coordinates": [ [ [ [ 56.287407087111148, 57.895345773169844 ], [ 56.287281607337924, 57.893745215755317 ], [ 56.288912844389664, 57.891410941785246 ], [ 56.289414763482505, 57.889943606286607 ], [ 56.289038324162881, 57.888943115930637 ], [ 56.288159965750395, 57.887742490755848 ], [ 56.29255175781276, 57.886141594828601 ], [ 56.297445468967979, 57.883806827177729 ], [ 56.298825746473305, 57.882739454337532 ], [ 56.298574786926878, 57.881471907945503 ], [ 56.298700266700081, 57.880137600324993 ], [ 56.30196274080356, 57.878603085368184 ], [ 56.3000805442054, 57.877001782574332 ], [ 56.298700266700081, 57.876601445738089 ], [ 56.296943549875138, 57.876267828304613 ], [ 56.293806555544869, 57.876868337457289 ], [ 56.287658046657555, 57.877602279475326 ], [ 56.285022971420148, 57.876868337457289 ], [ 56.282262416409523, 57.877268671323414 ], [ 56.279878300718501, 57.877402114955444 ], [ 56.277243225481087, 57.877935884533414 ], [ 56.273729791831201, 57.878269486497693 ], [ 56.272349514325889, 57.878936681144921 ], [ 56.269965398634881, 57.880471181870597 ], [ 56.269087040222402, 57.881338479410871 ], [ 56.269212519995627, 57.882472606177821 ], [ 56.268083202036721, 57.88400695605867 ], [ 56.267581282943887, 57.885074291282002 ], [ 56.268208681809924, 57.887342273455644 ], [ 56.268334161583148, 57.888276106893876 ], [ 56.267455803170684, 57.890543887137625 ], [ 56.267455803170684, 57.891944503483245 ], [ 56.267581282943887, 57.892944910324836 ], [ 56.268208681809924, 57.894345433136706 ], [ 56.268208681809924, 57.894345433136706 ], [ 56.266326485211785, 57.896812888199577 ], [ 56.267204843624249, 57.898079893902718 ], [ 56.267330323397466, 57.899413535869627 ], [ 56.266828404304626, 57.899946978801097 ], [ 56.265448126799306, 57.903080796135612 ], [ 56.26626374532519, 57.905380977505978 ], [ 56.267142103737669, 57.906281008399539 ], [ 56.269087040222431, 57.905914331867862 ], [ 56.269965398634888, 57.905480982051813 ], [ 56.273290612624969, 57.905214302644389 ], [ 56.274608150243694, 57.904714273421064 ], [ 56.28012926026495, 57.903447501581283 ], [ 56.281635017543465, 57.90251406217758 ], [ 56.281133098450624, 57.901413906039856 ], [ 56.281697757430088, 57.900147017859254 ], [ 56.282387896182748, 57.899046789261611 ], [ 56.283391734368422, 57.898279943352328 ], [ 56.285273930966582, 57.897846501470973 ], [ 56.286716948358503, 57.897046287342668 ], [ 56.287407087111148, 57.895345773169844 ] ] ] ] } },
{ "type": "Feature", "properties": { "id": null }, "geometry": { "type": "MultiPolygon", "coordinates": [ [ [ [ 56.235332981228794, 57.872230812148274 ], [ 56.236462299187693, 57.872397639970387 ], [ 56.239662033404549, 57.873231767478174 ], [ 56.242171628868768, 57.873999147706165 ], [ 56.244555744559769, 57.875066779926605 ], [ 56.246688900704349, 57.876267828304627 ], [ 56.247065340023973, 57.876834976100653 ], [ 56.247379039457002, 57.877602279475326 ], [ 56.247379039457002, 57.878703164426064 ], [ 56.247316299570386, 57.879470427952683 ], [ 56.247316299570386, 57.880571255731041 ], [ 56.247441779343603, 57.881104978284235 ], [ 56.251959051179185, 57.880738044879664 ], [ 56.254154947210367, 57.880537897808502 ], [ 56.257166461767405, 57.87990409140231 ], [ 56.259927016778043, 57.879203555538801 ], [ 56.262624831902066, 57.878269486497693 ], [ 56.264256068953813, 57.877969244869071 ], [ 56.265259907139502, 57.876768253294621 ], [ 56.263879629634168, 57.874833238085614 ], [ 56.262687571788682, 57.872631197621843 ], [ 56.261495513943174, 57.871797056190687 ], [ 56.261495513943174, 57.870829427903537 ], [ 56.260679895417304, 57.869594829895206 ], [ 56.259801537004826, 57.868493666203406 ], [ 56.25911139825218, 57.866691689295187 ], [ 56.259048658365572, 57.866057638923571 ], [ 56.258358519612926, 57.864722759521698 ], [ 56.259425097685202, 57.862720347583767 ], [ 56.258609479159325, 57.862253102101725 ], [ 56.25804482017989, 57.863087464778879 ], [ 56.25641358312815, 57.862586849493532 ], [ 56.254468646643389, 57.862586849493532 ], [ 56.253402068571106, 57.862887219500287 ], [ 56.253966727550548, 57.863888434752837 ], [ 56.254217687096961, 57.86428891305561 ], [ 56.254343166870186, 57.865423577381137 ], [ 56.254092207323765, 57.866424722079209 ], [ 56.25497056573623, 57.86785964757992 ], [ 56.255535224715686, 57.868393558742333 ], [ 56.25547248482907, 57.868693880290081 ], [ 56.254594126416606, 57.868927461983318 ], [ 56.252774669705047, 57.869528093660975 ], [ 56.252147270838989, 57.870128715313299 ], [ 56.25333932868449, 57.871396661434794 ], [ 56.254656866303208, 57.872531101671157 ], [ 56.254217687096961, 57.873365226084857 ], [ 56.253213848911294, 57.874332786178442 ], [ 56.252711929818453, 57.875233594599116 ], [ 56.248696577075705, 57.873732234700675 ], [ 56.248445617529292, 57.872931483803093 ], [ 56.246626160817726, 57.872130715083713 ], [ 56.242108888982152, 57.870595858556285 ], [ 56.238595455332273, 57.870896161724275 ], [ 56.235332981228794, 57.872230812148274 ] ] ] ] } },
{ "type": "Feature", "properties": { "id": null }, "geometry": { "type": "MultiPolygon", "coordinates": [ [ [ [ 56.266138265551959, 57.875333683031364 ], [ 56.268522381242953, 57.874866601298564 ], [ 56.272035814892838, 57.873298496843404 ], [ 56.270718277274142, 57.871696957919418 ], [ 56.267894982376902, 57.87046238967713 ], [ 56.266389225098365, 57.870595858556285 ], [ 56.264193329067183, 57.869027567959151 ], [ 56.261809213376182, 57.868193342984739 ], [ 56.262938531335081, 57.87036228769287 ], [ 56.266138265551959, 57.875333683031364 ] ] ] ] } },
{ "type": "Feature", "properties": { "id": null }, "geometry": { "type": "MultiPolygon", "coordinates": [ [ [ [ 56.267455803170662, 58.037676272668378 ], [ 56.2666715545881, 58.037560030198946 ], [ 56.265322647026082, 58.037493605760979 ], [ 56.264632508273422, 58.038440142350602 ], [ 56.265667716402419, 58.038888493040673 ], [ 56.265761826232321, 58.039353443372541 ], [ 56.266451964984981, 58.039685547050027 ], [ 56.267487173113963, 58.040017647642195 ], [ 56.268585121129561, 58.040565606874004 ], [ 56.269683069145138, 58.041179975418054 ], [ 56.270561427557624, 58.040632025604047 ], [ 56.271314306196878, 58.040731653467724 ], [ 56.2716280056299, 58.040449373799454 ], [ 56.272255404495965, 58.040465978547537 ], [ 56.274514040413749, 58.040914303829958 ], [ 56.274545410357057, 58.041462249316879 ], [ 56.274106231150817, 58.042242642024974 ], [ 56.27420034098072, 58.043388294069572 ], [ 56.275298288996325, 58.043305277039522 ], [ 56.276772676331539, 58.04197697833505 ], [ 56.278403913383279, 58.041794333402848 ], [ 56.279219531909142, 58.041860749849803 ], [ 56.280976248734099, 58.041445645031594 ], [ 56.280944878790798, 58.041146766577519 ], [ 56.279501861398863, 58.040399559508955 ], [ 56.278843092589518, 58.040067462464904 ], [ 56.27761966480071, 58.039519495596949 ], [ 56.276239387295398, 58.039170785034798 ], [ 56.276176647408796, 58.039552705949276 ], [ 56.274764999960176, 58.039884807775564 ], [ 56.274388560640539, 58.03983499269831 ], [ 56.273667051944585, 58.039768572487311 ], [ 56.2728200634754, 58.039469680010605 ], [ 56.27115745648036, 58.039436469581162 ], [ 56.270843757047338, 58.039237206356496 ], [ 56.270059508464783, 58.039021336609714 ], [ 56.27021635818128, 58.038606198817391 ], [ 56.271471155913396, 58.037310937920211 ], [ 56.27068690733082, 58.037095056541439 ], [ 56.269149780109004, 58.036646683358569 ], [ 56.268208681809924, 58.037443787351521 ], [ 56.267455803170662, 58.037676272668378 ] ] ] ] } },
{ "type": "Feature", "properties": { "id": null }, "geometry": { "type": "MultiPolygon", "coordinates": [ [ [ [ 56.1789925630572, 58.032652592617303 ], [ 56.180921814570311, 58.032976454434383 ], [ 56.183792164382517, 58.03327540120047 ], [ 56.187133063344234, 58.033873287234492 ], [ 56.18976813858167, 58.034246960928911 ], [ 56.190991566370471, 58.034222049470785 ], [ 56.192120884329348, 58.0325280295989 ], [ 56.19310903754338, 58.030161249801928 ], [ 56.193532531777976, 58.029488557482154 ], [ 56.193908971097613, 58.028741106730244 ], [ 56.193861916182655, 58.028317544369557 ], [ 56.192167939244321, 58.02864144544963 ], [ 56.191179786030268, 58.02913974907537 ], [ 56.18906231485736, 58.02966296040973 ], [ 56.187791832153593, 58.029463642708798 ], [ 56.185486141320858, 58.029762618843634 ], [ 56.184450933191862, 58.029687875044253 ], [ 56.18322750540306, 58.029937020434637 ], [ 56.18167469320958, 58.030285821065114 ], [ 56.180733594910507, 58.030510048245297 ], [ 56.18016893593105, 58.030858843286552 ], [ 56.179886606441336, 58.031033239531403 ], [ 56.179369002376845, 58.03135711601535 ], [ 56.179086672887109, 58.031556423162833 ], [ 56.178380849162814, 58.031780642375935 ], [ 56.177722080353455, 58.032229076584287 ], [ 56.177486805778678, 58.032378553404023 ], [ 56.177251531203915, 58.032577854858332 ], [ 56.177251531203915, 58.032752242719596 ], [ 56.177251531203915, 58.032951542091062 ], [ 56.1789925630572, 58.032652592617303 ] ] ] ] } }
]
}
