{
"type": "FeatureCollection",
"name": "территории новых МПТ",
"crs": { "type": "name", "properties": { "name": "urn:ogc:def:crs:OGC:1.3:CRS84" } },
"features": [
{ "type": "Feature", "properties": { "id": 1, "workers": 3000 }, "geometry": { "type": "MultiPolygon", "coordinates": [ [ [ [ 56.193231249614698, 58.029687875044417 ], [ 56.181289757864185, 58.028298165579606 ], [ 56.179010208650872, 58.032815907917488 ], [ 56.191171290004469, 58.03432169519931 ], [ 56.193231249614698, 58.029687875044417 ] ] ] ] } },
{ "type": "Feature", "properties": { "id": 2, "workers": 3000 }, "geometry": { "type": "MultiPolygon", "coordinates": [ [ [ [ 56.183402000713208, 57.999955142611292 ], [ 56.18500186782164, 58.00089159080391 ], [ 56.184750908275227, 58.001268379615809 ], [ 56.184656798445303, 58.001406903917349 ], [ 56.184792734866292, 58.001689491830447 ], [ 56.185158717538144, 58.001866800754691 ], [ 56.186978174249703, 58.001778146402344 ], [ 56.186695844759988, 58.000481551414531 ], [ 56.187793792775565, 58.000160165907516 ], [ 56.18650762510017, 57.998675105755666 ], [ 56.183402000713208, 57.999955142611292 ] ] ] ] } },
{ "type": "Feature", "properties": { "id": 3, "workers": 1500 }, "geometry": { "type": "MultiPolygon", "coordinates": [ [ [ [ 56.27631454445158, 57.932799573373792 ], [ 56.276643928856252, 57.933832151652823 ], [ 56.278494755511119, 57.933765534595707 ], [ 56.282572848140454, 57.933582337051114 ], [ 56.285427512980988, 57.933465756308649 ], [ 56.285145183491252, 57.932316583014817 ], [ 56.28269832791365, 57.932308255537826 ], [ 56.280000512789641, 57.932466477269955 ], [ 56.277945781503306, 57.932633025708235 ], [ 56.27631454445158, 57.932799573373792 ] ] ] ] } }
]
}
