{
"type": "FeatureCollection",
"name": "зоны в третьем сценарии",
"crs": { "type": "name", "properties": { "name": "urn:ogc:def:crs:OGC:1.3:CRS84" } },
"features": [
{ "type": "Feature", "properties": { "id": null, "area": null }, "geometry": { "type": "MultiPolygon", "coordinates": [ [ [ [ 55.770004857256787, 58.08409328566372 ], [ 55.773632811998269, 58.085195927591705 ], [ 55.77380906890879, 58.08531240186209 ], [ 55.773162793570215, 58.085716176389347 ], [ 55.773030600887331, 58.086112181583928 ], [ 55.773383114708366, 58.085980180340727 ], [ 55.774381903867976, 58.086104416818422 ], [ 55.77507224343416, 58.08641500612034 ], [ 55.775894775683255, 58.086430535514459 ], [ 55.776291353731921, 58.086275241269028 ], [ 55.776291353731921, 58.086104416818422 ], [ 55.776026968366146, 58.085638527796625 ], [ 55.775850711455632, 58.085335696670555 ], [ 55.776381530101737, 58.085235291933124 ], [ 55.780169005763312, 58.085133807825372 ], [ 55.780315886522075, 58.084807677278022 ], [ 55.780198381915056, 58.08375938033091 ], [ 55.780144779572112, 58.083025765705223 ], [ 55.777991766653969, 58.083255333240245 ], [ 55.778226969745873, 58.083896201459702 ], [ 55.776423546414811, 58.084233059061447 ], [ 55.776200604646426, 58.083446638391329 ], [ 55.770004857256787, 58.08409328566372 ] ] ] ] } },
{ "type": "Feature", "properties": { "id": null, "area": null }, "geometry": { "type": "MultiPolygon", "coordinates": [ [ [ [ 55.785588905761749, 58.082905189679103 ], [ 55.785750474596398, 58.085289107038435 ], [ 55.789143420123864, 58.085390051164488 ], [ 55.790039392752327, 58.085863708250017 ], [ 55.790715044242638, 58.086096652051275 ], [ 55.791757897629886, 58.085677352114125 ], [ 55.79202228299566, 58.085413345922255 ], [ 55.792051659147404, 58.084535899545024 ], [ 55.791611016871123, 58.08420199835372 ], [ 55.79089130115316, 58.083937981246429 ], [ 55.789466557793141, 58.083673962185813 ], [ 55.788746842075206, 58.083371114387447 ], [ 55.787468979473957, 58.082749880091214 ], [ 55.785588905761749, 58.082905189679103 ] ] ] ] } },
{ "type": "Feature", "properties": { "id": null, "area": null }, "geometry": { "type": "MultiPolygon", "coordinates": [ [ [ [ 55.913265005318429, 58.006325594320813 ], [ 55.915181799220299, 58.007551257096694 ], [ 55.916657950845895, 58.008426704811846 ], [ 55.918618808975395, 58.009395508655579 ], [ 55.919808543121391, 58.008718515958392 ], [ 55.917649395967558, 58.007621293701909 ], [ 55.916107148000513, 58.00687422951404 ], [ 55.915358056130813, 58.006290574767661 ], [ 55.915093670765039, 58.006033763664171 ], [ 55.913265005318429, 58.006325594320813 ] ] ] ] } },
{ "type": "Feature", "properties": { "id": null, "area": null }, "geometry": { "type": "MultiPolygon", "coordinates": [ [ [ [ 55.891585405324726, 58.00285849234767 ], [ 55.893039524836482, 58.006360613839739 ], [ 55.902028627272898, 58.005239972240524 ], [ 55.901367663858451, 58.003675684675862 ], [ 55.900045737029579, 58.002554959017324 ], [ 55.898018782558616, 58.00239151692729 ], [ 55.891585405324726, 58.00285849234767 ] ] ] ] } },
{ "type": "Feature", "properties": { "id": null, "area": null }, "geometry": { "type": "MultiPolygon", "coordinates": [ [ [ [ 56.220337591610935, 58.027576141516107 ], [ 56.220590960919793, 58.028130283981319 ], [ 56.222573851163112, 58.028276109518792 ], [ 56.222816204415075, 58.027191153275027 ], [ 56.222937381041064, 58.026776994631042 ], [ 56.222298449740435, 58.026683662443467 ], [ 56.220425720066174, 58.026706995513173 ], [ 56.220095238358965, 58.026759494864407 ], [ 56.220227431041856, 58.027045323313651 ], [ 56.220436736123091, 58.027418646827478 ], [ 56.219918981448451, 58.027581974639396 ], [ 56.219423258887609, 58.027826964958734 ], [ 56.220337591610935, 58.027576141516107 ] ] ] ] } },
{ "type": "Feature", "properties": { "id": null, "area": null }, "geometry": { "type": "MultiPolygon", "coordinates": [ [ [ [ 56.263577596151642, 57.878759373308398 ], [ 56.266087275947207, 57.878188031159738 ], [ 56.26674823936164, 57.877110240689809 ], [ 56.265734762126172, 57.876313592196219 ], [ 56.2659802, 57.8758235 ], [ 56.26652791822351, 57.87549349443664 ], [ 56.2683345515563, 57.874579649196569 ], [ 56.2706955, 57.8738207 ], [ 56.271755426731517, 57.872832944106769 ], [ 56.269524285702303, 57.872306651394233 ], [ 56.268026101962896, 57.871627067466363 ], [ 56.26705136489354, 57.871331940220443 ], [ 56.268753161718784, 57.871228684713444 ], [ 56.268400647897749, 57.870220991002654 ], [ 56.2670477, 57.8701177 ], [ 56.264919573915023, 57.869822592681835 ], [ 56.264170482045316, 57.86907265446473 ], [ 56.263245133265102, 57.868463318154987 ], [ 56.263245133265102, 57.867713351609446 ], [ 56.261791013753339, 57.866283684587138 ], [ 56.261262243021783, 57.864877399321529 ], [ 56.260380958469192, 57.863424180151327 ], [ 56.258089618632454, 57.862439708020936 ], [ 56.256238921072026, 57.862439708020936 ], [ 56.255445764974688, 57.86356481682899 ], [ 56.254652608877372, 57.86459613567434 ], [ 56.253947581235295, 57.865721177074924 ], [ 56.255357636519427, 57.86717430350074 ], [ 56.255886407250983, 57.86867424342983 ], [ 56.255886407250983, 57.86984602799928 ], [ 56.254828865787871, 57.87125211911512 ], [ 56.25368319586952, 57.871767672090748 ], [ 56.250334314569685, 57.871486462292523 ], [ 56.248307360098721, 57.871158381416834 ], [ 56.244958478798885, 57.870689689262278 ], [ 56.240728312946459, 57.869564803182577 ], [ 56.235704990996688, 57.869189833341409 ], [ 56.232267981241606, 57.86867424342983 ], [ 56.231386696689007, 57.86876798759959 ], [ 56.230064769860135, 57.868439881937007 ], [ 56.227509044657616, 57.868627371253375 ], [ 56.226627760105039, 57.868908603396328 ], [ 56.225570218641927, 57.869892898588382 ], [ 56.221692566610542, 57.869892898588382 ], [ 56.220458768236909, 57.871111512476098 ], [ 56.222397594252612, 57.872376952447304 ], [ 56.224248291813041, 57.874111001607552 ], [ 56.22416016335778, 57.874860834819735 ], [ 56.22698027392606, 57.875282609133848 ], [ 56.23032915522591, 57.874532784712372 ], [ 56.232179852786338, 57.873408018777667 ], [ 56.2341525, 57.8721364 ], [ 56.23605750481773, 57.872751889077051 ], [ 56.237731945467644, 57.874157866641163 ], [ 56.243372166604217, 57.875282609133848 ], [ 56.247602332456644, 57.876641626065435 ], [ 56.246632919448793, 57.877391406534315 ], [ 56.246192277172497, 57.877813151180632 ], [ 56.245050829528239, 57.878759373308398 ], [ 56.247866717822426, 57.880952650355809 ], [ 56.247077194627671, 57.881837652526677 ], [ 56.263577596151642, 57.878759373308398 ] ] ] ] } },
{ "type": "Feature", "properties": { "id": null, "area": null }, "geometry": { "type": "MultiPolygon", "coordinates": [ [ [ [ 56.1058296, 57.9996685 ], [ 56.106883221522089, 57.999752991364851 ], [ 56.111950607699463, 58.000079898890974 ], [ 56.114048738189027, 58.000125655102273 ], [ 56.115447895043403, 57.997415470382293 ], [ 56.11523078449703, 57.997146997521163 ], [ 56.113349159761832, 57.996661184369806 ], [ 56.1130355556393, 57.996699538279309 ], [ 56.109489416715299, 57.995689538292908 ], [ 56.108476234165579, 57.996904091769409 ], [ 56.109879589000883, 57.997266061390377 ], [ 56.109835524773267, 57.997750617634189 ], [ 56.109956701399248, 57.998188464021901 ], [ 56.110044254778231, 57.998450989704565 ], [ 56.109585910291457, 57.998553261592917 ], [ 56.109042368675944, 57.998848142468724 ], [ 56.106835843370774, 57.998450989704565 ], [ 56.106629852213224, 57.998608791516865 ], [ 56.106063894761476, 57.999205238013737 ], [ 56.1058296, 57.9996685 ] ] ] ] } },
{ "type": "Feature", "properties": { "id": null, "area": null }, "geometry": { "type": "MultiPolygon", "coordinates": [ [ [ [ 55.807797276487243, 58.05477148471391 ], [ 55.809383588681889, 58.055261091113046 ], [ 55.810837708193667, 58.055214462221279 ], [ 55.811851185429155, 58.055331034336632 ], [ 55.8143187821764, 58.055447606071617 ], [ 55.814647263899104, 58.056194458565635 ], [ 55.817144035182345, 58.057103837852438 ], [ 55.818519068642672, 58.058874667925707 ], [ 55.818718086643514, 58.059496830624987 ], [ 55.820056935012772, 58.059917980763196 ], [ 55.822083300112219, 58.059334112196282 ], [ 55.82335194884044, 58.059504065512797 ], [ 55.824366499999989, 58.0595864 ], [ 55.826733084313602, 58.059372398952085 ], [ 55.829565004936178, 58.058944581251367 ], [ 55.836571217129254, 58.058291838537222 ], [ 55.840757318754051, 58.05796546270723 ], [ 55.843092722818426, 58.057242762757362 ], [ 55.844502778102559, 58.056986317325155 ], [ 55.844987484606484, 58.056356852550159 ], [ 55.846000961841966, 58.055797318994337 ], [ 55.846750053711673, 58.055237776674758 ], [ 55.847499145581352, 58.05453833645123 ], [ 55.846838182166927, 58.054188611204353 ], [ 55.845912833386706, 58.054328501713918 ], [ 55.844987484606484, 58.054584966225477 ], [ 55.843114754932273, 58.052766359931297 ], [ 55.840823415095549, 58.054025404917574 ], [ 55.838267689893037, 58.05453833645123 ], [ 55.835667900462902, 58.055331034336646 ], [ 55.832935918349882, 58.054911372941199 ], [ 55.83033612891974, 58.054981316849457 ], [ 55.829454844367156, 58.055843947125382 ], [ 55.827780403717234, 58.055983831153355 ], [ 55.826678798026492, 58.056963004012779 ], [ 55.826194091522567, 58.057452580378076 ], [ 55.825092485831838, 58.057126196880063 ], [ 55.823946832301864, 58.056826240314294 ], [ 55.821236865914216, 58.056240283782046 ], [ 55.819474296809048, 58.055774004905992 ], [ 55.81808484754994, 58.055237192202185 ], [ 55.817578256275091, 58.054681965958295 ], [ 55.816456518452185, 58.054126731085475 ], [ 55.817795366821443, 58.052977941884187 ], [ 55.81670981408962, 58.052786473426096 ], [ 55.81493568136321, 58.052346668409548 ], [ 55.814230653721133, 58.051833705410282 ], [ 55.812952791119891, 58.052090187830451 ], [ 55.812556213071211, 58.052766359931269 ], [ 55.807797276487243, 58.05477148471391 ] ] ] ] } },
{ "type": "Feature", "properties": { "id": null, "area": null }, "geometry": { "type": "MultiPolygon", "coordinates": [ [ [ [ 55.909651738652705, 58.055820633067462 ], [ 55.9123748, 58.056738 ], [ 55.913529390684097, 58.056823123818901 ], [ 55.913881904505139, 58.057709022463115 ], [ 55.914630996374839, 58.05850164999616 ], [ 55.916393565480007, 58.058431712980116 ], [ 55.916217308569486, 58.057639083895225 ], [ 55.916305437024747, 58.056426793628447 ], [ 55.918023941902305, 58.054958002228588 ], [ 55.9169027, 58.0545961 ], [ 55.9154829, 58.0549856 ], [ 55.914895381740614, 58.053559097132933 ], [ 55.912251528082841, 58.053675674649668 ], [ 55.910929601253969, 58.053652359176759 ], [ 55.911238050847373, 58.055284405536135 ], [ 55.909651738652705, 58.055820633067462 ] ] ] ] } },
{ "type": "Feature", "properties": { "id": null, "area": null }, "geometry": { "type": "MultiPolygon", "coordinates": [ [ [ [ 55.825384184529938, 58.034330482105283 ], [ 55.824354919717543, 58.036714358288691 ], [ 55.824933881174516, 58.037242195092183 ], [ 55.823615135633595, 58.037838130504028 ], [ 55.8239046163621, 58.038348924379079 ], [ 55.823968945412865, 58.038706475749137 ], [ 55.825609336207663, 58.038791606500624 ], [ 55.827024575324728, 58.038417029677667 ], [ 55.828214662764069, 58.037548677401865 ], [ 55.82860063706871, 58.037752997481981 ], [ 55.827667865832474, 58.038621344794919 ], [ 55.824805223072957, 58.03981315970573 ], [ 55.822971845125856, 58.040953859618469 ], [ 55.821234960754914, 58.042843595784923 ], [ 55.821524441483405, 58.044035269927264 ], [ 55.820157292337335, 58.045677574972437 ], [ 55.8231988, 58.046751 ], [ 55.8248457, 58.0452503 ], [ 55.825609336207663, 58.044307647009767 ], [ 55.8266591, 58.043635799999983 ], [ 55.8281048, 58.0424478 ], [ 55.8316595, 58.0411228 ], [ 55.833007177046852, 58.040221772813922 ], [ 55.8329913, 58.039723899999984 ], [ 55.83271, 58.038255 ], [ 55.831366786252083, 58.037667864257173 ], [ 55.831205963625145, 58.03691868313711 ], [ 55.832142762252538, 58.036464717369824 ], [ 55.833425315876916, 58.035675688920257 ], [ 55.835227258186599, 58.034855139122129 ], [ 55.834390037861638, 58.03459853299448 ], [ 55.831849254132905, 58.03388774474201 ], [ 55.830644578513137, 58.032848896674551 ], [ 55.831393670382838, 58.030609237252641 ], [ 55.831349606155207, 58.029629342144375 ], [ 55.830380193147356, 58.029396029827666 ], [ 55.829410780139504, 58.030235947044126 ], [ 55.828353238676392, 58.031869062938142 ], [ 55.827635701307088, 58.033019282451903 ], [ 55.825384184529938, 58.034330482105283 ] ] ] ] } },
{ "type": "Feature", "properties": { "id": null, "area": null }, "geometry": { "type": "MultiPolygon", "coordinates": [ [ [ [ 56.242744251360527, 57.925210315181822 ], [ 56.24320692575062, 57.926649339689327 ], [ 56.243669600140727, 57.927632054991264 ], [ 56.24485933428673, 57.928614743395727 ], [ 56.244411559586105, 57.929517301913371 ], [ 56.2439832, 57.9300855 ], [ 56.244266819221856, 57.931079918057264 ], [ 56.242744251360527, 57.932580319722213 ], [ 56.243157143095978, 57.933692665230758 ], [ 56.245322008676844, 57.93370323519887 ], [ 56.249089500139164, 57.933457600440022 ], [ 56.252212, 57.9337946 ], [ 56.255465, 57.93366 ], [ 56.259995272136528, 57.933077918298643 ], [ 56.262262871176382, 57.933026688912392 ], [ 56.262837539159541, 57.932510136338543 ], [ 56.263565534454578, 57.932078932078909 ], [ 56.264423851354202, 57.931106439848762 ], [ 56.2653989124017, 57.931207998331701 ], [ 56.265929627070605, 57.930567592389821 ], [ 56.26602612064675, 57.929671004878038 ], [ 56.266416715490323, 57.928273771851295 ], [ 56.2653323, 57.9272762 ], [ 56.265283103792981, 57.92640365666103 ], [ 56.265084814768649, 57.925666597489432 ], [ 56.265588, 57.924572299999987 ], [ 56.264754333061425, 57.923946733915109 ], [ 56.265077, 57.9225185 ], [ 56.263696791598313, 57.922086380573852 ], [ 56.26257315379376, 57.92233209314297 ], [ 56.262242672086536, 57.922928816668502 ], [ 56.261581708672097, 57.923771233000181 ], [ 56.259731011111668, 57.923981833995164 ], [ 56.258012506234124, 57.924543430609873 ], [ 56.25609571233224, 57.92499972139192 ], [ 56.253848436723146, 57.92499972139192 ], [ 56.249552174529271, 57.92517521630262 ], [ 56.247701476968821, 57.924894424033788 ], [ 56.242744251360527, 57.925210315181822 ] ] ] ] } },
{ "type": "Feature", "properties": { "id": null, "area": null }, "geometry": { "type": "MultiPolygon", "coordinates": [ [ [ [ 56.221928556339975, 57.934333015422986 ], [ 56.226550647706709, 57.934194499673829 ], [ 56.229792782797304, 57.934153718520676 ], [ 56.23297, 57.933786 ], [ 56.231143692863604, 57.933026688912385 ], [ 56.229937523161553, 57.931925239423634 ], [ 56.228345379154852, 57.931284846277009 ], [ 56.22926059770591, 57.930615133109733 ], [ 56.230714717217687, 57.929807971726831 ], [ 56.231970547705131, 57.928825315983026 ], [ 56.2350312, 57.9279776 ], [ 56.23838189282521, 57.927386378687444 ], [ 56.241884998921748, 57.92678972923639 ], [ 56.239108952581105, 57.926368558948347 ], [ 56.23646509892334, 57.92657914470994 ], [ 56.233028089168222, 57.92657914470994 ], [ 56.230053753803247, 57.926930118234559 ], [ 56.228070863559928, 57.927070506683762 ], [ 56.226682840389593, 57.926157971951653 ], [ 56.224964335512055, 57.925350710355588 ], [ 56.223327713194351, 57.925572033945535 ], [ 56.220770633426, 57.926699297602944 ], [ 56.218068813293428, 57.927903381053582 ], [ 56.21720037110795, 57.927852144282546 ], [ 56.217007383955632, 57.928800012710525 ], [ 56.21835470136763, 57.929913254675519 ], [ 56.21951621693588, 57.929773473155549 ], [ 56.220625893061751, 57.930849372411714 ], [ 56.221928556339975, 57.934333015422986 ] ] ] ] } },
{ "type": "Feature", "properties": { "id": null, "area": null }, "geometry": { "type": "MultiPolygon", "coordinates": [ [ [ [ 56.178696896501144, 57.918154750813088 ], [ 56.183059255036468, 57.918224962261789 ], [ 56.183852411133799, 57.916399419987506 ], [ 56.188148673327667, 57.913871592888555 ], [ 56.190263756253877, 57.911729822393802 ], [ 56.194427825764862, 57.90853448480798 ], [ 56.197864835519958, 57.905935868902084 ], [ 56.198525798934398, 57.905022797075532 ], [ 56.202888157469715, 57.902248321100295 ], [ 56.2021419, 57.9017621 ], [ 56.1989926, 57.9001846 ], [ 56.197137775764062, 57.898981891324205 ], [ 56.19436172942342, 57.89775251290925 ], [ 56.191651779424198, 57.896944612770191 ], [ 56.190197659912435, 57.897893015427698 ], [ 56.188016480644784, 57.899473630916788 ], [ 56.185240434304113, 57.90144052201191 ], [ 56.186297975767225, 57.903266824506311 ], [ 56.184315085523892, 57.904039463007848 ], [ 56.182001713573356, 57.905338863025662 ], [ 56.182596580646354, 57.906813800702075 ], [ 56.182596580646354, 57.908148215956977 ], [ 56.18298212927224, 57.909786821683277 ], [ 56.183521929426576, 57.911554261772928 ], [ 56.182200002597689, 57.912326722087442 ], [ 56.181472942841793, 57.91369604273428 ], [ 56.180745883085905, 57.914819548897235 ], [ 56.180415401378703, 57.91653984961048 ], [ 56.178696896501144, 57.918154750813088 ] ] ] ] } },
{ "type": "Feature", "properties": { "id": null, "area": null }, "geometry": { "type": "MultiPolygon", "coordinates": [ [ [ [ 56.302230958660289, 58.144885689361665 ], [ 56.3038134, 58.1451169 ], [ 56.303668554086691, 58.143568798911261 ], [ 56.303618981830624, 58.143071681904807 ], [ 56.303420692806291, 58.142539671805551 ], [ 56.302743205306484, 58.142286746183473 ], [ 56.302264006831017, 58.142382683699886 ], [ 56.301900476953065, 58.14294958192913 ], [ 56.301090796770374, 58.143185060078686 ], [ 56.301751760184821, 58.143839157877984 ], [ 56.301933525123793, 58.144048466635773 ], [ 56.302230958660289, 58.144885689361665 ] ] ] ] } },
{ "type": "Feature", "properties": { "id": null, "area": null }, "geometry": { "type": "MultiPolygon", "coordinates": [ [ [ [ 56.31316990316931, 58.090530059154851 ], [ 56.313649101644792, 58.090407779043744 ], [ 56.314128300120267, 58.089866247799549 ], [ 56.315103221156555, 58.089551806530913 ], [ 56.314392685486041, 58.08912381257327 ], [ 56.313599529388704, 58.088564792324838 ], [ 56.313004662315706, 58.087848534831188 ], [ 56.313285571766841, 58.087499135714125 ], [ 56.31315337908395, 58.087053646877685 ], [ 56.31216193396228, 58.086188858552546 ], [ 56.311583590974664, 58.08555990842445 ], [ 56.310476477255463, 58.085586114901112 ], [ 56.31123658518208, 58.087097322499744 ], [ 56.31216193396228, 58.089516868441109 ], [ 56.31316990316931, 58.090530059154851 ] ] ] ] } },
{ "type": "Feature", "properties": { "id": null, "area": null }, "geometry": { "type": "MultiPolygon", "coordinates": [ [ [ [ 56.245916875749977, 57.897458333982478 ], [ 56.246883534743603, 57.897629572755065 ], [ 56.249461292059912, 57.897655917109205 ], [ 56.251568112943453, 57.897379300427708 ], [ 56.253526217058742, 57.897761294332689 ], [ 56.255062956997307, 57.898209144086103 ], [ 56.258001016862586, 57.898878177269424 ], [ 56.259524460044801, 57.898894079974681 ], [ 56.262003072848955, 57.899526316902623 ], [ 56.265150911110233, 57.899960973339482 ], [ 56.265051766598056, 57.899737060073925 ], [ 56.265026980470026, 57.898722847226168 ], [ 56.265497916902817, 57.895666864069199 ], [ 56.265299627878477, 57.895284847906439 ], [ 56.265150911110233, 57.895139944162018 ], [ 56.263603374983511, 57.895169307261547 ], [ 56.25828515364271, 57.895969839518564 ], [ 56.25605440211897, 57.896312330429893 ], [ 56.248866424986922, 57.897063164470808 ], [ 56.245916875749977, 57.897458333982478 ] ] ] ] } },
{ "type": "Feature", "properties": { "id": null, "area": null }, "geometry": { "type": "MultiPolygon", "coordinates": [ [ [ [ 56.25511028484329, 57.894090439615098 ], [ 56.256227905015287, 57.895824938535291 ], [ 56.260788552574937, 57.89517946342297 ], [ 56.263663743427763, 57.894718402675302 ], [ 56.264916444520928, 57.894359684751791 ], [ 56.26495262961199, 57.892782648838491 ], [ 56.261478860870092, 57.893301924400355 ], [ 56.261008454686305, 57.893013438903054 ], [ 56.25511028484329, 57.894090439615098 ] ] ] ] } },
{ "type": "Feature", "properties": { "id": null, "area": null }, "geometry": { "type": "MultiPolygon", "coordinates": [ [ [ [ 56.285921686409019, 57.876152503040252 ], [ 56.279328564234014, 57.877285981453049 ], [ 56.276750819033637, 57.877668177016098 ], [ 56.275536298759604, 57.877958124760774 ], [ 56.275709801655893, 57.87818217369005 ], [ 56.273305547235857, 57.878827953972511 ], [ 56.270888592772238, 57.879420370473298 ], [ 56.269499085275477, 57.880788501953013 ], [ 56.267877385194737, 57.879974514888012 ], [ 56.267579951658242, 57.880554370860665 ], [ 56.267976529706914, 57.881397781043077 ], [ 56.268366893981806, 57.882129220316152 ], [ 56.267903724816243, 57.883634048744945 ], [ 56.267903724816243, 57.886315223357528 ], [ 56.267084229097421, 57.88935649062973 ], [ 56.267080312966293, 57.893810508009416 ], [ 56.266153974635131, 57.898788264175437 ], [ 56.266462754078852, 57.901194844120624 ], [ 56.26619257206562, 57.903587590550131 ], [ 56.266514217319504, 57.905064177424109 ], [ 56.266668607041346, 57.906219427626247 ], [ 56.266887325813997, 57.906410826440123 ], [ 56.268521283703684, 57.906089549279073 ], [ 56.269344695553613, 57.905734090349441 ], [ 56.271506151659679, 57.905460658010831 ], [ 56.273410291562641, 57.905187223591582 ], [ 56.274222633973395, 57.90518961000668 ], [ 56.276189306556155, 57.904448940266697 ], [ 56.280151976083957, 57.903573918165954 ], [ 56.281953189505685, 57.902753565595866 ], [ 56.282519285152489, 57.902097270056672 ], [ 56.281850263024424, 57.901304230289412 ], [ 56.283188307280533, 57.89944462014136 ], [ 56.28282806459621, 57.898678870349144 ], [ 56.283988368421781, 57.898314519687695 ], [ 56.285574680616435, 57.898393551186189 ], [ 56.286224638477158, 57.897831056906675 ], [ 56.287202440048944, 57.896299472254825 ], [ 56.282352483971025, 57.895917148319469 ], [ 56.278584992508705, 57.895495615946523 ], [ 56.277196969338391, 57.894547150034349 ], [ 56.277990125435707, 57.892755535034219 ], [ 56.277990125435707, 57.890858433595788 ], [ 56.277990125435707, 57.888539618115416 ], [ 56.280766171776378, 57.882768280409266 ], [ 56.281361038849376, 57.881555918250527 ], [ 56.283244784580539, 57.879921800245135 ], [ 56.28473195226303, 57.879157429242014 ], [ 56.286318264457698, 57.878603909065411 ], [ 56.287160992811096, 57.878261249449551 ], [ 56.287922925417639, 57.877395440381015 ], [ 56.286566125738105, 57.87699601643768 ], [ 56.285921686409019, 57.876152503040252 ] ] ] ] } },
{ "type": "Feature", "properties": { "id": null, "area": null }, "geometry": { "type": "MultiPolygon", "coordinates": [ [ [ [ 56.304768291476478, 57.926033191537577 ], [ 56.3038328, 57.9288618 ], [ 56.3031706, 57.929343099999976 ], [ 56.301760022227512, 57.929821132112224 ], [ 56.302404461556605, 57.930215941433111 ], [ 56.3033931, 57.9299967 ], [ 56.303899849290978, 57.92926112884323 ], [ 56.305130935641159, 57.929584244435567 ], [ 56.307460831677076, 57.929952735701619 ], [ 56.308947999359567, 57.929636886276583 ], [ 56.310027191377372, 57.929286746232499 ], [ 56.311971906980638, 57.929452639495345 ], [ 56.317215962801555, 57.929389215606797 ], [ 56.318614589295784, 57.929478960521983 ], [ 56.322378369126326, 57.929850324171767 ], [ 56.328795191941204, 57.930132109823681 ], [ 56.329470913377975, 57.929689528040399 ], [ 56.332075973530749, 57.926801774362339 ], [ 56.330214497219224, 57.92563588636218 ], [ 56.329470913377975, 57.924109071497668 ], [ 56.326672333265599, 57.920934508924844 ], [ 56.321123952636199, 57.918090205590637 ], [ 56.320834471907702, 57.916629529853616 ], [ 56.322307722373985, 57.916026401135404 ], [ 56.324241040361215, 57.916131724497852 ], [ 56.326323075116704, 57.915868415512655 ], [ 56.328058104079616, 57.915315460360858 ], [ 56.327512809262707, 57.914420181591204 ], [ 56.325926497068053, 57.913393216701742 ], [ 56.323497456519966, 57.912392556005159 ], [ 56.321464994020559, 57.912708557131154 ], [ 56.320593237967273, 57.913246684286896 ], [ 56.31779492425855, 57.913400456905897 ], [ 56.317553690318128, 57.912964766109177 ], [ 56.316557340668361, 57.913103554629743 ], [ 56.314900116973625, 57.913733628655578 ], [ 56.3129101, 57.9131875 ], [ 56.310847386774753, 57.912708474936792 ], [ 56.310162519633636, 57.9133405510442 ], [ 56.305877967602328, 57.913528600252235 ], [ 56.303866843111074, 57.913103554629743 ], [ 56.301246275946475, 57.913067282066159 ], [ 56.298689196178152, 57.912016479638147 ], [ 56.298496209025828, 57.913297941899685 ], [ 56.29796549435693, 57.914810008574634 ], [ 56.298640949390077, 57.915911983172919 ], [ 56.298116461405421, 57.916816318826122 ], [ 56.298399715449676, 57.918064580212459 ], [ 56.299504484575777, 57.917922174408844 ], [ 56.3025605, 57.9176148 ], [ 56.307373618032877, 57.916680782639446 ], [ 56.310847386774782, 57.917500817266564 ], [ 56.311474595019824, 57.918653959285344 ], [ 56.311329854655604, 57.919858312533037 ], [ 56.312343037205302, 57.920217048246968 ], [ 56.309978944589297, 57.920908885576011 ], [ 56.306746409787827, 57.920627027532262 ], [ 56.3057568, 57.9211684 ], [ 56.302452445648548, 57.920832015419826 ], [ 56.301053288794179, 57.921472595027069 ], [ 56.29796549435693, 57.922087540700218 ], [ 56.298061987933103, 57.924598459578277 ], [ 56.298544455813925, 57.92554641390565 ], [ 56.304768291476478, 57.926033191537577 ] ] ] ] } },
{ "type": "Feature", "properties": { "id": null, "area": null }, "geometry": { "type": "MultiPolygon", "coordinates": [ [ [ [ 56.362585180441542, 57.921318517959072 ], [ 56.359499, 57.922109 ], [ 56.35861939995489, 57.922687495848614 ], [ 56.358718544467045, 57.924003771527708 ], [ 56.3605289, 57.9258066 ], [ 56.359015978003555, 57.926688824304854 ], [ 56.359142421644677, 57.92759595933056 ], [ 56.357116056545223, 57.927800907438396 ], [ 56.355645064589901, 57.928741964481496 ], [ 56.353256313498676, 57.928159563811988 ], [ 56.351085208035002, 57.928057090927958 ], [ 56.348093907173926, 57.92733977255056 ], [ 56.345778061346003, 57.928748777219091 ], [ 56.345778061346003, 57.928748777219091 ], [ 56.3447391682516, 57.929268391768531 ], [ 56.341194616478226, 57.929722239053341 ], [ 56.337105040814812, 57.928426104404082 ], [ 56.335518728620144, 57.928584034790163 ], [ 56.334031560937653, 57.928636678097789 ], [ 56.3317005, 57.9279068 ], [ 56.329470913377975, 57.929689528040399 ], [ 56.3321197, 57.9304407 ], [ 56.334054091842106, 57.93074690720514 ], [ 56.3424463, 57.9312817 ], [ 56.347217781055761, 57.931689857868022 ], [ 56.350192116420743, 57.932321517814941 ], [ 56.351712416280051, 57.932949844695926 ], [ 56.357888005154528, 57.934640379457534 ], [ 56.3636939, 57.9360487 ], [ 56.367344375618572, 57.937713875044366 ], [ 56.368930429220171, 57.93795332761178 ], [ 56.370021018854004, 57.938374361999479 ], [ 56.372598776170328, 57.939374298873886 ], [ 56.375176533486645, 57.940584711497728 ], [ 56.377853435315139, 57.941637211028322 ], [ 56.380926915192298, 57.942058202196961 ], [ 56.382017504826123, 57.941795083295375 ], [ 56.384198684093775, 57.940163703041797 ], [ 56.3843633, 57.939129800000011 ], [ 56.380232903607123, 57.936795457576231 ], [ 56.374581393830823, 57.935152646999512 ], [ 56.3725294, 57.9334627 ], [ 56.36811632422787, 57.931361694057813 ], [ 56.365896971976099, 57.931105534148728 ], [ 56.364546061909827, 57.929875941140608 ], [ 56.363098658267369, 57.928697541654515 ], [ 56.364369781660535, 57.927057345289896 ], [ 56.363576625563205, 57.924688215812907 ], [ 56.362585180441542, 57.921318517959072 ] ] ] ] } },
{ "type": "Feature", "properties": { "id": null, "area": null }, "geometry": { "type": "MultiPolygon", "coordinates": [ [ [ [ 56.095373210635728, 57.969752189764698 ], [ 56.099232953682254, 57.969240416127306 ], [ 56.101806115713295, 57.969308653034467 ], [ 56.109370096368892, 57.969727534701796 ], [ 56.112227421938947, 57.97040042588273 ], [ 56.113642661056005, 57.969922779353418 ], [ 56.1163217, 57.9686611 ], [ 56.115572532579279, 57.967807411069849 ], [ 56.117341893609705, 57.966357308243055 ], [ 56.11711642979791, 57.964190524515068 ], [ 56.118145694610327, 57.96227956920611 ], [ 56.118853314168859, 57.960505019504467 ], [ 56.119560933727392, 57.958559739125221 ], [ 56.121008337369865, 57.956989786784447 ], [ 56.1195186, 57.9570805 ], [ 56.116376645714013, 57.958286708872677 ], [ 56.112742054345176, 57.959361753470169 ], [ 56.1097507534841, 57.961136359751329 ], [ 56.107982073198578, 57.962365158260951 ], [ 56.102835380525711, 57.965623674157342 ], [ 56.100390876596229, 57.966579075424669 ], [ 56.095373210635728, 57.969752189764698 ] ] ] ] } },
{ "type": "Feature", "properties": { "id": null, "area": null }, "geometry": { "type": "MultiPolygon", "coordinates": [ [ [ [ 56.125233218315493, 57.940900464598286 ], [ 56.127315253070982, 57.940426833905583 ], [ 56.129496432338655, 57.940111076637514 ], [ 56.130388732948141, 57.940084763406425 ], [ 56.132173334167142, 57.94000582359741 ], [ 56.135197241788212, 57.938611191671903 ], [ 56.138964733250532, 57.937427027681004 ], [ 56.140451900933023, 57.936190192463435 ], [ 56.140650189957356, 57.935242800490677 ], [ 56.140501473189111, 57.933821665642668 ], [ 56.136634837214622, 57.931689857868022 ], [ 56.1325953, 57.929750699999985 ], [ 56.131181889045479, 57.929268391768538 ], [ 56.12791012014398, 57.931426662942982 ], [ 56.125183646059426, 57.933216350379922 ], [ 56.123894767401246, 57.934163795841073 ], [ 56.122952894535665, 57.934769095126569 ], [ 56.1230506, 57.9355191 ], [ 56.122754605511332, 57.936532300085737 ], [ 56.123250328072174, 57.937795438442926 ], [ 56.125233218315493, 57.940900464598286 ] ] ] ] } },
{ "type": "Feature", "properties": { "id": null, "area": null }, "geometry": { "type": "MultiPolygon", "coordinates": [ [ [ [ 56.15172958919193, 57.932663662312017 ], [ 56.153985126843715, 57.933769029938091 ], [ 56.15559622516642, 57.934321700986601 ], [ 56.158372271507076, 57.934690143624735 ], [ 56.159289358244607, 57.935032265545132 ], [ 56.160950028823393, 57.934348018443309 ], [ 56.161693612664635, 57.933690076236488 ], [ 56.159438075012851, 57.93251890926895 ], [ 56.158595346659453, 57.931255585206891 ], [ 56.157727832177983, 57.930387024123753 ], [ 56.156240664495492, 57.930939747244487 ], [ 56.15450563553258, 57.931413503146075 ], [ 56.152597103673379, 57.9320714870817 ], [ 56.151754375319975, 57.932558387429495 ], [ 56.15172958919193, 57.932663662312017 ] ] ] ] } },
{ "type": "Feature", "properties": { "id": null, "area": null }, "geometry": { "type": "MultiPolygon", "coordinates": [ [ [ [ 56.193618145582171, 57.896220121659375 ], [ 56.19700145205983, 57.897682261444032 ], [ 56.2003008, 57.8994794 ], [ 56.202912943597738, 57.900586605952149 ], [ 56.205032157545304, 57.902226370278051 ], [ 56.206147533307181, 57.902542460824066 ], [ 56.211910308076845, 57.901851009143691 ], [ 56.2222878, 57.9003041 ], [ 56.222097406701927, 57.89977657428097 ], [ 56.220275626290864, 57.89853185589044 ], [ 56.214773105865632, 57.89598301230626 ], [ 56.20845264321504, 57.893769916256929 ], [ 56.2030748, 57.891237899999986 ], [ 56.201202700762892, 57.890884782912408 ], [ 56.200459116921628, 57.891240496796478 ], [ 56.201537313491436, 57.892030959494534 ], [ 56.200310400153377, 57.893038774229794 ], [ 56.196592480947146, 57.89501479954906 ], [ 56.195105313264662, 57.894718402675288 ], [ 56.193618145582171, 57.896220121659375 ] ] ] ] } },
{ "type": "Feature", "properties": { "id": null, "area": null }, "geometry": { "type": "MultiPolygon", "coordinates": [ [ [ [ 56.009558256900711, 57.936702211805752 ], [ 56.000918393123051, 57.936979666671547 ], [ 56.000472242818311, 57.937177032510156 ], [ 55.996917598423281, 57.937496177768104 ], [ 55.995415872697819, 57.937334924399607 ], [ 55.995759675509333, 57.93785473728412 ], [ 55.994119284714536, 57.939237719004112 ], [ 55.992590254101088, 57.938992747301249 ], [ 55.991028728034479, 57.938321732971161 ], [ 55.990549022396486, 57.93949382088153 ], [ 55.990163048091837, 57.940006019153437 ], [ 55.990163048091837, 57.941235265179323 ], [ 55.988619150873213, 57.941696221583136 ], [ 55.984952394979004, 57.941901089195262 ], [ 55.982774947396621, 57.942071358091418 ], [ 55.980098045568134, 57.942584434212108 ], [ 55.978873299680686, 57.944103342156247 ], [ 55.977811870342883, 57.946151828215925 ], [ 55.97838780273328, 57.946886091519424 ], [ 55.979934729018481, 57.947688116008251 ], [ 55.980899664780132, 57.948814685245274 ], [ 55.981092651932464, 57.949890013787723 ], [ 55.98041719689931, 57.952808600205302 ], [ 55.981189145508608, 57.953730209738318 ], [ 55.981575119813257, 57.954907787458481 ], [ 55.982443561998736, 57.954344602937809 ], [ 55.984180446369685, 57.953576609793984 ], [ 55.986046716298119, 57.952647136412807 ], [ 55.987831317517113, 57.952134204185008 ], [ 55.990582577729725, 57.9517396359415 ], [ 55.993110762789968, 57.95110831772395 ], [ 55.996242143390141, 57.951477344628351 ], [ 55.997882534184932, 57.950914106241108 ], [ 55.999619418555859, 57.949633986106114 ], [ 56.0043354, 57.9468521 ], [ 56.007097670708539, 57.945204417950798 ], [ 56.008496827562915, 57.944026521653804 ], [ 56.0097222, 57.9426585 ], [ 56.010571439450409, 57.938879173305295 ], [ 56.009702997264952, 57.938597456314618 ], [ 56.00999011598627, 57.937690178611142 ], [ 56.009558256900711, 57.936702211805752 ] ] ] ] } },
{ "type": "Feature", "properties": { "id": null, "area": null }, "geometry": { "type": "MultiPolygon", "coordinates": [ [ [ [ 56.002936385236602, 57.92733977255056 ], [ 55.999096612712009, 57.927346894838919 ], [ 55.995490231081952, 57.927149474945175 ], [ 55.992962046021724, 57.92742586249247 ], [ 55.991697953491595, 57.928018114357911 ], [ 55.9924787165249, 57.928630097688597 ], [ 55.993928705015328, 57.928590615207852 ], [ 55.993333837942345, 57.929696108255484 ], [ 55.990536960699579, 57.929875941140615 ], [ 55.989392843583722, 57.931137146296649 ], [ 55.988896569904803, 57.931669083535915 ], [ 55.9898115, 57.9349744 ], [ 55.990102739606833, 57.935357551969219 ], [ 55.9922928205646, 57.935420438390437 ], [ 55.993594092286784, 57.935242800490705 ], [ 55.995072158779273, 57.935741745634509 ], [ 55.996233814923201, 57.936032295537935 ], [ 55.996196635731145, 57.936387562643532 ], [ 55.997484498183354, 57.936407671579055 ], [ 55.997580991759527, 57.935972259859689 ], [ 55.997870472488003, 57.935767358399303 ], [ 55.999617121400881, 57.935716499602968 ], [ 55.999269629342379, 57.935203873351625 ], [ 55.999765838169125, 57.934749357267414 ], [ 56.001699156156377, 57.934492764110388 ], [ 56.002743398084284, 57.934742833550843 ], [ 56.003901320998253, 57.935203873351625 ], [ 56.004480282455226, 57.935536842858141 ], [ 56.004383788879053, 57.934742833550843 ], [ 56.003818370103929, 57.934374335880776 ], [ 56.004338878792794, 57.933940095695796 ], [ 56.0053004778526, 57.933359678616092 ], [ 56.005900404859418, 57.932005689230891 ], [ 56.007982439614906, 57.932084646637421 ], [ 56.006792705468904, 57.931275324987318 ], [ 56.006532451124471, 57.930663386747902 ], [ 56.005975932885754, 57.929030571517217 ], [ 56.005975932885754, 57.929030571517217 ], [ 56.004822208289603, 57.928472167505156 ], [ 56.003032878812753, 57.928338890655183 ], [ 56.00259145676587, 57.927820698154946 ], [ 56.002936385236602, 57.92733977255056 ] ] ] ] } },
{ "type": "Feature", "properties": { "id": null, "area": null }, "geometry": { "type": "MultiPolygon", "coordinates": [ [ [ [ 56.345838369831007, 58.005302560349413 ], [ 56.345597135890543, 58.006606255508913 ], [ 56.342798822181805, 58.00642731976901 ], [ 56.340241742413475, 58.005992757819307 ], [ 56.331219593042157, 58.005507064690889 ], [ 56.330109916916278, 58.006273945565674 ], [ 56.331702060922979, 58.007245304420735 ], [ 56.334880485823128, 58.008010505047473 ], [ 56.34062771671811, 58.00790990318572 ], [ 56.343265207799938, 58.008523368015659 ], [ 56.343393865901497, 58.009034580675092 ], [ 56.337668580382442, 58.014316683932343 ], [ 56.338504858042526, 58.014827813840313 ], [ 56.336189012214611, 58.017042625739492 ], [ 56.3342817, 58.0164088 ], [ 56.331707, 58.015463299999986 ], [ 56.3293665, 58.0150585 ], [ 56.3267985, 58.014332699999983 ], [ 56.325815952777006, 58.014734107237118 ], [ 56.324899263803459, 58.015730792167766 ], [ 56.324749155986154, 58.016331757385025 ], [ 56.325912446353179, 58.017545198585466 ], [ 56.328276538969178, 58.018030728359122 ], [ 56.332036277630358, 58.018182849804454 ], [ 56.334741608572152, 58.01928285368345 ], [ 56.335465310393381, 58.020330516709095 ], [ 56.335658297545677, 58.019640595727104 ], [ 56.336864467247729, 58.019717254271036 ], [ 56.340917197446608, 58.020637143985837 ], [ 56.34073620857297, 58.019836936468991 ], [ 56.341737392844003, 58.019257300543451 ], [ 56.343377783638786, 58.017902958004868 ], [ 56.344974636468045, 58.015386481763876 ], [ 56.346176097347531, 58.014274089443781 ], [ 56.346996292744905, 58.01394185069281 ], [ 56.348540189963529, 58.014734107237103 ], [ 56.348469480521921, 58.015228933399065 ], [ 56.348023330217167, 58.015819736190188 ], [ 56.3481103, 58.0167694 ], [ 56.349584856283784, 58.015977281953624 ], [ 56.350421814698727, 58.014836332610265 ], [ 56.354233310957206, 58.015424122838375 ], [ 56.355391233871153, 58.014376316131177 ], [ 56.356356169632811, 58.013788508690389 ], [ 56.359474521372377, 58.012865624681304 ], [ 56.362338771354956, 58.012280610665506 ], [ 56.363303707116593, 58.010005864611259 ], [ 56.361259122591356, 58.009635517000412 ], [ 56.359829938374681, 58.009009020215558 ], [ 56.362049290626466, 58.00790990318572 ], [ 56.364413383242471, 58.007168619153759 ], [ 56.36475111075903, 58.006146133227524 ], [ 56.362917732811987, 58.005149181326523 ], [ 56.3651848, 58.0051533 ], [ 56.364530891492855, 58.004632213783552 ], [ 56.364461630030583, 58.003104064886799 ], [ 56.359733444798557, 58.000854301849671 ], [ 56.358507862378758, 58.000692112768597 ], [ 56.356277110855011, 58.001440765331708 ], [ 56.353600209026524, 58.001637776562085 ], [ 56.350856035791509, 58.003104064886799 ], [ 56.349312138572884, 58.001570150879218 ], [ 56.347671747778108, 58.000240705574569 ], [ 56.346320837711829, 57.997888489096908 ], [ 56.345355901950185, 57.998093035794888 ], [ 56.343190035249059, 57.998761304960787 ], [ 56.340917197446657, 58.000138438506333 ], [ 56.340513133420572, 58.00289862276361 ], [ 56.346224344135678, 58.003640919262061 ], [ 56.345838369831007, 58.005302560349413 ] ] ] ] } },
{ "type": "Feature", "properties": { "id": null, "area": null }, "geometry": { "type": "MultiPolygon", "coordinates": [ [ [ [ 56.498245855745083, 58.146766098320363 ], [ 56.497948422208587, 58.147237002577441 ], [ 56.496535612910215, 58.147433210846081 ], [ 56.492966950086505, 58.14884469787949 ], [ 56.48886597309955, 58.149557585427395 ], [ 56.486694867635855, 58.150295918193557 ], [ 56.485392204357659, 58.150015862740268 ], [ 56.483896553927131, 58.148819237345847 ], [ 56.481580708099202, 58.149099302214154 ], [ 56.482184444774141, 58.150847061603351 ], [ 56.4823933, 58.151467899999986 ], [ 56.482481878310629, 58.1521026484873 ], [ 56.476852522867183, 58.152001662915779 ], [ 56.477431484324157, 58.152816318117218 ], [ 56.479730618098031, 58.153672069805275 ], [ 56.481387720946856, 58.15363095467174 ], [ 56.486348514285126, 58.154142882705436 ], [ 56.490313376742009, 58.154165549777019 ], [ 56.495234549126351, 58.15345275451881 ], [ 56.496826693133059, 58.152663571687327 ], [ 56.500686436179599, 58.151543411170422 ], [ 56.501699618729305, 58.149964943330232 ], [ 56.5026701796005, 58.149826864645298 ], [ 56.503822734554447, 58.148904738389497 ], [ 56.505235543852827, 58.14870853823173 ], [ 56.50666903790173, 58.149786724821375 ], [ 56.510738064278037, 58.149238276175829 ], [ 56.511221393774868, 58.148590817617986 ], [ 56.510217555589165, 58.147649038692478 ], [ 56.507489233299133, 58.146400403607309 ], [ 56.5058143, 58.1451181 ], [ 56.502326826974382, 58.143319335272793 ], [ 56.500216352924404, 58.143449971135368 ], [ 56.500216352924404, 58.143920919258022 ], [ 56.500067636156146, 58.145510323180439 ], [ 56.498245855745083, 58.146766098320363 ] ] ] ] } },
{ "type": "Feature", "properties": { "id": null, "area": null }, "geometry": { "type": "MultiPolygon", "coordinates": [ [ [ [ 56.013986879132688, 57.923447650939522 ], [ 56.015102254894551, 57.924721121459442 ], [ 56.01677531853737, 57.926113002693278 ], [ 56.018671457332545, 57.927445604378661 ], [ 56.020009908246784, 57.927445604378661 ], [ 56.021515665525321, 57.926942182888375 ], [ 56.023411804320496, 57.92614261660141 ], [ 56.024192567353801, 57.925639176841337 ], [ 56.02257527249909, 57.924691506378878 ], [ 56.020902208856292, 57.923951121426896 ], [ 56.020121445822973, 57.923773426766829 ], [ 56.019507989153951, 57.923566115218684 ], [ 56.019061838849197, 57.923832658417894 ], [ 56.018169538239704, 57.923447650939522 ], [ 56.018615688544457, 57.923092255757091 ], [ 56.017444543994486, 57.922944173392985 ], [ 56.016161861868341, 57.922677623598723 ], [ 56.0149098, 57.922314899999989 ], [ 56.0136338, 57.9230375 ], [ 56.013986879132688, 57.923447650939522 ] ] ] ] } },
{ "type": "Feature", "properties": { "id": null, "area": null }, "geometry": { "type": "MultiPolygon", "coordinates": [ [ [ [ 56.027761769791802, 57.933663758297349 ], [ 56.028598301613208, 57.934107870935428 ], [ 56.031609816170246, 57.935025686308151 ], [ 56.033617492541609, 57.935499388285855 ], [ 56.034955943455856, 57.93564741887176 ], [ 56.036573238310581, 57.935410569641249 ], [ 56.038469377105756, 57.935469782095396 ], [ 56.039863596808104, 57.935469782095396 ], [ 56.040532822265227, 57.935114505905183 ], [ 56.040477053477133, 57.934581585026116 ], [ 56.038413608317668, 57.934315121619385 ], [ 56.036350163158204, 57.934463157089567 ], [ 56.0347328683035, 57.93398944143587 ], [ 56.032557885567847, 57.933811796453924 ], [ 56.031777122534521, 57.932893950041134 ], [ 56.030382902832194, 57.932420213677609 ], [ 56.029044451917947, 57.932212952052588 ], [ 56.027650232215613, 57.931946471061963 ], [ 56.02720408191086, 57.932390604947308 ], [ 56.027538694639425, 57.932745908099143 ], [ 56.026869469182309, 57.933101207734182 ], [ 56.027761769791802, 57.933663758297349 ] ] ] ] } },
{ "type": "Feature", "properties": { "id": null, "area": null }, "geometry": { "type": "MultiPolygon", "coordinates": [ [ [ [ 56.0389984, 57.9610059 ], [ 56.037326116949892, 57.961632124634889 ], [ 56.033979989664267, 57.963643822301989 ], [ 56.033589608147622, 57.965300429748567 ], [ 56.033143457842883, 57.967844356430824 ], [ 56.032808845114317, 57.969648660110117 ], [ 56.032083850869114, 57.971157106594575 ], [ 56.035653053307094, 57.972399308974907 ], [ 56.040058787566494, 57.973818916121566 ], [ 56.043181839699734, 57.973434444738267 ], [ 56.04524528485917, 57.973049969230452 ], [ 56.046304891832946, 57.972517611718168 ], [ 56.044520290613953, 57.971423296443255 ], [ 56.0423504, 57.9704088 ], [ 56.04251261424259, 57.969737394013563 ], [ 56.046667388955562, 57.967090071416827 ], [ 56.048619296538831, 57.965818103877623 ], [ 56.0480825, 57.9654092 ], [ 56.042679920606858, 57.962963407781949 ], [ 56.0389984, 57.9610059 ] ] ] ] } }
]
}
