{
"type": "FeatureCollection",
"name": "Новая улично-дорожная сеть",
"crs": { "type": "name", "properties": { "name": "urn:ogc:def:crs:OGC:1.3:CRS84" } },
"features": [
{ "type": "Feature", "properties": { "id": null }, "geometry": { "type": "MultiLineString", "coordinates": [ [ [ 56.202732365532057, 58.010772649099131 ], [ 56.199977456809236, 58.015568204498763 ], [ 56.196624815125254, 58.022307753463139 ], [ 56.195024690685173, 58.02731114816342 ], [ 56.191291066991646, 58.034774589283131 ], [ 56.189408771110763, 58.038802180088695 ] ] ] } },
{ "type": "Feature", "properties": { "id": null }, "geometry": { "type": "MultiLineString", "coordinates": [ [ [ 56.318915902368751, 58.005135014811607 ], [ 56.318514940089848, 58.011052135865668 ], [ 56.3198439, 58.011581 ], [ 56.321967275161647, 58.012218137489626 ] ] ] } },
{ "type": "Feature", "properties": { "id": null }, "geometry": { "type": "MultiLineString", "coordinates": [ [ [ 56.3379466, 58.018582399999985 ], [ 56.351163210942687, 58.006166231042705 ] ] ] } },
{ "type": "Feature", "properties": { "id": null }, "geometry": { "type": "MultiLineString", "coordinates": [ [ [ 56.337946599999988, 58.018582399999971 ], [ 56.348547742108167, 58.021436017703572 ], [ 56.359598495942478, 58.025001602040881 ], [ 56.361647642348835, 58.025737928439412 ], [ 56.363367461654121, 58.030722265737325 ], [ 56.364172483456628, 58.035081174946377 ], [ 56.365672751361295, 58.041105281319815 ], [ 56.364209075356733, 58.043274485813328 ], [ 56.363769972555367, 58.044436505497806 ], [ 56.365672751361274, 58.047380119618062 ], [ 56.363477237354459, 58.051562733153482 ], [ 56.365270240460042, 58.053828111076072 ], [ 56.367904857268222, 58.054602566308034 ], [ 56.369880819874361, 58.055609333011915 ], [ 56.371929966280724, 58.058087407106576 ], [ 56.372003150080936, 58.058745616643449 ], [ 56.370319922675726, 58.060875034993465 ], [ 56.368929430471397, 58.062965613143511 ], [ 56.366441181263667, 58.064785090821964 ], [ 56.366312073475044, 58.064908506768319 ] ] ] } },
{ "type": "Feature", "properties": { "id": null }, "geometry": { "type": "MultiLineString", "coordinates": [ [ [ 56.364209075356733, 58.043274485813328 ], [ 56.359122801240943, 58.043681197000318 ], [ 56.357293206235262, 58.043836133378001 ], [ 56.355829530230707, 58.044649538341972 ], [ 56.355061100328328, 58.045288629255715 ], [ 56.353926751424794, 58.04732202431633 ], [ 56.354547638520366, 58.049689762718735 ] ] ] } },
{ "type": "Feature", "properties": { "id": null }, "geometry": { "type": "MultiLineString", "coordinates": [ [ [ 56.053141618539215, 58.03636596298815 ], [ 56.053141332490839, 58.038199890507173 ], [ 56.052921781090149, 58.03974946165998 ], [ 56.053799986692873, 58.041337702383771 ], [ 56.054511, 58.043000799999987 ] ] ] } },
{ "type": "Feature", "properties": { "id": null }, "geometry": { "type": "MultiLineString", "coordinates": [ [ [ 56.0818839, 58.0582523 ], [ 56.10305268424581, 58.066314154630597 ], [ 56.113883886679446, 58.070494551842494 ], [ 56.119153120295813, 58.075138863649798 ], [ 56.125886029916721, 58.082723273705426 ], [ 56.130277057930357, 58.090306072240971 ], [ 56.129984322729449, 58.098196661456271 ], [ 56.127642441122177, 58.103146728280556 ], [ 56.124422353912159, 58.106394836245684 ], [ 56.120909531501269, 58.107786791942054 ], [ 56.117689444291258, 58.109951948344495 ] ] ] } },
{ "type": "Feature", "properties": { "id": null }, "geometry": { "type": "MultiLineString", "coordinates": [ [ [ 56.204669211003932, 57.992794293986961 ], [ 56.206973680568531, 57.992457315856662 ], [ 56.21132811668204, 57.992146997107831 ], [ 56.215206858094099, 57.992069417000458 ], [ 56.218939231905679, 57.992030626883768 ], [ 56.220878602611698, 57.99173969966936 ], [ 56.223732770820568, 57.991235420232599 ], [ 56.226330795728636, 57.990149255790683 ], [ 56.228160390734317, 57.988636328995995 ], [ 56.22874586113614, 57.987511290720313 ], [ 56.228855636836478, 57.985532689416026 ], [ 56.228805895134371, 57.98475579711203 ] ] ] } },
{ "type": "Feature", "properties": { "id": null }, "geometry": { "type": "MultiLineString", "coordinates": [ [ [ 56.177647808377408, 57.965586495806363 ], [ 56.179401683832943, 57.966691708055315 ], [ 56.186939615256335, 57.968302601384977 ], [ 56.189208313063375, 57.969350613598507 ], [ 56.191928686320473, 57.971349381318419 ] ] ] } },
{ "type": "Feature", "properties": { "id": null }, "geometry": { "type": "MultiLineString", "coordinates": [ [ [ 56.254310381004515, 58.020545555785425 ], [ 56.253603968262169, 58.020943923718477 ], [ 56.254021883607166, 58.020825352901262 ], [ 56.254544277788426, 58.020896495438755 ], [ 56.257559238491702, 58.02179762200096 ], [ 56.25878313343064, 58.022058470190338 ], [ 56.259753294052977, 58.022319316477635 ], [ 56.260469720358707, 58.022588065208438 ], [ 56.264917533673426, 58.023734176834814 ], [ 56.265798141007551, 58.024034531050177 ], [ 56.266201130804532, 58.024097763195186 ], [ 56.267260844715068, 58.024263747044031 ], [ 56.269828038977266, 58.024927674736986 ], [ 56.271051933916212, 58.025275441467336 ], [ 56.274992278597693, 58.026239686079656 ], [ 56.275798258191635, 58.026571633127872 ], [ 56.278514707934193, 58.026871963516797 ], [ 56.28439537386037, 58.028231322156621 ], [ 56.296455216673436, 58.031439835889174 ], [ 56.300425412450984, 58.032546153187951 ], [ 56.303380670962113, 58.033415378482047 ], [ 56.305619503167506, 58.034126547096783 ], [ 56.311061219237665, 58.036148444081128 ] ] ] } },
{ "type": "Feature", "properties": { "id": null }, "geometry": { "type": "MultiLineString", "coordinates": [ [ [ 56.345498950241648, 57.995856806759647 ], [ 56.343739352851394, 57.998171119777929 ], [ 56.344396076964969, 58.00212577109285 ], [ 56.346042531156158, 58.005584015728452 ] ] ] } }
]
}
