{
"type": "FeatureCollection",
"name": "зоны во втором сценарии",
"crs": { "type": "name", "properties": { "name": "urn:ogc:def:crs:OGC:1.3:CRS84" } },
"features": [
{ "type": "Feature", "properties": { "id": null }, "geometry": { "type": "MultiPolygon", "coordinates": [ [ [ [ 55.970856201789339, 57.938600341883287 ], [ 55.975776068159945, 57.947250229551429 ], [ 55.981310917826868, 57.953124435809634 ], [ 55.996378008586838, 57.94928999351859 ], [ 56.002681587374155, 57.94578152768046 ], [ 56.009907641105983, 57.938763566611925 ], [ 56.009446403633738, 57.935090830650438 ], [ 55.996531754410917, 57.938600341883287 ], [ 55.987460750790106, 57.941048634864188 ], [ 55.983617105188081, 57.941538273416668 ], [ 55.970856201789339, 57.938600341883287 ] ] ] ] } },
{ "type": "Feature", "properties": { "id": null }, "geometry": { "type": "MultiPolygon", "coordinates": [ [ [ [ 55.772579262600182, 58.084227950843214 ], [ 55.771608754979248, 58.084358552841842 ], [ 55.771802856503442, 58.084489154362508 ], [ 55.773249795138277, 58.084815656072969 ], [ 55.773955618862573, 58.085198125705809 ], [ 55.773532124627998, 58.085729844969599 ], [ 55.773761517338393, 58.085907082963523 ], [ 55.774943772076618, 58.086261556310347 ], [ 55.77503200004216, 58.086466776112182 ], [ 55.775755469359567, 58.086466776112182 ], [ 55.776108381221732, 58.085832456547067 ], [ 55.776231900373482, 58.085384694770838 ], [ 55.777043597656437, 58.085104840807496 ], [ 55.77826114358087, 58.085347381035866 ], [ 55.779531626284623, 58.085319395709028 ], [ 55.780360969160682, 58.085170140261923 ], [ 55.780466842719321, 58.08437721023121 ], [ 55.780502133905543, 58.083267078587525 ], [ 55.780625653057292, 58.082884588257535 ], [ 55.779990411705427, 58.082959220838958 ], [ 55.779090486456916, 58.083220433644826 ], [ 55.77819056120844, 58.083276407568746 ], [ 55.778102333242884, 58.083957416611248 ], [ 55.776690685794286, 58.08412533465183 ], [ 55.776037798849281, 58.083500302386554 ], [ 55.773232149545159, 58.083845470811909 ], [ 55.772579262600182, 58.084227950843214 ] ] ] ] } },
{ "type": "Feature", "properties": { "id": null }, "geometry": { "type": "MultiPolygon", "coordinates": [ [ [ [ 55.815122787582894, 58.056034723679502 ], [ 55.81395817843778, 58.05586667347896 ], [ 55.814311090299945, 58.056445509730644 ], [ 55.816357979100452, 58.05689363458108 ], [ 55.81748729705933, 58.057509797071837 ], [ 55.818651906204444, 58.058872785429585 ], [ 55.818228411969855, 58.059507584173339 ], [ 55.820028262466849, 58.059526254553859 ], [ 55.821228162798178, 58.058480698216755 ], [ 55.8224280631295, 58.059358220777966 ], [ 55.823416216343531, 58.059656946944152 ], [ 55.825321940399164, 58.05978763885625 ], [ 55.826874752592651, 58.059171515655457 ], [ 55.826310093613188, 58.057995250942874 ], [ 55.824792572605936, 58.057435111275339 ], [ 55.823663254647037, 58.057080351609692 ], [ 55.821933986522481, 58.056370821709045 ], [ 55.821263453984386, 58.055941362554577 ], [ 55.821086998053318, 58.055213137406469 ], [ 55.819393021114962, 58.05549322575861 ], [ 55.818440159087146, 58.055698622487881 ], [ 55.817946082480134, 58.055007737885965 ], [ 55.817028511638526, 58.054223474308799 ], [ 55.817557879431753, 58.053607255134786 ], [ 55.81780491773528, 58.053289804745695 ], [ 55.817381423500692, 58.052860308553257 ], [ 55.816146231983154, 58.053084394167385 ], [ 55.816322687914223, 58.052804286930133 ], [ 55.816887346893679, 58.052468155346716 ], [ 55.815722737748573, 58.052542851527427 ], [ 55.815510990631275, 58.053271131105554 ], [ 55.815440408258844, 58.053943376001811 ], [ 55.815122787582894, 58.056034723679502 ] ] ] ] } },
{ "type": "Feature", "properties": { "id": null }, "geometry": { "type": "MultiPolygon", "coordinates": [ [ [ [ 55.827580576316947, 58.037806007120999 ], [ 55.828745185462054, 58.037581825690715 ], [ 55.828251108855042, 58.038478542977067 ], [ 55.827404120385879, 58.039674131037273 ], [ 55.824016166509182, 58.040234549175793 ], [ 55.821969277708696, 58.041542157331904 ], [ 55.81999297128062, 58.044418726904361 ], [ 55.82556897870267, 58.044680221749566 ], [ 55.827262955641011, 58.042812359452334 ], [ 55.830368580027972, 58.041953110016202 ], [ 55.832838963063047, 58.041280639527358 ], [ 55.833121292552782, 58.039860938059661 ], [ 55.832627215945749, 58.03840381739564 ], [ 55.831003821379852, 58.037507098234897 ], [ 55.833191874925198, 58.035863054687646 ], [ 55.834462357628958, 58.034555238786872 ], [ 55.831850809849016, 58.034667339167136 ], [ 55.830297997655542, 58.03324737504731 ], [ 55.828956932579352, 58.032313157372243 ], [ 55.826839461406422, 58.033695790861557 ], [ 55.825851308192391, 58.033919996659826 ], [ 55.825286649212948, 58.033976047889738 ], [ 55.825216066840511, 58.034686022529684 ], [ 55.825216066840511, 58.03545203198793 ], [ 55.825392522771587, 58.036629038928496 ], [ 55.824439660743771, 58.036759815085567 ], [ 55.823804419391891, 58.03756314384141 ], [ 55.823698545833253, 58.038291728730613 ], [ 55.824580825488646, 58.038908212039118 ], [ 55.826557131916701, 58.03860931236872 ], [ 55.827580576316947, 58.037806007120999 ] ] ] ] } },
{ "type": "Feature", "properties": { "id": null }, "geometry": { "type": "MultiPolygon", "coordinates": [ [ [ [ 56.095546553250848, 57.969964427024124 ], [ 56.100346154576151, 57.97011416403965 ], [ 56.099922660341555, 57.969477777403682 ], [ 56.106345656232776, 57.969627516452142 ], [ 56.11086292806835, 57.970076729844415 ], [ 56.112486322634268, 57.970039295610071 ], [ 56.113192146358578, 57.970338768390071 ], [ 56.11418029957261, 57.970076729844415 ], [ 56.115309617531501, 57.969103427045823 ], [ 56.116933012097405, 57.968017788899381 ], [ 56.11714475921471, 57.967605986518535 ], [ 56.117074176842273, 57.966557740929545 ], [ 56.116297770745533, 57.965621781466005 ], [ 56.115874276510944, 57.964536037874545 ], [ 56.117427088704432, 57.963450261401164 ], [ 56.118062330056311, 57.962364452045179 ], [ 56.118062330056311, 57.961166279421661 ], [ 56.119050483270343, 57.95959361709042 ], [ 56.120673877836246, 57.957983438959126 ], [ 56.120815042581121, 57.957122151209845 ], [ 56.118979900897905, 57.957683862957744 ], [ 56.115239035159078, 57.958507690939676 ], [ 56.112909816868857, 57.959518726687485 ], [ 56.111004092813225, 57.960342512517137 ], [ 56.110510016206206, 57.96169048487112 ], [ 56.105851579625757, 57.963749789229873 ], [ 56.104863426411725, 57.964648357701947 ], [ 56.102181296259353, 57.965621781466005 ], [ 56.101122560672884, 57.96640798905748 ], [ 56.100134407458853, 57.967306490906573 ], [ 56.098228683403221, 57.968279842496855 ], [ 56.095546553250848, 57.969964427024124 ] ] ] ] } },
{ "type": "Feature", "properties": { "id": null }, "geometry": { "type": "MultiPolygon", "coordinates": [ [ [ [ 56.363053744764024, 58.006004913908498 ], [ 56.35585434277607, 58.007351169261092 ], [ 56.353031047878837, 58.007201587833556 ], [ 56.350984159078337, 58.007425959740466 ], [ 56.348019699436243, 58.007052005780878 ], [ 56.344843492676837, 58.006678047914228 ], [ 56.341526121172585, 58.006229293316977 ], [ 56.339126320509934, 58.006004913908498 ], [ 56.333832642577619, 58.005668342158501 ], [ 56.331432841914975, 58.005518753698198 ], [ 56.330162359211222, 58.00626668974828 ], [ 56.331715171404689, 58.007126796885359 ], [ 56.334467883929506, 58.007949488720101 ], [ 56.335667784260828, 58.008286039020412 ], [ 56.337150014081878, 58.007687725187502 ], [ 56.341032044565566, 58.007463354921526 ], [ 56.343431845228217, 58.008099067022052 ], [ 56.344067086580104, 58.008510404129183 ], [ 56.343996504207681, 58.009445243609619 ], [ 56.342231944896902, 58.010417450766681 ], [ 56.341667285917453, 58.011539195438338 ], [ 56.340185056096409, 58.012660904949342 ], [ 56.338773408647789, 58.013969521607216 ], [ 56.338632243902921, 58.014866831085406 ], [ 56.338843991020212, 58.016063208720617 ], [ 56.336726519847282, 58.017184776423711 ], [ 56.335032542908948, 58.01711000633729 ], [ 56.331715171404689, 58.016586611357226 ], [ 56.330656435818234, 58.016549225708545 ], [ 56.329315370742037, 58.016287525073857 ], [ 56.327691976176126, 58.016250139112621 ], [ 56.326421493472381, 58.015689345006741 ], [ 56.325715669748064, 58.015801504531076 ], [ 56.325221593141052, 58.016736153561389 ], [ 56.326633240589679, 58.016923080437643 ], [ 56.328115470410715, 58.017857700170033 ], [ 56.330938765307955, 58.01804462118676 ], [ 56.333126818853316, 58.018605378377472 ], [ 56.33340914834303, 58.019053977801882 ], [ 56.334397301557061, 58.019652101617822 ], [ 56.334609048674359, 58.019539954164024 ], [ 56.336797102219712, 58.019278275404737 ], [ 56.337291178826746, 58.019353040959835 ], [ 56.338491079158054, 58.019988541869772 ], [ 56.340961462193142, 58.020287597215329 ], [ 56.341737868289883, 58.019689484024283 ], [ 56.342231944896902, 58.019203509693369 ], [ 56.342726021503914, 58.018493227642473 ], [ 56.343361262855794, 58.016549225708545 ], [ 56.343784757090383, 58.015614571795183 ], [ 56.344914075049282, 58.013932133223975 ], [ 56.3468197991049, 58.013969521607216 ], [ 56.347455040456779, 58.013371302787391 ], [ 56.349431346884842, 58.014418179159037 ], [ 56.350631247216171, 58.014455567034425 ], [ 56.352325224154505, 58.015240703393545 ], [ 56.35310163025126, 58.015390251222975 ], [ 56.354654442444733, 58.014829443639719 ], [ 56.356136672265798, 58.013633024751655 ], [ 56.356630748872796, 58.012922632109408 ], [ 56.359454043770029, 58.012847853116163 ], [ 56.360865691218656, 58.012698294660844 ], [ 56.362489085784567, 58.012548735580459 ], [ 56.363688986115889, 58.01146441355413 ], [ 56.36467713932992, 58.010828761228879 ], [ 56.363124327136454, 58.010454842822213 ], [ 56.362347921039699, 58.009744387086265 ], [ 56.361148020708391, 58.008959130127174 ], [ 56.360018702749493, 58.009033917246548 ], [ 56.359524626142473, 58.008809555419617 ], [ 56.361359767825668, 58.007912094046929 ], [ 56.36397131560561, 58.007164192379001 ], [ 56.365030051192086, 58.006715443876715 ], [ 56.364394809840199, 58.006079707200946 ], [ 56.363053744764024, 58.006004913908498 ] ] ] ] } },
{ "type": "Feature", "properties": { "id": null }, "geometry": { "type": "MultiPolygon", "coordinates": [ [ [ [ 56.486361149400828, 58.150400499120373 ], [ 56.485161249069499, 58.150065286189033 ], [ 56.483749601620886, 58.148649907896491 ], [ 56.482408536544689, 58.148277430570673 ], [ 56.482055624682545, 58.149506590954665 ], [ 56.482549701289557, 58.151219895217835 ], [ 56.481279218585804, 58.152039272451887 ], [ 56.479091165040437, 58.151964784391922 ], [ 56.477256023357242, 58.152486197538074 ], [ 56.477891264709108, 58.153007603045509 ], [ 56.47895000029559, 58.153454515972122 ], [ 56.483114360268999, 58.153529000914276 ], [ 56.489043279553201, 58.15401314923848 ], [ 56.494054627995801, 58.153305545620142 ], [ 56.495889769679003, 58.152709657976608 ], [ 56.500124712024856, 58.152039272451887 ], [ 56.502595095059938, 58.150735708894778 ], [ 56.503583248273962, 58.149655577207945 ], [ 56.506265378426335, 58.149432097594179 ], [ 56.508524014344133, 58.149469344293905 ], [ 56.510429738399772, 58.149208616577312 ], [ 56.510923815006791, 58.148426421968701 ], [ 56.507465278757678, 58.14719722428476 ], [ 56.50732411401281, 58.146265985660136 ], [ 56.503583248273962, 58.144850456294741 ], [ 56.504218489625849, 58.144142670505431 ], [ 56.50238334794264, 58.143472123619865 ], [ 56.500336459142154, 58.143099592115234 ], [ 56.499348305928109, 58.144403435328066 ], [ 56.500477623887008, 58.144887707788619 ], [ 56.500407041514578, 58.146414985477108 ], [ 56.500477623887008, 58.147010978508682 ], [ 56.498783646948667, 58.14816568661287 ], [ 56.496454428658438, 58.148761650334215 ], [ 56.494195792740662, 58.148240182623717 ], [ 56.491090168353701, 58.148351926347623 ], [ 56.489960850394802, 58.149506590954665 ], [ 56.48826687345646, 58.149506590954665 ], [ 56.487490467359727, 58.149208616577312 ], [ 56.486784643635417, 58.149283110405499 ], [ 56.486361149400828, 58.150400499120373 ] ] ] ] } },
{ "type": "Feature", "properties": { "id": null }, "geometry": { "type": "MultiPolygon", "coordinates": [ [ [ [ 56.108304317067812, 57.996958447696606 ], [ 56.110289446292427, 57.997421345641705 ], [ 56.110077699175136, 57.997687859925762 ], [ 56.110104167564785, 57.998094641061023 ], [ 56.110421788240743, 57.998234909346465 ], [ 56.110262977902757, 57.998529470957251 ], [ 56.109574799771565, 57.998571550989524 ], [ 56.108992495199004, 57.998781950409118 ], [ 56.106822087246769, 57.998459337460204 ], [ 56.106451529791492, 57.998753897224624 ], [ 56.106213314284538, 57.999272877580047 ], [ 56.106133909115556, 57.999469246563635 ], [ 56.114047957624372, 58.000072373136248 ], [ 56.114736135755564, 57.999006375093948 ], [ 56.115477250666089, 57.997561616564802 ], [ 56.115265503548805, 57.997253019808618 ], [ 56.114180299572681, 57.996818174410571 ], [ 56.113095095596549, 57.996832201763901 ], [ 56.109733610109529, 57.995836246021554 ], [ 56.108304317067812, 57.996958447696606 ] ] ] ] } },
{ "type": "Feature", "properties": { "id": null }, "geometry": { "type": "MultiPolygon", "coordinates": [ [ [ [ 55.990467046294469, 57.927441902775719 ], [ 55.990519983073789, 57.927891644727701 ], [ 55.992161023232804, 57.927975970716503 ], [ 55.993749126612506, 57.928032187932338 ], [ 55.995337229992188, 57.928172730586816 ], [ 55.995178419654223, 57.928931651414167 ], [ 55.995178419654223, 57.929550019486186 ], [ 55.993855000171145, 57.929859199528089 ], [ 55.991684592218888, 57.929831092361582 ], [ 55.991366971542952, 57.930533764922515 ], [ 55.98956712104598, 57.931376953840939 ], [ 55.988878942914766, 57.93269790999458 ], [ 55.990096488839207, 57.933625360800661 ], [ 55.990837603749725, 57.93463709798678 ], [ 55.990043552059873, 57.935452087758883 ], [ 55.991631655439583, 57.935761216969503 ], [ 55.992213960012137, 57.935480190524409 ], [ 55.993802063391819, 57.934805718078586 ], [ 55.995231356433557, 57.935086749804626 ], [ 55.995443103550848, 57.935536395989452 ], [ 55.996872396592558, 57.93570501185652 ], [ 55.997984068958367, 57.935761216969503 ], [ 55.997401764385792, 57.936126548058589 ], [ 55.998460499972268, 57.936154650296025 ], [ 55.998460499972268, 57.936070343517692 ], [ 55.99914867810346, 57.935171058893346 ], [ 55.999889793013985, 57.934693304772061 ], [ 56.001054402159092, 57.934440373545137 ], [ 56.002483695200823, 57.934777614784963 ], [ 56.003436557228646, 57.934890027827443 ], [ 56.00428354569781, 57.935058646731044 ], [ 56.00338362044932, 57.935283470703617 ], [ 56.004548229594427, 57.935620704022007 ], [ 56.004548229594427, 57.935395882161806 ], [ 56.00428354569781, 57.934918131033051 ], [ 56.004707039932399, 57.934103129136702 ], [ 56.005606965180881, 57.93269790999458 ], [ 56.00693038466396, 57.932135806934419 ], [ 56.00703625822262, 57.931236423729892 ], [ 56.006506890429385, 57.930814830095876 ], [ 56.00539521806359, 57.928959759284865 ], [ 56.006771574325995, 57.92921272913091 ], [ 56.003118936552696, 57.928510030712879 ], [ 56.003701241125249, 57.927441902775719 ], [ 56.001107338938418, 57.92657051171178 ], [ 55.999730982676013, 57.926317523248052 ], [ 55.997401764385792, 57.925783430637409 ], [ 55.995337229992188, 57.925530436627852 ], [ 55.993219758819265, 57.924911999322113 ], [ 55.992108086453477, 57.924349774346382 ], [ 55.989672994604618, 57.924434108653912 ], [ 55.98919656359071, 57.925305551567284 ], [ 55.988296638342213, 57.926120753210547 ], [ 55.98734377631439, 57.927160811194845 ], [ 55.988296638342213, 57.927554338791879 ], [ 55.990467046294469, 57.927441902775719 ] ] ] ] } },
{ "type": "Feature", "properties": { "id": null }, "geometry": { "type": "MultiPolygon", "coordinates": [ [ [ [ 56.123206020447306, 57.95174799744234 ], [ 56.123285425616295, 57.952436196233911 ], [ 56.123761856630189, 57.952239569355108 ], [ 56.12638222720669, 57.952380017235669 ], [ 56.127679178300099, 57.952141255511492 ], [ 56.126858658220591, 57.951481141297059 ], [ 56.128102672534688, 57.950989558990308 ], [ 56.127837988638078, 57.950526060930677 ], [ 56.126779253051609, 57.95006255688201 ], [ 56.125588175516839, 57.949374312548912 ], [ 56.12519114967192, 57.94895293195033 ], [ 56.124820592216665, 57.948025877210348 ], [ 56.124026540526813, 57.947885412281046 ], [ 56.123391299174926, 57.948264666327965 ], [ 56.123100146888653, 57.949135530817436 ], [ 56.122941336550682, 57.950455833429473 ], [ 56.123047210109341, 57.951214283166472 ], [ 56.123206020447306, 57.95174799744234 ] ] ] ] } },
{ "type": "Feature", "properties": { "id": null }, "geometry": { "type": "MultiPolygon", "coordinates": [ [ [ [ 56.379658247878112, 58.040192518120129 ], [ 56.383363822430745, 58.042265991278249 ], [ 56.383787316665327, 58.044619517759557 ], [ 56.38251683396156, 58.04495572317748 ], [ 56.38050523634729, 58.04579622288567 ], [ 56.376482041118734, 58.046804796444007 ], [ 56.373623455035279, 58.046804796444007 ], [ 56.370447248275887, 58.047981429621345 ], [ 56.365365317460871, 58.048597745824537 ], [ 56.364306581874423, 58.050054450960133 ], [ 56.365365317460871, 58.050782781259421 ], [ 56.365259443902232, 58.052519508987679 ], [ 56.366847547281914, 58.053864014415545 ], [ 56.369917880482667, 58.053920034377072 ], [ 56.372247098772888, 58.053527892801881 ], [ 56.373729328593932, 58.052463486830199 ], [ 56.376693788236018, 58.051399049148159 ], [ 56.379552374319474, 58.05067073141042 ], [ 56.38050523634729, 58.049270078650721 ], [ 56.380611109905928, 58.049214051398359 ], [ 56.385798914279597, 58.047589222866783 ], [ 56.3873870176593, 58.045572091562875 ], [ 56.388869247480351, 58.044395379057249 ], [ 56.390457350860032, 58.042938443229495 ], [ 56.394480546088595, 58.042322029424049 ], [ 56.397974373523908, 58.04176164401246 ], [ 56.397339132172043, 58.040977089676332 ], [ 56.394798166764531, 58.03996835165546 ], [ 56.385375420045008, 58.038455191249618 ], [ 56.375740926208202, 58.036773826788284 ], [ 56.376905535353316, 58.037558473377501 ], [ 56.378493638733019, 58.039856267895964 ], [ 56.379658247878112, 58.040192518120129 ] ] ] ] } },
{ "type": "Feature", "properties": { "id": null }, "geometry": { "type": "MultiPolygon", "coordinates": [ [ [ [ 56.346308076904549, 58.005401887278573 ], [ 56.350490082471076, 58.006018937662695 ], [ 56.352554616864687, 58.006046985154697 ], [ 56.355466139727461, 58.006243316983245 ], [ 56.360971564777067, 58.005570174801903 ], [ 56.363300783067274, 58.005177502683402 ], [ 56.365206507122913, 58.003887263964494 ], [ 56.363988961198487, 58.002092071861355 ], [ 56.362030300363521, 58.000857825068614 ], [ 56.361447995790968, 58.000408997502987 ], [ 56.358907030383463, 58.000661463701 ], [ 56.356577812093249, 58.001643259769146 ], [ 56.353189858216567, 58.001587157861977 ], [ 56.350966513484998, 58.001811564963099 ], [ 56.349854841119196, 58.001446902709468 ], [ 56.348213800960188, 58.001222493322558 ], [ 56.348213800960188, 57.999960164310593 ], [ 56.348796105532742, 57.999455220243348 ], [ 56.346731571139145, 57.9991185869088 ], [ 56.345619898773357, 57.997659805883991 ], [ 56.34334361726247, 57.998276989724921 ], [ 56.342602502351944, 57.99951132549139 ], [ 56.340379157620376, 58.000380945593314 ], [ 56.33995566338578, 58.001979869365798 ], [ 56.339055738137297, 58.002737229386362 ], [ 56.34022034728239, 58.003045778875233 ], [ 56.346625697580507, 58.003662869874788 ], [ 56.346308076904549, 58.005401887278573 ] ] ] ] } },
{ "type": "Feature", "properties": { "id": null }, "geometry": { "type": "MultiPolygon", "coordinates": [ [ [ [ 56.245397341319794, 57.878449578147297 ], [ 56.246111987840671, 57.880307258200894 ], [ 56.247382470544423, 57.881869323988042 ], [ 56.255322987442888, 57.880476133448475 ], [ 56.260087297581954, 57.879547309774949 ], [ 56.263422314679325, 57.878534020231079 ], [ 56.265407443903946, 57.877900699770976 ], [ 56.264692797383077, 57.876549578855922 ], [ 56.264533987045112, 57.875156182261428 ], [ 56.268980676508242, 57.874987282037161 ], [ 56.269060081677225, 57.873678278413152 ], [ 56.271442236746779, 57.87270705139909 ], [ 56.26707495245261, 57.870933438765682 ], [ 56.266042685255805, 57.870088830592557 ], [ 56.262866478496427, 57.871524652690958 ], [ 56.258260978695326, 57.872875962328322 ], [ 56.256275849470697, 57.874438350832044 ], [ 56.25548179778086, 57.875367306426675 ], [ 56.251987970345525, 57.877098477848008 ], [ 56.248335332572239, 57.87773181243179 ], [ 56.245714961995738, 57.877267368160595 ], [ 56.245397341319794, 57.878449578147297 ] ] ] ] } },
{ "type": "Feature", "properties": { "id": null }, "geometry": { "type": "MultiPolygon", "coordinates": [ [ [ [ 56.25476715125999, 57.894152395566962 ], [ 56.257466927005474, 57.895460654188611 ], [ 56.264533987045112, 57.894405610628787 ], [ 56.265010418059028, 57.892970701695702 ], [ 56.261595995792675, 57.893645960092613 ], [ 56.260960754440795, 57.893181721307201 ], [ 56.25476715125999, 57.894152395566962 ] ] ] ] } },
{ "type": "Feature", "properties": { "id": null }, "geometry": { "type": "MultiPolygon", "coordinates": [ [ [ [ 56.25778454768141, 57.899131964411225 ], [ 56.264295771538166, 57.898372413750366 ], [ 56.263739935355261, 57.895165245113049 ], [ 56.257149306329545, 57.896895463739362 ], [ 56.25778454768141, 57.899131964411225 ] ] ] ] } },
{ "type": "Feature", "properties": { "id": null }, "geometry": { "type": "MultiPolygon", "coordinates": [ [ [ [ 56.266598521438738, 57.905207791891947 ], [ 56.267392573128582, 57.905882820428864 ], [ 56.269615917860158, 57.905207791891947 ], [ 56.273903796985323, 57.904363988388589 ], [ 56.27898572780034, 57.90343578164984 ], [ 56.282955986249569, 57.90233877913937 ], [ 56.282638365573646, 57.899385144398003 ], [ 56.285179330981158, 57.898288018241701 ], [ 56.286449813684911, 57.896937663153281 ], [ 56.288831968754444, 57.891957790319076 ], [ 56.291055313486012, 57.890269541273497 ], [ 56.293119847879609, 57.887905859428329 ], [ 56.295343192611199, 57.886470691070777 ], [ 56.295978433963064, 57.884360045313919 ], [ 56.299631071736364, 57.879547309774949 ], [ 56.301377985454032, 57.877942921481868 ], [ 56.300901554440109, 57.876676248597455 ], [ 56.29645486497698, 57.876254014391144 ], [ 56.293596278893531, 57.876845140892357 ], [ 56.290578882472111, 57.877689590473103 ], [ 56.285020520643172, 57.877351813019551 ], [ 56.280732641518007, 57.877267368160595 ], [ 56.277080003744707, 57.877858478010488 ], [ 56.270886400563903, 57.879800627700909 ], [ 56.268345435156405, 57.880645007903148 ], [ 56.267392573128582, 57.882587007145077 ], [ 56.266916142114667, 57.885542022199296 ], [ 56.26723376279061, 57.887061649684277 ], [ 56.268027814480455, 57.887990279312653 ], [ 56.268027814480455, 57.889594219458573 ], [ 56.268027814480455, 57.891535735489526 ], [ 56.267074952452639, 57.895502855286949 ], [ 56.266916142114667, 57.896853264275876 ], [ 56.266598521438738, 57.905207791891947 ] ] ] ] } },
{ "type": "Feature", "properties": { "id": null }, "geometry": { "type": "MultiPolygon", "coordinates": [ [ [ [ 56.3049710693506, 57.926201569606476 ], [ 56.311085267362415, 57.925990743844181 ], [ 56.317675896388153, 57.926496723594006 ], [ 56.320455077302626, 57.927508661702817 ], [ 56.32244020652724, 57.928731382198471 ], [ 56.324266525413883, 57.929911900405997 ], [ 56.327998568356158, 57.930164863542942 ], [ 56.329110240721938, 57.929701096430257 ], [ 56.330618938932659, 57.928225433940426 ], [ 56.330857154439613, 57.927972457137621 ], [ 56.330698344101648, 57.926032909095674 ], [ 56.330460128594694, 57.924894429924912 ], [ 56.32926905105991, 57.922575194025477 ], [ 56.327760352849211, 57.921773968630177 ], [ 56.326807490821395, 57.921183580584007 ], [ 56.326172249469508, 57.920551011192359 ], [ 56.32506057710372, 57.920044947656628 ], [ 56.321963775513318, 57.918653236163422 ], [ 56.320534482471608, 57.917767573497557 ], [ 56.321407939330427, 57.915827474199048 ], [ 56.323948904737939, 57.915279166274139 ], [ 56.32323425821707, 57.914098166931211 ], [ 56.319661025612774, 57.913212391942658 ], [ 56.317993517064089, 57.913423292730542 ], [ 56.316643629191354, 57.91300148991661 ], [ 56.314737905135722, 57.913929449569686 ], [ 56.312038129390238, 57.913170211636498 ], [ 56.309020732968818, 57.913338932563953 ], [ 56.304732853843653, 57.91300148991661 ], [ 56.300286164380502, 57.911989142955896 ], [ 56.299095086845732, 57.912242232370581 ], [ 56.298459845493866, 57.914688671456233 ], [ 56.298301035155902, 57.915827474199048 ], [ 56.298459845493866, 57.91743017245156 ], [ 56.298936276507767, 57.918104971374028 ], [ 56.306241552054352, 57.916881888991803 ], [ 56.308226681278967, 57.917050592486241 ], [ 56.310370620841574, 57.917641048476725 ], [ 56.311879319052267, 57.91903279919179 ], [ 56.312038129390238, 57.919581049817722 ], [ 56.311720508714302, 57.92042449597696 ], [ 56.310211810503588, 57.92059318283178 ], [ 56.30981478465867, 57.92076186889426 ], [ 56.309020732968818, 57.920972725358148 ], [ 56.308464896785935, 57.921394434571859 ], [ 56.307670845096091, 57.922026989107344 ], [ 56.307273819251172, 57.922322177410877 ], [ 56.306559172730303, 57.922912546738559 ], [ 56.305526905533505, 57.923713746730456 ], [ 56.304415233167724, 57.924430594728442 ], [ 56.304097612491766, 57.925569088605819 ], [ 56.304256422829752, 57.925822082343039 ], [ 56.304494638336699, 57.926032909095674 ], [ 56.3049710693506, 57.926201569606476 ] ] ] ] } },
{ "type": "Feature", "properties": { "id": null }, "geometry": { "type": "MultiPolygon", "coordinates": [ [ [ [ 56.33109536994656, 57.930122703143923 ], [ 56.333874550861026, 57.930797263587039 ], [ 56.340941610900664, 57.931471811354946 ], [ 56.348723317461165, 57.932272820366627 ], [ 56.351978929389531, 57.933411065584131 ], [ 56.356266808514711, 57.934254186919787 ], [ 56.361586954836682, 57.936404056689135 ], [ 56.367065911496617, 57.937626474226619 ], [ 56.371194980283818, 57.936741279478781 ], [ 56.374450592212206, 57.935392369309085 ], [ 56.373021299170468, 57.934507119458715 ], [ 56.373180109508439, 57.933495378608875 ], [ 56.370956764776871, 57.93315812532164 ], [ 56.368574609707338, 57.931766922017694 ], [ 56.366986506327635, 57.931218857427353 ], [ 56.364604351258102, 57.930459984949891 ], [ 56.361904575512618, 57.92830975914525 ], [ 56.362063385850583, 57.927213516033909 ], [ 56.35968123078105, 57.927002696213556 ], [ 56.356822644697601, 57.928056782936608 ], [ 56.353408222431256, 57.928014620061873 ], [ 56.350708446685779, 57.927845968067757 ], [ 56.349834989826945, 57.926876203727147 ], [ 56.348723317461165, 57.927508661702817 ], [ 56.34673818823655, 57.928478408960693 ], [ 56.346817593405525, 57.92906867707601 ], [ 56.346102946884663, 57.929785418169111 ], [ 56.337924214479244, 57.929195161838116 ], [ 56.336812542113464, 57.929363807494383 ], [ 56.33443038704393, 57.929448130025442 ], [ 56.331333585453528, 57.928731382198471 ], [ 56.33109536994656, 57.930122703143923 ] ] ] ] } },
{ "type": "Feature", "properties": { "id": null }, "geometry": { "type": "MultiPolygon", "coordinates": [ [ [ [ 56.269199040723045, 58.036777329713097 ], [ 56.26812707094173, 58.037660055828631 ], [ 56.265983131379151, 58.038542760148779 ], [ 56.266062536548134, 58.038794957379928 ], [ 56.266141941717137, 58.039173249890659 ], [ 56.267213911498423, 58.039929822902764 ], [ 56.269516661398981, 58.040896531783048 ], [ 56.271620898377066, 58.040350134323909 ], [ 56.272017924221984, 58.040371149765242 ], [ 56.274360376707044, 58.04123277222201 ], [ 56.274955915474422, 58.042472631505575 ], [ 56.275075023227899, 58.042829871114598 ], [ 56.278529148078739, 58.041295816952207 ], [ 56.280117251458421, 58.041274802054495 ], [ 56.279958441120456, 58.040728410377483 ], [ 56.278807066170181, 58.040371149765242 ], [ 56.277417475712959, 58.039236298253257 ], [ 56.276266100762676, 58.039740681150903 ], [ 56.275432346488337, 58.039929822902764 ], [ 56.272216437144465, 58.039488490591665 ], [ 56.270191605335334, 58.039383410666879 ], [ 56.269199040723045, 58.036777329713097 ] ] ] ] } }
]
}
