{
"type": "FeatureCollection",
"name": "территории новых ЖК",
"crs": { "type": "name", "properties": { "name": "urn:ogc:def:crs:OGC:1.3:CRS84" } },
"features": [
{ "type": "Feature", "properties": { "id": 1, "pop": 5000 }, "geometry": { "type": "MultiPolygon", "coordinates": [ [ [ [ 56.170236524574079, 58.009690975568589 ], [ 56.171690735709049, 58.009906976569276 ], [ 56.174259389022211, 58.010166176049275 ], [ 56.175985415322607, 58.010353374506217 ], [ 56.176393138070715, 58.010295775085275 ], [ 56.17775221389779, 58.010461373170585 ], [ 56.17780657693087, 58.010151776127401 ], [ 56.178921019109076, 58.010209375780093 ], [ 56.179641329297418, 58.008510147055034 ], [ 56.170902471729342, 58.007581297251441 ], [ 56.170195752299264, 58.00933817113053 ], [ 56.170236524574079, 58.009690975568589 ] ] ] ] } },
{ "type": "Feature", "properties": { "id": 2, "pop": 3000 }, "geometry": { "type": "MultiPolygon", "coordinates": [ [ [ [ 56.176471857405254, 57.971708893770064 ], [ 56.180714642236936, 57.972935827270142 ], [ 56.182510571491001, 57.971268019271839 ], [ 56.178157991857766, 57.969957841354208 ], [ 56.176471857405254, 57.971708893770064 ] ] ] ] } }
]
}
